{
"type": "FeatureCollection",
"name": "Границы Артём",
"crs": { "type": "name", "properties": { "name": "urn:ogc:def:crs:OGC:1.3:CRS84" } },
"features": [
{ "type": "Feature", "properties": { "fid": 3, "NAME": "Артём", "NAME_EN": "Artyom", "NAME_RU": "Артём", "INT_NAME": null, "OFFICIAL_S": null, "PLACE": "city", "A_CNTR": "RU", "A_RGN": "Приморский край", "A_DSTRCT": null, "A_PSTCD": "692700", "POPULATION": "104926", "OSM_TYPE": "relation", "OSM_ID": 2071804, "oktmo": "05705000001", "okato": null }, "geometry": { "type": "MultiPolygon", "coordinates": [ [ [ [ 132.292199, 43.3192186 ], [ 132.292146, 43.3191125 ], [ 132.2916892, 43.3188608 ], [ 132.2915289, 43.3185324 ], [ 132.291643599999986, 43.3184916 ], [ 132.291642700000011, 43.3182152 ], [ 132.2914953, 43.3181693 ], [ 132.2905815, 43.318088 ], [ 132.289768, 43.3183284 ], [ 132.2906332, 43.3176062 ], [ 132.2902278, 43.3175723 ], [ 132.2895982, 43.3171249 ], [ 132.2894426, 43.3169964 ], [ 132.287119499999989, 43.3166684 ], [ 132.280698300000012, 43.3157485 ], [ 132.2796847, 43.3155902 ], [ 132.279256800000013, 43.3154119 ], [ 132.278436199999987, 43.3148128 ], [ 132.276093800000012, 43.3132769 ], [ 132.2745083, 43.3121881 ], [ 132.274172099999987, 43.3120548 ], [ 132.273303700000014, 43.3115031 ], [ 132.272668900000014, 43.3120465 ], [ 132.272649800000011, 43.3122445 ], [ 132.272476899999987, 43.3123501 ], [ 132.2723871, 43.312442 ], [ 132.2722865, 43.3125427 ], [ 132.2721867, 43.3126945 ], [ 132.2723057, 43.3129124 ], [ 132.2727515, 43.3132938 ], [ 132.2732326, 43.313668 ], [ 132.273646899999989, 43.3139896 ], [ 132.2739751, 43.3142416 ], [ 132.2745333, 43.314842 ], [ 132.2748201, 43.3151522 ], [ 132.2749705, 43.3153153 ], [ 132.2749796, 43.3153257 ], [ 132.275145400000014, 43.3155014 ], [ 132.2752237, 43.3155855 ], [ 132.2755369, 43.3159653 ], [ 132.275500599999987, 43.3160891 ], [ 132.2754232, 43.3161631 ], [ 132.2753569, 43.3161228 ], [ 132.2748909, 43.3158542 ], [ 132.2746689, 43.315732 ], [ 132.2740254, 43.3153651 ], [ 132.2731849, 43.3148533 ], [ 132.272582699999987, 43.3142146 ], [ 132.271930700000013, 43.313219 ], [ 132.269439799999986, 43.3118268 ], [ 132.269256399999989, 43.3118884 ], [ 132.269001800000012, 43.3122555 ], [ 132.269381399999986, 43.3130542 ], [ 132.2701811, 43.3140299 ], [ 132.271004299999987, 43.3150172 ], [ 132.2710006, 43.3150178 ], [ 132.2712617, 43.3158441 ], [ 132.2725816, 43.3171683 ], [ 132.272932200000014, 43.3176534 ], [ 132.2729543, 43.3176699 ], [ 132.2729324, 43.317765 ], [ 132.2729037, 43.317796 ], [ 132.2727401, 43.3177613 ], [ 132.2720483, 43.3175124 ], [ 132.271692, 43.3174605 ], [ 132.2713804, 43.3174233 ], [ 132.2710164, 43.3174598 ], [ 132.270596899999987, 43.3175402 ], [ 132.2699035, 43.3174191 ], [ 132.269835300000011, 43.3174038 ], [ 132.2695798, 43.3173434 ], [ 132.2689455, 43.317316 ], [ 132.268616, 43.3173988 ], [ 132.2683417, 43.3175195 ], [ 132.268151100000011, 43.3177359 ], [ 132.2679499, 43.3183529 ], [ 132.267888199999987, 43.3185299 ], [ 132.2678613, 43.3186111 ], [ 132.265455800000012, 43.3181924 ], [ 132.2655005, 43.3185466 ], [ 132.2661462, 43.319606 ], [ 132.2666044, 43.3197122 ], [ 132.267670900000013, 43.3199599 ], [ 132.267883, 43.3200092 ], [ 132.2675925, 43.3203231 ], [ 132.266612, 43.3213792 ], [ 132.2664818, 43.3215193 ], [ 132.2658667, 43.3213765 ], [ 132.2655909, 43.3218854 ], [ 132.2654699, 43.322261 ], [ 132.2654817, 43.3228173 ], [ 132.265556, 43.3230028 ], [ 132.266026900000014, 43.323113 ], [ 132.265964, 43.3231863 ], [ 132.266151900000011, 43.3232723 ], [ 132.2660271, 43.3234178 ], [ 132.2669115, 43.3239124 ], [ 132.2669247, 43.3239197 ], [ 132.2672794, 43.3239922 ], [ 132.267322400000012, 43.324001 ], [ 132.267447, 43.3240264 ], [ 132.267844, 43.3241075 ], [ 132.2680334, 43.3241318 ], [ 132.268074, 43.3241504 ], [ 132.2681781, 43.3241916 ], [ 132.2682886, 43.3242226 ], [ 132.2684035, 43.3242431 ], [ 132.2690379, 43.3243251 ], [ 132.26930440000001, 43.3243597 ], [ 132.2695443, 43.3243909 ], [ 132.2701377, 43.3243886 ], [ 132.2707426, 43.3244954 ], [ 132.2717107, 43.3245206 ], [ 132.2717749, 43.3245062 ], [ 132.271856, 43.3244819 ], [ 132.271925, 43.324462 ], [ 132.272211700000014, 43.324399 ], [ 132.2722678, 43.3243927 ], [ 132.2725897, 43.3243511 ], [ 132.272894400000013, 43.3243143 ], [ 132.2730853, 43.3242895 ], [ 132.2733962, 43.324267 ], [ 132.2735401, 43.3242737 ], [ 132.2737177, 43.3242925 ], [ 132.273879, 43.3243356 ], [ 132.2738841, 43.3242186 ], [ 132.27802410000001, 43.3243148 ], [ 132.281484400000011, 43.3243952 ], [ 132.2821454, 43.3249099 ], [ 132.2821835, 43.3249397 ], [ 132.282424099999986, 43.3253643 ], [ 132.2830975, 43.3253181 ], [ 132.2833015, 43.3253042 ], [ 132.283381600000013, 43.3252987 ], [ 132.2842685, 43.3252497 ], [ 132.2848548, 43.3252174 ], [ 132.286449, 43.3250158 ], [ 132.286477600000012, 43.3249859 ], [ 132.289584600000012, 43.3217308 ], [ 132.2911977, 43.3203579 ], [ 132.2914774, 43.3201198 ], [ 132.2914937, 43.3201058 ], [ 132.2916904, 43.3199384 ], [ 132.2912033, 43.3198614 ], [ 132.2911781, 43.3197609 ], [ 132.291613, 43.3195557 ], [ 132.2915946, 43.3194036 ], [ 132.292199, 43.3192186 ] ] ], [ [ [ 132.260738, 43.3205148 ], [ 132.248690399999987, 43.3189198 ], [ 132.247759800000011, 43.3187965 ], [ 132.2473352, 43.3214927 ], [ 132.2542937, 43.3224094 ], [ 132.2570484, 43.3227721 ], [ 132.2588681, 43.3230117 ], [ 132.2599621, 43.321551 ], [ 132.260738, 43.3205148 ] ] ], [ [ [ 132.2539801, 43.2993405 ], [ 132.250053, 43.2966734 ], [ 132.246473, 43.2942415 ], [ 132.2463598, 43.2943313 ], [ 132.2471895, 43.2976313 ], [ 132.2481804, 43.2986303 ], [ 132.248173799999989, 43.2986364 ], [ 132.247514, 43.2990507 ], [ 132.249409, 43.302864 ], [ 132.2499144, 43.3031507 ], [ 132.250729299999989, 43.3036012 ], [ 132.2508004, 43.3037054 ], [ 132.2511311, 43.3038933 ], [ 132.2512183, 43.3040278 ], [ 132.2524047, 43.3045098 ], [ 132.252751, 43.3033094 ], [ 132.2528379, 43.303008 ], [ 132.2538489, 43.2995015 ], [ 132.2539801, 43.2993405 ] ] ], [ [ [ 132.255888, 43.2957814 ], [ 132.249830800000012, 43.2949183 ], [ 132.2499215, 43.2956357 ], [ 132.251898399999988, 43.2969765 ], [ 132.2519618, 43.2969239 ], [ 132.2544967, 43.2986431 ], [ 132.2554035, 43.2972752 ], [ 132.255888, 43.2957814 ] ] ], [ [ [ 132.053067, 43.3293588 ], [ 132.0526777, 43.3295999 ], [ 132.051306, 43.3301597 ], [ 132.0487853, 43.3307431 ], [ 132.046392, 43.3310004 ], [ 132.0436475, 43.3312112 ], [ 132.0390827, 43.3314804 ], [ 132.039057899999989, 43.3316621 ], [ 132.038990500000011, 43.3328848 ], [ 132.038993299999987, 43.3330837 ], [ 132.037508, 43.3331347 ], [ 132.0374763, 43.3335587 ], [ 132.037127, 43.3343256 ], [ 132.0378067, 43.3344009 ], [ 132.0381578, 43.3344395 ], [ 132.038560499999988, 43.3344837 ], [ 132.0390002, 43.3345065 ], [ 132.0392197, 43.334518 ], [ 132.039210700000012, 43.334646 ], [ 132.0391529, 43.3349279 ], [ 132.039165, 43.3351381 ], [ 132.0394803, 43.3355029 ], [ 132.0395509, 43.3355565 ], [ 132.0394019, 43.3356299 ], [ 132.03943, 43.3356539 ], [ 132.038943499999988, 43.3358651 ], [ 132.0387553, 43.3359465 ], [ 132.038434099999989, 43.3360853 ], [ 132.0384453, 43.3360994 ], [ 132.038147900000013, 43.3362093 ], [ 132.038143, 43.3362008 ], [ 132.0379845, 43.3362577 ], [ 132.0378092, 43.3363052 ], [ 132.0375599, 43.3363661 ], [ 132.037128, 43.338055 ], [ 132.0369579, 43.3384174 ], [ 132.0374045, 43.3389187 ], [ 132.0377014, 43.3393273 ], [ 132.0380535, 43.3408498 ], [ 132.038342300000011, 43.3410561 ], [ 132.0397155, 43.3413027 ], [ 132.0428686, 43.3414643 ], [ 132.0429064, 43.34119 ], [ 132.0430088, 43.3408427 ], [ 132.0437188, 43.3407883 ], [ 132.04488520000001, 43.3412284 ], [ 132.0457089, 43.3415724 ], [ 132.0472411, 43.3422125 ], [ 132.046887199999986, 43.342566 ], [ 132.046712500000012, 43.3432995 ], [ 132.0463718, 43.3445939 ], [ 132.0467333, 43.3459354 ], [ 132.0464249, 43.3468699 ], [ 132.046247, 43.3470456 ], [ 132.045831, 43.3469614 ], [ 132.0450935, 43.3488125 ], [ 132.0446072, 43.3499261 ], [ 132.044498299999987, 43.3502806 ], [ 132.0457762, 43.3506217 ], [ 132.045559200000014, 43.3517803 ], [ 132.0461905, 43.3520861 ], [ 132.0492452, 43.353606 ], [ 132.0501902, 43.3540365 ], [ 132.0506196, 43.3556837 ], [ 132.048499, 43.3569952 ], [ 132.0480689, 43.3573057 ], [ 132.0488667, 43.3578069 ], [ 132.048797900000011, 43.358003 ], [ 132.04961560000001, 43.3583986 ], [ 132.0493448, 43.3585481 ], [ 132.0493811, 43.3585731 ], [ 132.049205199999989, 43.3588204 ], [ 132.0493878, 43.3588907 ], [ 132.0495157, 43.3589526 ], [ 132.049377, 43.3593055 ], [ 132.0493586, 43.3593668 ], [ 132.049346500000013, 43.3593912 ], [ 132.0490183, 43.359301 ], [ 132.0489653, 43.3593393 ], [ 132.048616399999986, 43.3595938 ], [ 132.0483757, 43.3597653 ], [ 132.0487593, 43.360058 ], [ 132.0488287, 43.3600881 ], [ 132.0491561, 43.3603338 ], [ 132.049152, 43.360357 ], [ 132.0490419, 43.3604675 ], [ 132.049358399999988, 43.3607438 ], [ 132.049418800000012, 43.3607971 ], [ 132.049735199999986, 43.3610727 ], [ 132.0500835, 43.3613765 ], [ 132.0503999, 43.3616528 ], [ 132.050716599999987, 43.3619291 ], [ 132.0507828, 43.361987 ], [ 132.0510994, 43.3622631 ], [ 132.051416, 43.3625394 ], [ 132.0514763, 43.3625897 ], [ 132.0516116, 43.3625139 ], [ 132.0517156, 43.3624504 ], [ 132.0517755, 43.3625026 ], [ 132.0520587, 43.362296 ], [ 132.0522728, 43.362207 ], [ 132.0525419, 43.3621134 ], [ 132.0527141, 43.3620536 ], [ 132.0531781, 43.3618925 ], [ 132.053644100000014, 43.3617306 ], [ 132.0538162, 43.361671 ], [ 132.0543906, 43.3614715 ], [ 132.0549442, 43.3612792 ], [ 132.0551946, 43.3611512 ], [ 132.0563206, 43.360736 ], [ 132.0572238, 43.360403 ], [ 132.0580339, 43.359967 ], [ 132.058331, 43.3597598 ], [ 132.0584652, 43.3598012 ], [ 132.059486, 43.3606429 ], [ 132.0606339, 43.3612737 ], [ 132.0607439, 43.3614039 ], [ 132.061096600000013, 43.3619131 ], [ 132.061361799999986, 43.3624464 ], [ 132.061749600000013, 43.363506 ], [ 132.0620874, 43.3644663 ], [ 132.0622669, 43.3649246 ], [ 132.061304400000012, 43.3651624 ], [ 132.0616779, 43.3660263 ], [ 132.061790800000011, 43.3663695 ], [ 132.061833, 43.3664814 ], [ 132.0633588, 43.3661196 ], [ 132.0635665, 43.3660704 ], [ 132.06401, 43.3659652 ], [ 132.0641061, 43.3659424 ], [ 132.0645975, 43.3658259 ], [ 132.064603, 43.3659057 ], [ 132.064622, 43.3661836 ], [ 132.0647581, 43.368176 ], [ 132.0648117, 43.3681998 ], [ 132.0666027, 43.3687926 ], [ 132.0672499, 43.3690078 ], [ 132.0671132, 43.3698362 ], [ 132.0683775, 43.3699482 ], [ 132.068639600000012, 43.369463 ], [ 132.068696499999987, 43.3694796 ], [ 132.06938550000001, 43.3693753 ], [ 132.0712454, 43.3678735 ], [ 132.071450700000014, 43.3678128 ], [ 132.0717948, 43.3677039 ], [ 132.0736501, 43.3684451 ], [ 132.0739222, 43.3682351 ], [ 132.0742421, 43.3679861 ], [ 132.0748441, 43.3678691 ], [ 132.0753281, 43.3679722 ], [ 132.075483600000013, 43.3680755 ], [ 132.0756676, 43.3680638 ], [ 132.0757956, 43.3680636 ], [ 132.0760517, 43.3681102 ], [ 132.0762437, 43.3681275 ], [ 132.0763397, 43.3681509 ], [ 132.0763957, 43.3681625 ], [ 132.0767078, 43.3682031 ], [ 132.0772599, 43.3683369 ], [ 132.0780763, 43.3686397 ], [ 132.0791305, 43.3693228 ], [ 132.0793151, 43.3694387 ], [ 132.080565400000012, 43.3702483 ], [ 132.0816896, 43.3693467 ], [ 132.0825294, 43.3686486 ], [ 132.0864522, 43.3685099 ], [ 132.0873115, 43.3684543 ], [ 132.0866828, 43.3674897 ], [ 132.0870366, 43.3670458 ], [ 132.0870677, 43.366918 ], [ 132.0872358, 43.3662249 ], [ 132.0872592, 43.3661286 ], [ 132.0872826, 43.3658805 ], [ 132.0872798, 43.3658517 ], [ 132.0872645, 43.3656866 ], [ 132.087242, 43.3655261 ], [ 132.0871093, 43.3646022 ], [ 132.0870578, 43.3644656 ], [ 132.08700730000001, 43.3643148 ], [ 132.086905699999988, 43.3640119 ], [ 132.0865988, 43.3630962 ], [ 132.0868577, 43.3627443 ], [ 132.0872521, 43.3622082 ], [ 132.0872848, 43.3621637 ], [ 132.0875048, 43.3617132 ], [ 132.0875356, 43.36165 ], [ 132.090211399999987, 43.3621384 ], [ 132.090898399999986, 43.3594539 ], [ 132.090956299999988, 43.3589652 ], [ 132.0898788, 43.3567473 ], [ 132.0877674, 43.3524006 ], [ 132.0880975, 43.3522999 ], [ 132.088211300000012, 43.3522652 ], [ 132.0894351, 43.3518917 ], [ 132.0894836, 43.3520129 ], [ 132.089703, 43.3521385 ], [ 132.089964400000014, 43.352184 ], [ 132.090878, 43.3520423 ], [ 132.0909642, 43.3522501 ], [ 132.0911633, 43.3525602 ], [ 132.09141360000001, 43.3527931 ], [ 132.0915338, 43.3528751 ], [ 132.0916119, 43.3528345 ], [ 132.0917595, 43.3524727 ], [ 132.091989399999989, 43.352574 ], [ 132.0928037, 43.3524756 ], [ 132.092998200000011, 43.3517969 ], [ 132.0928433, 43.3513313 ], [ 132.094931300000013, 43.3511273 ], [ 132.0949601, 43.3507893 ], [ 132.0978254, 43.351014 ], [ 132.0977992, 43.3512004 ], [ 132.100261, 43.351616 ], [ 132.1003596, 43.3566231 ], [ 132.1025117, 43.3573004 ], [ 132.1026091, 43.3573121 ], [ 132.1026947, 43.35732 ], [ 132.102848, 43.3573325 ], [ 132.10317, 43.3573586 ], [ 132.1045033, 43.3574665 ], [ 132.1044844, 43.3576205 ], [ 132.104478199999988, 43.357774 ], [ 132.104938800000014, 43.3578775 ], [ 132.1053259, 43.3579643 ], [ 132.1069401, 43.358326 ], [ 132.107474599999989, 43.3583159 ], [ 132.1077211, 43.3583112 ], [ 132.107727, 43.358497 ], [ 132.1077139, 43.3587684 ], [ 132.10769830000001, 43.3589363 ], [ 132.1076735, 43.3592219 ], [ 132.1090434, 43.3589278 ], [ 132.109790800000013, 43.3588525 ], [ 132.110030099999989, 43.358529 ], [ 132.1102478, 43.3584753 ], [ 132.110291499999988, 43.3584747 ], [ 132.1102775, 43.358421 ], [ 132.1103865, 43.3583243 ], [ 132.1108374, 43.3578844 ], [ 132.1110134, 43.3577128 ], [ 132.1116302, 43.3577098 ], [ 132.112096400000013, 43.3578393 ], [ 132.1125252, 43.3579585 ], [ 132.1158404, 43.3588799 ], [ 132.118475499999988, 43.3596122 ], [ 132.1194315, 43.3599347 ], [ 132.1199698, 43.3601162 ], [ 132.12054, 43.3603084 ], [ 132.120819399999988, 43.3599141 ], [ 132.1209049, 43.3597932 ], [ 132.12116, 43.3598272 ], [ 132.121437500000013, 43.3599227 ], [ 132.1209078, 43.3606703 ], [ 132.121411, 43.3608378 ], [ 132.1219375, 43.3600947 ], [ 132.1224364, 43.3602664 ], [ 132.1219188, 43.3609969 ], [ 132.123431399999987, 43.3614783 ], [ 132.1239267, 43.3607791 ], [ 132.1242997, 43.3609075 ], [ 132.1244046, 43.3609716 ], [ 132.124657, 43.3611258 ], [ 132.124837, 43.3612359 ], [ 132.124476499999986, 43.3617449 ], [ 132.1249889, 43.3619058 ], [ 132.12534, 43.3614102 ], [ 132.125888300000014, 43.3615109 ], [ 132.1264292, 43.3616103 ], [ 132.126548899999989, 43.3616304 ], [ 132.1270795, 43.3615333 ], [ 132.127718, 43.3614016 ], [ 132.128516100000013, 43.3617233 ], [ 132.1282388, 43.3620493 ], [ 132.1286963, 43.3625037 ], [ 132.1294574, 43.3623125 ], [ 132.130027399999989, 43.3621694 ], [ 132.130309, 43.3620988 ], [ 132.130966300000011, 43.3623111 ], [ 132.1338231, 43.3632339 ], [ 132.134001899999987, 43.3632918 ], [ 132.1344825, 43.3629143 ], [ 132.135229, 43.3626609 ], [ 132.1357243, 43.3624539 ], [ 132.1365064, 43.362188 ], [ 132.1480651, 43.3627153 ], [ 132.1478481, 43.3630911 ], [ 132.1481723, 43.3637859 ], [ 132.1496991, 43.3643191 ], [ 132.1497258, 43.3642797 ], [ 132.1497625, 43.3642253 ], [ 132.149867300000011, 43.3640707 ], [ 132.149925700000011, 43.3639843 ], [ 132.150096600000012, 43.363733 ], [ 132.1501685, 43.3637363 ], [ 132.1503306, 43.3638113 ], [ 132.1504448, 43.3638811 ], [ 132.150485300000014, 43.3639149 ], [ 132.1507986, 43.364172 ], [ 132.1508939, 43.3642504 ], [ 132.150983, 43.3643167 ], [ 132.150990900000011, 43.3643585 ], [ 132.1510456, 43.3643819 ], [ 132.151175599999988, 43.3644653 ], [ 132.151321, 43.3645674 ], [ 132.151365700000014, 43.3646144 ], [ 132.1515652, 43.3648243 ], [ 132.151533, 43.3649029 ], [ 132.1512803, 43.3655208 ], [ 132.1512176, 43.3656748 ], [ 132.1511932, 43.3657272 ], [ 132.151183800000013, 43.3657606 ], [ 132.1511813, 43.3657739 ], [ 132.151151199999987, 43.3658657 ], [ 132.151143499999989, 43.3658958 ], [ 132.15112160000001, 43.3659622 ], [ 132.151106700000014, 43.365991 ], [ 132.1510624, 43.3661264 ], [ 132.1509998, 43.3663161 ], [ 132.150857300000013, 43.3667919 ], [ 132.150742400000013, 43.367143 ], [ 132.1507061, 43.367245 ], [ 132.150688300000013, 43.3672636 ], [ 132.1504591, 43.3688106 ], [ 132.1504565, 43.3689413 ], [ 132.1504009, 43.3690917 ], [ 132.1503586, 43.3693676 ], [ 132.149957199999989, 43.3704945 ], [ 132.1496315, 43.3703941 ], [ 132.1494497, 43.3706684 ], [ 132.1492718, 43.3709366 ], [ 132.1494208, 43.3710233 ], [ 132.1497856, 43.3712325 ], [ 132.1500708, 43.3714002 ], [ 132.150663400000013, 43.3718467 ], [ 132.1510178, 43.3721177 ], [ 132.151168899999988, 43.3723256 ], [ 132.151162, 43.3723293 ], [ 132.1510887, 43.3723524 ], [ 132.1504593, 43.3725705 ], [ 132.1496658, 43.372837 ], [ 132.148612899999989, 43.3731844 ], [ 132.148108400000012, 43.3733546 ], [ 132.1480478, 43.3733685 ], [ 132.1479741, 43.3733943 ], [ 132.1479343, 43.373414 ], [ 132.1477874, 43.3734606 ], [ 132.1474308, 43.3736143 ], [ 132.147111, 43.3737489 ], [ 132.146974, 43.3738689 ], [ 132.146181399999989, 43.3745193 ], [ 132.1460514, 43.3746109 ], [ 132.145973700000013, 43.3746206 ], [ 132.1459171, 43.3746221 ], [ 132.145931100000013, 43.3746885 ], [ 132.1455439, 43.3750102 ], [ 132.1452739, 43.3749 ], [ 132.1450625, 43.3747986 ], [ 132.1448417, 43.3747124 ], [ 132.1446712, 43.3746504 ], [ 132.1441025, 43.3744347 ], [ 132.144000299999988, 43.3744229 ], [ 132.1431067, 43.3744033 ], [ 132.1419032, 43.3744618 ], [ 132.1417462, 43.3744274 ], [ 132.1416099, 43.3743842 ], [ 132.141435699999988, 43.3743494 ], [ 132.1411312, 43.3743201 ], [ 132.1407958, 43.3743095 ], [ 132.140585499999986, 43.3742522 ], [ 132.140246600000012, 43.3741253 ], [ 132.13982, 43.3739401 ], [ 132.1396154, 43.3738619 ], [ 132.139143100000013, 43.3746754 ], [ 132.1390955, 43.3749737 ], [ 132.1390623, 43.3761825 ], [ 132.1405473, 43.3807595 ], [ 132.1402309, 43.3808314 ], [ 132.1411379, 43.3833462 ], [ 132.142074900000011, 43.386207 ], [ 132.1435002, 43.3907262 ], [ 132.1452176, 43.3914198 ], [ 132.145944500000013, 43.390874 ], [ 132.146147899999988, 43.3906062 ], [ 132.147338, 43.3900089 ], [ 132.148192200000011, 43.38983 ], [ 132.1485955, 43.3897454 ], [ 132.149719299999987, 43.3898032 ], [ 132.150102299999986, 43.3899279 ], [ 132.1505569, 43.3901426 ], [ 132.1508504, 43.3903628 ], [ 132.1511697, 43.390847 ], [ 132.1513778, 43.3910938 ], [ 132.1521955, 43.3913604 ], [ 132.153590799999989, 43.3927594 ], [ 132.1540211, 43.3931907 ], [ 132.1541508, 43.3932407 ], [ 132.1544075, 43.3933208 ], [ 132.155074500000012, 43.3934318 ], [ 132.1567033, 43.3937942 ], [ 132.1573855, 43.3938751 ], [ 132.158379599999989, 43.3940204 ], [ 132.1597772, 43.394583 ], [ 132.1602408, 43.3947793 ], [ 132.1605419, 43.394902 ], [ 132.1607538, 43.3949837 ], [ 132.1609805, 43.395077 ], [ 132.161289399999987, 43.3952086 ], [ 132.1615655, 43.395314 ], [ 132.1620876, 43.395507 ], [ 132.163004699999988, 43.3959146 ], [ 132.163604099999986, 43.396169 ], [ 132.1645847, 43.3965778 ], [ 132.1655149, 43.3969671 ], [ 132.1664396, 43.3973462 ], [ 132.167250599999988, 43.3977041 ], [ 132.167815, 43.3979438 ], [ 132.16839490000001, 43.3982105 ], [ 132.1687894, 43.3983582 ], [ 132.1691299, 43.3984769 ], [ 132.169505, 43.3986492 ], [ 132.1702339, 43.3989512 ], [ 132.1710268, 43.3992722 ], [ 132.172320500000012, 43.3997869 ], [ 132.172590500000013, 43.3998956 ], [ 132.1736866, 43.4003372 ], [ 132.17444, 43.4006406 ], [ 132.176019, 43.4012764 ], [ 132.1764736, 43.4014596 ], [ 132.176751200000012, 43.4016183 ], [ 132.1769387, 43.4018359 ], [ 132.177002499999986, 43.4020867 ], [ 132.1770486, 43.4028425 ], [ 132.177075699999989, 43.4032824 ], [ 132.1773409, 43.4032738 ], [ 132.1775125, 43.4032683 ], [ 132.1782776, 43.4015695 ], [ 132.1790777, 43.3997931 ], [ 132.1798511, 43.398076 ], [ 132.179833300000013, 43.3972424 ], [ 132.179813200000012, 43.3962936 ], [ 132.1796833, 43.3962816 ], [ 132.1796037, 43.3951638 ], [ 132.1790216, 43.39275 ], [ 132.17906210000001, 43.3913312 ], [ 132.1790565, 43.391091 ], [ 132.1795765, 43.3888457 ], [ 132.1792967, 43.3877036 ], [ 132.1796223, 43.3866016 ], [ 132.1797654, 43.3860007 ], [ 132.179804100000013, 43.3855892 ], [ 132.1797434, 43.3840453 ], [ 132.180011799999988, 43.3837986 ], [ 132.180108, 43.3837101 ], [ 132.1802013, 43.3836244 ], [ 132.180820899999986, 43.3830546 ], [ 132.180317800000012, 43.3823114 ], [ 132.1799191, 43.3820718 ], [ 132.179278399999987, 43.3820823 ], [ 132.1792806, 43.3819652 ], [ 132.1792988, 43.3810793 ], [ 132.1793112, 43.3810751 ], [ 132.1793906, 43.3810485 ], [ 132.180374199999989, 43.380717 ], [ 132.180405900000011, 43.3807139 ], [ 132.180497, 43.3807139 ], [ 132.1806383, 43.3807021 ], [ 132.1807995, 43.3807109 ], [ 132.1835264, 43.3811238 ], [ 132.1849705, 43.3813428 ], [ 132.185296599999987, 43.3815238 ], [ 132.188258499999989, 43.3818955 ], [ 132.1899668, 43.3820396 ], [ 132.1904882, 43.3819334 ], [ 132.1916302, 43.3826274 ], [ 132.190707300000014, 43.3836073 ], [ 132.1909468, 43.3840339 ], [ 132.1911598, 43.3840733 ], [ 132.191376, 43.384131 ], [ 132.191433100000012, 43.3841351 ], [ 132.191667200000012, 43.3842469 ], [ 132.1916802, 43.3842474 ], [ 132.1917439, 43.3842497 ], [ 132.1917549, 43.3842496 ], [ 132.192371799999989, 43.3842068 ], [ 132.1928073, 43.384093 ], [ 132.1932032, 43.3840451 ], [ 132.1933855, 43.3840404 ], [ 132.193450899999988, 43.3840399 ], [ 132.19368080000001, 43.38408 ], [ 132.1938762, 43.3841449 ], [ 132.193966499999988, 43.3841914 ], [ 132.194132599999989, 43.3842958 ], [ 132.1942544, 43.3844201 ], [ 132.194345700000014, 43.3845538 ], [ 132.1943932, 43.3847357 ], [ 132.1943963, 43.3849046 ], [ 132.1943444, 43.3850983 ], [ 132.194256599999989, 43.3852326 ], [ 132.1939312, 43.3855696 ], [ 132.1939907, 43.3855897 ], [ 132.194053, 43.3856106 ], [ 132.1945173, 43.3859048 ], [ 132.194665500000013, 43.3859799 ], [ 132.1951357, 43.3861691 ], [ 132.1955127, 43.3863418 ], [ 132.1958789, 43.3865013 ], [ 132.1960554, 43.3865665 ], [ 132.1961748, 43.3866106 ], [ 132.1963791, 43.3866818 ], [ 132.19735510000001, 43.3869216 ], [ 132.197755, 43.3870216 ], [ 132.1979591, 43.3870621 ], [ 132.1979695, 43.3870641 ], [ 132.1980357, 43.3870917 ], [ 132.199174199999987, 43.3875666 ], [ 132.1994852, 43.3876963 ], [ 132.199841, 43.3878447 ], [ 132.1998433, 43.3878457 ], [ 132.2008396, 43.3882613 ], [ 132.2039478, 43.3881638 ], [ 132.2040936, 43.3881592 ], [ 132.2062828, 43.3880903 ], [ 132.2094132, 43.3885012 ], [ 132.210515, 43.3897762 ], [ 132.2119959, 43.3914721 ], [ 132.2126491, 43.392147 ], [ 132.2131164, 43.3925403 ], [ 132.2140197, 43.393185 ], [ 132.2168711, 43.3951705 ], [ 132.222172199999989, 43.3988541 ], [ 132.2248009, 43.4006816 ], [ 132.225712, 43.4013156 ], [ 132.226784900000013, 43.4020621 ], [ 132.226863, 43.402002 ], [ 132.2271025, 43.4021655 ], [ 132.22714830000001, 43.4021967 ], [ 132.2296804, 43.4029939 ], [ 132.232677, 43.4035727 ], [ 132.2341432, 43.4012324 ], [ 132.2378124, 43.3986463 ], [ 132.2389576, 43.3959449 ], [ 132.238249599999989, 43.3955286 ], [ 132.238046200000014, 43.3954089 ], [ 132.241136899999987, 43.3923049 ], [ 132.2390967, 43.391323 ], [ 132.2392955, 43.3899167 ], [ 132.238475599999987, 43.3890335 ], [ 132.2394339, 43.3876383 ], [ 132.2398911, 43.3863789 ], [ 132.240773600000011, 43.3849581 ], [ 132.24080810000001, 43.3849025 ], [ 132.2414542, 43.3840491 ], [ 132.2416009, 43.384091 ], [ 132.241900500000014, 43.3841595 ], [ 132.2420195, 43.3838986 ], [ 132.2426385, 43.3840411 ], [ 132.2450373, 43.3837183 ], [ 132.248177700000014, 43.3831506 ], [ 132.248482200000012, 43.3831889 ], [ 132.249545899999987, 43.3829754 ], [ 132.24994, 43.3828964 ], [ 132.2529719, 43.3822891 ], [ 132.2546934, 43.3817422 ], [ 132.2540136, 43.3799604 ], [ 132.253993799999989, 43.3799082 ], [ 132.2537517, 43.3792737 ], [ 132.253719, 43.3791882 ], [ 132.2534023, 43.3783579 ], [ 132.2560121, 43.3775932 ], [ 132.2571341, 43.3773836 ], [ 132.26023090000001, 43.3772596 ], [ 132.2605801, 43.3771759 ], [ 132.262053, 43.3768113 ], [ 132.2623639, 43.3768678 ], [ 132.269064500000013, 43.3869476 ], [ 132.27074970000001, 43.389085 ], [ 132.2727779, 43.3911103 ], [ 132.274457, 43.3929496 ], [ 132.2780802, 43.39257 ], [ 132.2782367, 43.3852292 ], [ 132.2833235, 43.3846881 ], [ 132.283324, 43.3849431 ], [ 132.2847571, 43.3850272 ], [ 132.2849498, 43.3851339 ], [ 132.285365899999988, 43.3851226 ], [ 132.286535, 43.3846205 ], [ 132.286388100000011, 43.3844394 ], [ 132.2864502, 43.3843554 ], [ 132.2865785, 43.3843418 ], [ 132.2883435, 43.3841539 ], [ 132.2930964, 43.3841434 ], [ 132.299479600000012, 43.3866702 ], [ 132.2996884, 43.3868986 ], [ 132.30016470000001, 43.3871446 ], [ 132.3027573, 43.3866067 ], [ 132.3038874, 43.387121 ], [ 132.3050405, 43.3875925 ], [ 132.3054412, 43.3881982 ], [ 132.3060779, 43.3889221 ], [ 132.307506100000012, 43.3891961 ], [ 132.3075834, 43.3894342 ], [ 132.3077542, 43.3896395 ], [ 132.3079481, 43.3898696 ], [ 132.3085781, 43.3895805 ], [ 132.3094993, 43.389549 ], [ 132.3098947, 43.389331 ], [ 132.3102876, 43.3891131 ], [ 132.3100634, 43.3888982 ], [ 132.3100382, 43.3888719 ], [ 132.3102461, 43.3887589 ], [ 132.311896499999989, 43.3889803 ], [ 132.314543500000013, 43.3895625 ], [ 132.3149794, 43.3899078 ], [ 132.316447, 43.3903383 ], [ 132.317156399999988, 43.3905761 ], [ 132.31855680000001, 43.3908034 ], [ 132.3192005, 43.3906176 ], [ 132.3194699, 43.3902094 ], [ 132.3202375, 43.3890405 ], [ 132.3204725, 43.3888189 ], [ 132.32104, 43.3883306 ], [ 132.3215368, 43.387916 ], [ 132.3221638, 43.3877379 ], [ 132.3233701, 43.3874102 ], [ 132.3238064, 43.3873561 ], [ 132.3247155, 43.3867693 ], [ 132.3243324, 43.3864646 ], [ 132.3242663, 43.3863635 ], [ 132.323838200000012, 43.3857202 ], [ 132.3235642, 43.3852753 ], [ 132.3231371, 43.3844132 ], [ 132.3232051, 43.3829085 ], [ 132.3238513, 43.382943 ], [ 132.3274688, 43.3831256 ], [ 132.3279809, 43.3830432 ], [ 132.3302008, 43.3826977 ], [ 132.3335802, 43.3813806 ], [ 132.345981, 43.3765502 ], [ 132.3462381, 43.376148 ], [ 132.3462656, 43.3755817 ], [ 132.3462144, 43.3746694 ], [ 132.348884199999986, 43.3731691 ], [ 132.3500654, 43.3704616 ], [ 132.3476593, 43.3681074 ], [ 132.3444111, 43.3664362 ], [ 132.3447616, 43.3663846 ], [ 132.3447179, 43.3662261 ], [ 132.344355, 43.3662794 ], [ 132.3443395, 43.3661511 ], [ 132.3478922, 43.3608683 ], [ 132.3460891, 43.3610406 ], [ 132.3458784, 43.3611475 ], [ 132.345672900000011, 43.3611566 ], [ 132.3450267, 43.3611899 ], [ 132.343008, 43.3612914 ], [ 132.342183299999988, 43.361235 ], [ 132.3415233, 43.3611084 ], [ 132.341258900000014, 43.3610955 ], [ 132.3405755, 43.3610918 ], [ 132.3399614, 43.3612825 ], [ 132.3386468, 43.3619704 ], [ 132.338218500000011, 43.3625792 ], [ 132.3375907, 43.3626746 ], [ 132.3368278, 43.3625683 ], [ 132.3365009, 43.3625219 ], [ 132.335261800000012, 43.3622936 ], [ 132.333425299999988, 43.3619767 ], [ 132.332276400000012, 43.3618897 ], [ 132.3316179, 43.3618708 ], [ 132.329595, 43.3615905 ], [ 132.328966400000013, 43.3615072 ], [ 132.328435899999988, 43.3613631 ], [ 132.3267204, 43.3606241 ], [ 132.3262689, 43.3601806 ], [ 132.3255303, 43.3593011 ], [ 132.3253565, 43.3590065 ], [ 132.3250066, 43.3581244 ], [ 132.3248118, 43.3575595 ], [ 132.3246901, 43.3571413 ], [ 132.3246038, 43.3566769 ], [ 132.3246232, 43.3561588 ], [ 132.324608899999987, 43.3557187 ], [ 132.3245598, 43.355287 ], [ 132.324454300000014, 43.3548668 ], [ 132.3243798, 43.3545544 ], [ 132.3243372, 43.3544433 ], [ 132.3224721, 43.3539656 ], [ 132.32126550000001, 43.3534171 ], [ 132.3206403, 43.3545328 ], [ 132.3205973, 43.3579661 ], [ 132.320022099999989, 43.3604093 ], [ 132.319651, 43.3610469 ], [ 132.319428, 43.3611952 ], [ 132.3168471, 43.3620745 ], [ 132.315409, 43.3625669 ], [ 132.3143964, 43.3631769 ], [ 132.3132028, 43.3640828 ], [ 132.312606100000011, 43.3645295 ], [ 132.3123563, 43.3647163 ], [ 132.308122700000013, 43.3672046 ], [ 132.307616200000012, 43.3677207 ], [ 132.307156, 43.3681895 ], [ 132.3068087, 43.3685432 ], [ 132.3067196, 43.3686337 ], [ 132.306584500000014, 43.3685788 ], [ 132.3065545, 43.3685522 ], [ 132.3064889, 43.3684961 ], [ 132.3063952, 43.368426 ], [ 132.3061159, 43.3682338 ], [ 132.3057677, 43.3679655 ], [ 132.3056858, 43.3678844 ], [ 132.305617399999988, 43.3678241 ], [ 132.30556, 43.3677857 ], [ 132.305112900000012, 43.3677127 ], [ 132.305018499999989, 43.3677497 ], [ 132.3049264, 43.3677987 ], [ 132.3046875, 43.3680003 ], [ 132.3045089, 43.3681512 ], [ 132.304341099999988, 43.3682938 ], [ 132.304271, 43.3683581 ], [ 132.3041671, 43.3684534 ], [ 132.304087399999986, 43.3685144 ], [ 132.303585199999986, 43.3689147 ], [ 132.3032723, 43.369164 ], [ 132.3032258, 43.3692173 ], [ 132.3029439, 43.3696587 ], [ 132.302765099999988, 43.3699337 ], [ 132.302720599999986, 43.3700094 ], [ 132.3027218, 43.3700559 ], [ 132.3027698, 43.3701947 ], [ 132.302866099999989, 43.3703128 ], [ 132.303404699999987, 43.3707985 ], [ 132.3034721, 43.3708666 ], [ 132.3034853, 43.370881 ], [ 132.3032082, 43.3710447 ], [ 132.3031799, 43.3710202 ], [ 132.3009372, 43.3690909 ], [ 132.2984525, 43.3668543 ], [ 132.2944038, 43.3649378 ], [ 132.2923806, 43.3639801 ], [ 132.2899454, 43.3628875 ], [ 132.2871898, 43.3616511 ], [ 132.2839994, 43.3616347 ], [ 132.2800967, 43.3616145 ], [ 132.279910199999989, 43.3619704 ], [ 132.2794485, 43.3620772 ], [ 132.279021, 43.3620187 ], [ 132.278718700000013, 43.3620248 ], [ 132.2782525, 43.3620632 ], [ 132.277996300000012, 43.3620163 ], [ 132.277760199999989, 43.362076 ], [ 132.27767080000001, 43.3622746 ], [ 132.277223, 43.3626871 ], [ 132.2768601, 43.3628095 ], [ 132.275852500000013, 43.3630328 ], [ 132.2755147, 43.3628914 ], [ 132.275012, 43.3625193 ], [ 132.274348300000014, 43.3620434 ], [ 132.2741411, 43.36202 ], [ 132.2740105, 43.3619512 ], [ 132.2737405, 43.361958 ], [ 132.2731183, 43.3623265 ], [ 132.272836899999987, 43.3624216 ], [ 132.272476, 43.3625487 ], [ 132.2718926, 43.3627453 ], [ 132.2712789, 43.3629465 ], [ 132.2705028, 43.363137 ], [ 132.269458500000013, 43.3634518 ], [ 132.2689048, 43.36379 ], [ 132.2680278, 43.3643585 ], [ 132.2661608, 43.3655875 ], [ 132.2653814, 43.3660871 ], [ 132.264367600000014, 43.3666601 ], [ 132.2638856, 43.3670452 ], [ 132.2631524, 43.3676094 ], [ 132.2627034, 43.3677196 ], [ 132.2607313, 43.3684485 ], [ 132.2601923, 43.368617 ], [ 132.2583457, 43.36919 ], [ 132.257581, 43.3694118 ], [ 132.2564868, 43.368926 ], [ 132.2562145, 43.3688867 ], [ 132.256022, 43.3688133 ], [ 132.2558898, 43.3684407 ], [ 132.255731200000014, 43.3679013 ], [ 132.2557875, 43.3676624 ], [ 132.2556832, 43.3672933 ], [ 132.2555434, 43.3667514 ], [ 132.2551458, 43.3653296 ], [ 132.2548904, 43.3649366 ], [ 132.253836400000012, 43.3634081 ], [ 132.25335530000001, 43.3626103 ], [ 132.2517908, 43.3635796 ], [ 132.251552800000013, 43.3636443 ], [ 132.2511249, 43.3637603 ], [ 132.2506449, 43.3634093 ], [ 132.2505861, 43.3633664 ], [ 132.2505137, 43.3621441 ], [ 132.2505032, 43.361964 ], [ 132.250461, 43.3612666 ], [ 132.250384200000013, 43.3599951 ], [ 132.2503465, 43.3593431 ], [ 132.250279299999988, 43.3581863 ], [ 132.2502151, 43.3571493 ], [ 132.2502, 43.3571266 ], [ 132.2502125, 43.3571061 ], [ 132.2499805, 43.3533578 ], [ 132.2499786, 43.3533444 ], [ 132.2496925, 43.3487037 ], [ 132.2490852, 43.3491672 ], [ 132.2486118, 43.3495275 ], [ 132.248305, 43.3497618 ], [ 132.2464018, 43.3515619 ], [ 132.2448566, 43.3531222 ], [ 132.2429119, 43.3549591 ], [ 132.240645199999989, 43.3550817 ], [ 132.2405066, 43.3550892 ], [ 132.2403607, 43.355079 ], [ 132.2394866, 43.3550178 ], [ 132.23769630000001, 43.3548924 ], [ 132.237268300000011, 43.3548624 ], [ 132.235694599999988, 43.3565659 ], [ 132.234941, 43.3604786 ], [ 132.234027, 43.3612878 ], [ 132.2342435, 43.3616888 ], [ 132.234075600000011, 43.361861 ], [ 132.230572, 43.3612107 ], [ 132.228468, 43.3614471 ], [ 132.2281468, 43.3619499 ], [ 132.2271912, 43.361673 ], [ 132.2256016, 43.3611919 ], [ 132.2251656, 43.36106 ], [ 132.2250364, 43.3607628 ], [ 132.2246977, 43.3600864 ], [ 132.2243828, 43.3594567 ], [ 132.224071, 43.3587388 ], [ 132.223648, 43.3583745 ], [ 132.222923900000012, 43.3579013 ], [ 132.2227513, 43.3577761 ], [ 132.2222636, 43.3574227 ], [ 132.221792099999988, 43.3571444 ], [ 132.2185925, 43.3556764 ], [ 132.2173631, 43.3545986 ], [ 132.2162845, 43.3541648 ], [ 132.2161264, 43.3540842 ], [ 132.2157211, 43.3538603 ], [ 132.2152448, 43.3536135 ], [ 132.213267699999989, 43.3527031 ], [ 132.21259, 43.3523582 ], [ 132.211931099999987, 43.3519896 ], [ 132.211457200000012, 43.3517863 ], [ 132.2112048, 43.351662 ], [ 132.2111329, 43.3516409 ], [ 132.210621300000014, 43.3514623 ], [ 132.210326, 43.3513804 ], [ 132.209955400000013, 43.3510368 ], [ 132.209476599999988, 43.3507362 ], [ 132.2095021, 43.3504145 ], [ 132.209486700000014, 43.3503495 ], [ 132.2094554, 43.3502806 ], [ 132.2094504, 43.3500188 ], [ 132.2094156, 43.349945 ], [ 132.209317700000014, 43.3498463 ], [ 132.2092118, 43.3496419 ], [ 132.2085025, 43.349308 ], [ 132.2082887, 43.3492856 ], [ 132.2077118, 43.3491237 ], [ 132.2014665, 43.3468153 ], [ 132.201375399999989, 43.3468398 ], [ 132.2013172, 43.3467616 ], [ 132.201134700000011, 43.3467664 ], [ 132.2009354, 43.3465426 ], [ 132.198358399999989, 43.3452609 ], [ 132.198090900000011, 43.3450306 ], [ 132.1975564, 43.3441444 ], [ 132.1974798, 43.3440056 ], [ 132.19737, 43.3436997 ], [ 132.1973317, 43.3433795 ], [ 132.1974775, 43.3424532 ], [ 132.1960554, 43.3423948 ], [ 132.195745499999987, 43.3420808 ], [ 132.195789600000012, 43.3411855 ], [ 132.1968807, 43.3401967 ], [ 132.1997983, 43.3375528 ], [ 132.2004993, 43.3369175 ], [ 132.1908953, 43.3372107 ], [ 132.1902456, 43.3357154 ], [ 132.190196, 43.3345045 ], [ 132.18546090000001, 43.3325183 ], [ 132.182758299999989, 43.3339211 ], [ 132.1816416, 43.3340945 ], [ 132.1808331, 43.3342741 ], [ 132.1804938, 43.3342574 ], [ 132.180284699999987, 43.3339329 ], [ 132.1798508, 43.3332587 ], [ 132.179021299999988, 43.332936 ], [ 132.1787827, 43.3328432 ], [ 132.1784845, 43.3327272 ], [ 132.178089699999987, 43.3325736 ], [ 132.178018, 43.3325458 ], [ 132.176681300000013, 43.3302809 ], [ 132.1754387, 43.3289811 ], [ 132.1753328, 43.3289709 ], [ 132.1752223, 43.3290031 ], [ 132.1750447, 43.3290256 ], [ 132.174914, 43.3290302 ], [ 132.1744669, 43.3290102 ], [ 132.174347399999988, 43.3289977 ], [ 132.1742352, 43.328958 ], [ 132.174097100000012, 43.3289032 ], [ 132.1739388, 43.3287884 ], [ 132.170149, 43.3255057 ], [ 132.163608900000014, 43.3245763 ], [ 132.1611431, 43.3245798 ], [ 132.1611313, 43.3200793 ], [ 132.1602794, 43.3196983 ], [ 132.1589381, 43.3184794 ], [ 132.157415, 43.3184997 ], [ 132.1574068, 43.3181667 ], [ 132.1572625, 43.3179555 ], [ 132.1570438, 43.3179931 ], [ 132.156827600000014, 43.3180361 ], [ 132.1566142, 43.3180848 ], [ 132.1564037, 43.318139 ], [ 132.156196200000011, 43.3181986 ], [ 132.155991199999988, 43.3182637 ], [ 132.1557894, 43.3183346 ], [ 132.1555902, 43.3184107 ], [ 132.1553946, 43.3184919 ], [ 132.1533925, 43.3193585 ], [ 132.153208799999987, 43.3194347 ], [ 132.153023600000012, 43.3195058 ], [ 132.1528358, 43.3195721 ], [ 132.1526455, 43.3196333 ], [ 132.1524526, 43.3196895 ], [ 132.1522573, 43.3197407 ], [ 132.1520591, 43.3197871 ], [ 132.1518585, 43.3198283 ], [ 132.1517797, 43.3198425 ], [ 132.1480448, 43.3203589 ], [ 132.1475591, 43.3204406 ], [ 132.141752, 43.3157485 ], [ 132.1404872, 43.3095891 ], [ 132.133028, 43.3102666 ], [ 132.132514500000013, 43.3097707 ], [ 132.131668600000012, 43.3088001 ], [ 132.1310518, 43.3071248 ], [ 132.1304743, 43.3067148 ], [ 132.128878500000013, 43.310673 ], [ 132.125501, 43.3101408 ], [ 132.1234821, 43.3104531 ], [ 132.1205936, 43.3099749 ], [ 132.118637299999989, 43.3093107 ], [ 132.116863599999988, 43.3090779 ], [ 132.1144957, 43.3079388 ], [ 132.1142576, 43.3078788 ], [ 132.113934699999987, 43.307829 ], [ 132.1136675, 43.3078239 ], [ 132.1132905, 43.3079191 ], [ 132.1131117, 43.30801 ], [ 132.112932699999988, 43.3080059 ], [ 132.1127665, 43.3079349 ], [ 132.111964300000011, 43.3080578 ], [ 132.111045499999989, 43.3055527 ], [ 132.1106116, 43.3058925 ], [ 132.110379599999987, 43.3059824 ], [ 132.1100822, 43.3060049 ], [ 132.1095781, 43.3059238 ], [ 132.109385, 43.305924 ], [ 132.109199499999988, 43.3059854 ], [ 132.1090448, 43.3061729 ], [ 132.1088843, 43.306257 ], [ 132.108800699999989, 43.3066804 ], [ 132.1084937, 43.3069311 ], [ 132.1082013, 43.306898 ], [ 132.1078373, 43.3069558 ], [ 132.1071613, 43.3069342 ], [ 132.106952299999989, 43.3068657 ], [ 132.1066724, 43.3066711 ], [ 132.106369, 43.3065283 ], [ 132.1059972, 43.3064931 ], [ 132.1057989, 43.3064303 ], [ 132.1053664, 43.306221 ], [ 132.1051395, 43.3061803 ], [ 132.104897099999988, 43.3061888 ], [ 132.1048116, 43.3061918 ], [ 132.1046943, 43.306273 ], [ 132.104262799999987, 43.3065716 ], [ 132.104209700000013, 43.3067405 ], [ 132.104032, 43.3069113 ], [ 132.103384, 43.3072911 ], [ 132.1030619, 43.3076086 ], [ 132.1029907, 43.3078453 ], [ 132.1030982, 43.3082997 ], [ 132.103050200000013, 43.3084166 ], [ 132.102915700000011, 43.3085967 ], [ 132.1027578, 43.3087143 ], [ 132.102364, 43.3088612 ], [ 132.102195099999989, 43.3088803 ], [ 132.1018594, 43.3087656 ], [ 132.101577099999986, 43.3087231 ], [ 132.1013279, 43.3087367 ], [ 132.1010566, 43.3089629 ], [ 132.1008449, 43.309049 ], [ 132.1000879, 43.3092444 ], [ 132.0999324, 43.3093935 ], [ 132.099739699999986, 43.3096831 ], [ 132.099404600000014, 43.3100737 ], [ 132.0991459, 43.3103503 ], [ 132.0989625, 43.3104439 ], [ 132.098611799999986, 43.3104572 ], [ 132.0984607, 43.3104816 ], [ 132.0977571, 43.3107327 ], [ 132.0971846, 43.3109916 ], [ 132.0967527, 43.3111292 ], [ 132.0963995, 43.3111741 ], [ 132.0957735, 43.3112156 ], [ 132.094969, 43.3111771 ], [ 132.0940283, 43.3110685 ], [ 132.0937207, 43.3110724 ], [ 132.093401699999987, 43.3111153 ], [ 132.09332710000001, 43.3111207 ], [ 132.0931602, 43.3111323 ], [ 132.0929076, 43.3110973 ], [ 132.092904800000014, 43.3110976 ], [ 132.0926596, 43.3111901 ], [ 132.0924488, 43.3113201 ], [ 132.0922855, 43.311507 ], [ 132.091569099999987, 43.3117691 ], [ 132.0912592, 43.3119456 ], [ 132.090615899999989, 43.3123808 ], [ 132.090473800000012, 43.3125441 ], [ 132.090096499999987, 43.3126801 ], [ 132.0899287, 43.3126802 ], [ 132.0895509, 43.3125491 ], [ 132.089518, 43.3125589 ], [ 132.0892, 43.3126521 ], [ 132.0890076, 43.3126166 ], [ 132.0889746, 43.3126124 ], [ 132.088800600000013, 43.3125582 ], [ 132.088719, 43.3125432 ], [ 132.0886079, 43.3125228 ], [ 132.0884313, 43.3125195 ], [ 132.0883967, 43.3125234 ], [ 132.0882929, 43.3125352 ], [ 132.087828, 43.3125165 ], [ 132.0875331, 43.3126767 ], [ 132.0873972, 43.312722 ], [ 132.0870668, 43.3127686 ], [ 132.0865332, 43.3129193 ], [ 132.0862512, 43.3130512 ], [ 132.0861879, 43.3131663 ], [ 132.0858921, 43.3133192 ], [ 132.085711800000013, 43.313323 ], [ 132.0854424, 43.3133919 ], [ 132.085223899999988, 43.3135127 ], [ 132.0848829, 43.3137343 ], [ 132.084562799999986, 43.3138402 ], [ 132.0841309, 43.3140446 ], [ 132.084023800000011, 43.3141491 ], [ 132.0838536, 43.3142103 ], [ 132.083846200000011, 43.3142207 ], [ 132.08384190000001, 43.3142267 ], [ 132.083732, 43.3143793 ], [ 132.0836531, 43.3146711 ], [ 132.0835568, 43.3147509 ], [ 132.0834731, 43.3149662 ], [ 132.0833074, 43.3150801 ], [ 132.083045700000014, 43.3151657 ], [ 132.0828704, 43.3153582 ], [ 132.082805900000011, 43.3153725 ], [ 132.082748900000013, 43.3153826 ], [ 132.082646, 43.3153863 ], [ 132.0825551, 43.3153748 ], [ 132.0822016, 43.3152731 ], [ 132.0819823, 43.3152239 ], [ 132.0818007, 43.3152872 ], [ 132.0813712, 43.3153005 ], [ 132.0812219, 43.3153035 ], [ 132.081066099999987, 43.3153358 ], [ 132.0808226, 43.3154497 ], [ 132.0803693, 43.3155347 ], [ 132.0801984, 43.3152474 ], [ 132.0799773, 43.3152494 ], [ 132.079707899999988, 43.3153144 ], [ 132.0793534, 43.3154744 ], [ 132.0790097, 43.3154146 ], [ 132.0789106, 43.3151129 ], [ 132.0788341, 43.3149293 ], [ 132.078696900000011, 43.3149221 ], [ 132.077911, 43.315112 ], [ 132.0776366, 43.3152568 ], [ 132.0776093, 43.3152712 ], [ 132.0774759, 43.3153415 ], [ 132.07705150000001, 43.3155656 ], [ 132.076660299999986, 43.3157088 ], [ 132.076476899999989, 43.3158153 ], [ 132.076282099999986, 43.3159131 ], [ 132.076199800000012, 43.3159379 ], [ 132.0758917, 43.3160307 ], [ 132.075177599999989, 43.3160813 ], [ 132.0746058, 43.3161595 ], [ 132.0741231, 43.3163872 ], [ 132.072156299999989, 43.3169973 ], [ 132.071253, 43.3173305 ], [ 132.0711133, 43.3173793 ], [ 132.0709612, 43.3174356 ], [ 132.070268, 43.3177166 ], [ 132.068343700000014, 43.3186768 ], [ 132.066823699999986, 43.3190458 ], [ 132.0662747, 43.3187646 ], [ 132.0659325, 43.3179368 ], [ 132.0651225, 43.3172211 ], [ 132.0638356, 43.3156106 ], [ 132.0633794, 43.3160332 ], [ 132.0638098, 43.3164766 ], [ 132.0641384, 43.3168128 ], [ 132.064427, 43.3171809 ], [ 132.064643499999988, 43.3174334 ], [ 132.0646583, 43.317728 ], [ 132.064485600000012, 43.3179385 ], [ 132.0642983, 43.3181912 ], [ 132.0640536, 43.3183282 ], [ 132.0636935, 43.3185178 ], [ 132.063636800000012, 43.3187963 ], [ 132.0633694, 43.3193951 ], [ 132.0636385, 43.3205 ], [ 132.064381200000014, 43.3221917 ], [ 132.064956200000012, 43.3227183 ], [ 132.0649655, 43.3230202 ], [ 132.064740199999989, 43.3238793 ], [ 132.0643843, 43.3244221 ], [ 132.0642066, 43.3244827 ], [ 132.0640698, 43.3243468 ], [ 132.0638089, 43.324238 ], [ 132.063517, 43.3242563 ], [ 132.06347980000001, 43.324347 ], [ 132.063312200000013, 43.3244469 ], [ 132.0632192, 43.3246238 ], [ 132.062983300000013, 43.3246647 ], [ 132.0626939, 43.3250986 ], [ 132.062801900000011, 43.3253327 ], [ 132.063320800000014, 43.3255517 ], [ 132.0626632, 43.3263101 ], [ 132.0627357, 43.3272762 ], [ 132.0623261, 43.3272765 ], [ 132.0614194, 43.3270329 ], [ 132.060781, 43.3268935 ], [ 132.0600474, 43.3273132 ], [ 132.059746, 43.3274572 ], [ 132.0596649, 43.3277328 ], [ 132.0596946, 43.3279768 ], [ 132.059442100000012, 43.3284784 ], [ 132.0591873, 43.3286536 ], [ 132.0591872, 43.3288513 ], [ 132.0591717, 43.3290311 ], [ 132.0591604, 43.3291619 ], [ 132.0588048, 43.3292941 ], [ 132.0562774, 43.3296386 ], [ 132.0560605, 43.3296682 ], [ 132.0559659, 43.3294027 ], [ 132.0556244, 43.3291736 ], [ 132.0547096, 43.3291641 ], [ 132.0538359, 43.329334 ], [ 132.0535899, 43.3290351 ], [ 132.053067, 43.3293588 ] ] ], [ [ [ 132.1317526, 43.2843711 ], [ 132.132062, 43.2842063 ], [ 132.1320624, 43.2842139 ], [ 132.1323702, 43.2842069 ], [ 132.1323634, 43.2840457 ], [ 132.1325347, 43.2839545 ], [ 132.132873499999988, 43.2837741 ], [ 132.136218500000012, 43.2836926 ], [ 132.1378272, 43.2836719 ], [ 132.1428048, 43.2836045 ], [ 132.1429718, 43.280023 ], [ 132.1429722, 43.279798 ], [ 132.142973399999988, 43.2789649 ], [ 132.1435531, 43.278684 ], [ 132.144004700000011, 43.2784651 ], [ 132.1438343, 43.2782777 ], [ 132.143663800000013, 43.2780903 ], [ 132.143493400000011, 43.2779029 ], [ 132.1417883, 43.2760285 ], [ 132.1407137, 43.2759822 ], [ 132.1401065, 43.2759561 ], [ 132.139799, 43.2759429 ], [ 132.1394914, 43.2759295 ], [ 132.139184, 43.2759162 ], [ 132.13537980000001, 43.2757521 ], [ 132.1334048, 43.2736663 ], [ 132.133124400000014, 43.2733703 ], [ 132.1325008, 43.2727115 ], [ 132.131994, 43.2729675 ], [ 132.131740799999989, 43.2730955 ], [ 132.130898800000011, 43.273521 ], [ 132.130108799999988, 43.2762231 ], [ 132.1302245, 43.2762457 ], [ 132.1301057, 43.2765951 ], [ 132.1299847, 43.2769437 ], [ 132.1299838, 43.2770174 ], [ 132.129813, 43.2773571 ], [ 132.1295512, 43.2780075 ], [ 132.1292798, 43.2781177 ], [ 132.1290378, 43.2782658 ], [ 132.1287568, 43.2783829 ], [ 132.128790900000013, 43.2784172 ], [ 132.128501300000011, 43.2785426 ], [ 132.1287077, 43.2788095 ], [ 132.128681699999987, 43.2789304 ], [ 132.1288634, 43.2791322 ], [ 132.128611299999989, 43.279257 ], [ 132.1284542, 43.2799874 ], [ 132.1285241, 43.2801931 ], [ 132.1287297, 43.2804155 ], [ 132.1291156, 43.2808278 ], [ 132.1292709, 43.2809973 ], [ 132.1296672, 43.2813379 ], [ 132.129625800000014, 43.2814009 ], [ 132.1296688, 43.2814684 ], [ 132.1295427, 43.2817594 ], [ 132.1298847, 43.2818375 ], [ 132.1299756, 43.2819503 ], [ 132.1299396, 43.2820424 ], [ 132.130054800000011, 43.2820746 ], [ 132.1303791, 43.28221 ], [ 132.130388900000014, 43.2822385 ], [ 132.1304472, 43.2822526 ], [ 132.1308955, 43.2832497 ], [ 132.1309039, 43.2834746 ], [ 132.1309173, 43.2837035 ], [ 132.1312448, 43.2836969 ], [ 132.1312924, 43.2837595 ], [ 132.13147330000001, 43.2840001 ], [ 132.1317526, 43.2843711 ] ] ], [ [ [ 132.2610417, 43.4509711 ], [ 132.2638561, 43.4522407 ], [ 132.2782829, 43.4651966 ], [ 132.278365900000011, 43.465271 ], [ 132.2779179, 43.465504 ], [ 132.2760202, 43.4664906 ], [ 132.2768553, 43.467395 ], [ 132.2782459, 43.4692259 ], [ 132.27788910000001, 43.4704033 ], [ 132.2789469, 43.4718083 ], [ 132.2803041, 43.4720078 ], [ 132.2803322, 43.4720119 ], [ 132.282590699999986, 43.4750364 ], [ 132.2837059, 43.4745937 ], [ 132.2845949, 43.4756474 ], [ 132.286961, 43.4756302 ], [ 132.2869857, 43.4756168 ], [ 132.289963199999988, 43.4740166 ], [ 132.2902972, 43.4741188 ], [ 132.2904307, 43.4745464 ], [ 132.291181099999989, 43.4755995 ], [ 132.2911662, 43.4757122 ], [ 132.291585, 43.4774029 ], [ 132.2920518, 43.479759 ], [ 132.2930457, 43.4817227 ], [ 132.2940975, 43.4822817 ], [ 132.295303100000012, 43.4827056 ], [ 132.295456300000012, 43.4824805 ], [ 132.2961678, 43.4828157 ], [ 132.296108, 43.4832203 ], [ 132.2969752, 43.4834982 ], [ 132.2972207, 43.4835769 ], [ 132.2982093, 43.4838215 ], [ 132.297234300000014, 43.4863632 ], [ 132.2985085, 43.48818 ], [ 132.3015958, 43.4880566 ], [ 132.3107238, 43.4876918 ], [ 132.310948, 43.4832408 ], [ 132.3109561, 43.4831574 ], [ 132.3110049, 43.4828484 ], [ 132.3090254, 43.4825785 ], [ 132.3092968, 43.4819693 ], [ 132.30855840000001, 43.480887 ], [ 132.3079722, 43.4800325 ], [ 132.30857850000001, 43.4798135 ], [ 132.3085953, 43.4798512 ], [ 132.30864840000001, 43.4798304 ], [ 132.308899, 43.479732 ], [ 132.3088807, 43.4797042 ], [ 132.3099971, 43.4793007 ], [ 132.310429199999987, 43.479131 ], [ 132.3105021, 43.4773018 ], [ 132.3107405, 43.4772663 ], [ 132.3114266, 43.4768786 ], [ 132.3115981, 43.4767781 ], [ 132.311788400000012, 43.4765159 ], [ 132.3118876, 43.4764607 ], [ 132.3131263, 43.4761205 ], [ 132.313258600000012, 43.4760034 ], [ 132.3134742, 43.4759073 ], [ 132.3144087, 43.4756382 ], [ 132.3144662, 43.4756239 ], [ 132.3152028, 43.4753907 ], [ 132.3155854, 43.4752773 ], [ 132.3162044, 43.4750863 ], [ 132.3168914, 43.4748783 ], [ 132.317244100000011, 43.4747556 ], [ 132.317415399999987, 43.474676 ], [ 132.3175516, 43.4746015 ], [ 132.3176406, 43.4745438 ], [ 132.3177058, 43.4744959 ], [ 132.3178048, 43.474407 ], [ 132.317882700000013, 43.4743063 ], [ 132.317938, 43.4741817 ], [ 132.317967399999986, 43.4740983 ], [ 132.3179941, 43.4739396 ], [ 132.317992299999986, 43.4737138 ], [ 132.3177677, 43.4730663 ], [ 132.317746699999987, 43.4730233 ], [ 132.317081699999989, 43.4712243 ], [ 132.317614600000013, 43.47104 ], [ 132.3192805, 43.4703764 ], [ 132.3197894, 43.46991 ], [ 132.3199822, 43.4696529 ], [ 132.325871299999989, 43.4681323 ], [ 132.3261496, 43.4680213 ], [ 132.326477, 43.4679662 ], [ 132.316298, 43.4544164 ], [ 132.3145103, 43.4551737 ], [ 132.3058288, 43.4555524 ], [ 132.3038807, 43.4555079 ], [ 132.3034132, 43.4554955 ], [ 132.302247599999987, 43.4554648 ], [ 132.2997876, 43.4552914 ], [ 132.2994276, 43.4476889 ], [ 132.298628900000011, 43.4473316 ], [ 132.2982051, 43.446047 ], [ 132.2980911, 43.4458808 ], [ 132.2976488, 43.4457079 ], [ 132.2986364, 43.4437575 ], [ 132.298882, 43.4435124 ], [ 132.299675799999989, 43.4425087 ], [ 132.299411, 43.442259 ], [ 132.299288600000011, 43.4422119 ], [ 132.298709800000012, 43.4421091 ], [ 132.2983994, 43.4421535 ], [ 132.2971538, 43.4426519 ], [ 132.296896299999986, 43.4426967 ], [ 132.2968592, 43.4427032 ], [ 132.296647799999988, 43.4427062 ], [ 132.2961866, 43.4427123 ], [ 132.29554490000001, 43.4426116 ], [ 132.2951894, 43.4430204 ], [ 132.2939375, 43.4431168 ], [ 132.2938704, 43.4430474 ], [ 132.2932497, 43.4430459 ], [ 132.2924377, 43.443043 ], [ 132.2924248, 43.4429753 ], [ 132.2910761, 43.4429812 ], [ 132.291087800000014, 43.4430434 ], [ 132.2905907, 43.4430986 ], [ 132.2898356, 43.443256 ], [ 132.2896093, 43.4442006 ], [ 132.289494100000013, 43.4442631 ], [ 132.28966410000001, 43.4449898 ], [ 132.289710500000012, 43.445188 ], [ 132.2898566, 43.4458684 ], [ 132.2900286, 43.4463038 ], [ 132.2903437, 43.4467478 ], [ 132.2908244, 43.447397 ], [ 132.2909062, 43.447368 ], [ 132.2913014, 43.4481208 ], [ 132.291831300000013, 43.4477835 ], [ 132.2929694, 43.4487233 ], [ 132.2925084, 43.449087 ], [ 132.292589600000014, 43.4491377 ], [ 132.292457899999988, 43.4492463 ], [ 132.2923925, 43.4492994 ], [ 132.2922992, 43.449237 ], [ 132.2916543, 43.4497642 ], [ 132.2912283, 43.4500893 ], [ 132.290992, 43.4502401 ], [ 132.289693699999987, 43.4511086 ], [ 132.2879245, 43.4523623 ], [ 132.2879116, 43.4523835 ], [ 132.2878754, 43.4524501 ], [ 132.287862499999989, 43.4524807 ], [ 132.2876952, 43.4530292 ], [ 132.2876914, 43.4530869 ], [ 132.2873971, 43.4536076 ], [ 132.287064, 43.4542486 ], [ 132.2867836, 43.4548418 ], [ 132.286701099999988, 43.4548131 ], [ 132.2865127, 43.4547549 ], [ 132.2856981, 43.4545551 ], [ 132.2851924, 43.4545336 ], [ 132.284580799999986, 43.4546638 ], [ 132.284497, 43.4545726 ], [ 132.284185799999989, 43.4541323 ], [ 132.2840802, 43.4539831 ], [ 132.2836127, 43.4540876 ], [ 132.2834522, 43.4539343 ], [ 132.2834159, 43.4538974 ], [ 132.2833716, 43.4539182 ], [ 132.2832721, 43.4537862 ], [ 132.283107, 43.4536335 ], [ 132.2830507, 43.4535768 ], [ 132.28270710000001, 43.4532307 ], [ 132.282545, 43.4530575 ], [ 132.2823563, 43.4528419 ], [ 132.2822505, 43.4526961 ], [ 132.282147900000012, 43.452554 ], [ 132.282063599999987, 43.4524108 ], [ 132.281955, 43.4521664 ], [ 132.28188320000001, 43.4519389 ], [ 132.2818505, 43.4517718 ], [ 132.281820900000014, 43.4513923 ], [ 132.2818321, 43.451178 ], [ 132.281869199999988, 43.4509219 ], [ 132.2819595, 43.4506012 ], [ 132.282057900000012, 43.4502525 ], [ 132.2822476, 43.4495777 ], [ 132.2822884, 43.4493793 ], [ 132.2823358, 43.4490985 ], [ 132.2823525, 43.4488735 ], [ 132.2823462, 43.4486782 ], [ 132.282309, 43.4484038 ], [ 132.2822495, 43.4481954 ], [ 132.282159400000012, 43.4480014 ], [ 132.28208810000001, 43.4478555 ], [ 132.281967900000012, 43.4476451 ], [ 132.2818217, 43.4473959 ], [ 132.2812353, 43.4464661 ], [ 132.2807435, 43.4456552 ], [ 132.2806122, 43.4454496 ], [ 132.2801383, 43.4447996 ], [ 132.2798537, 43.4444314 ], [ 132.2792945, 43.4437404 ], [ 132.278570699999989, 43.4427233 ], [ 132.2783933, 43.4425007 ], [ 132.2780965, 43.4426916 ], [ 132.2653583, 43.4444548 ], [ 132.2626496, 43.4461052 ], [ 132.2627057, 43.4461557 ], [ 132.2592272, 43.4481632 ], [ 132.2591557, 43.4490616 ], [ 132.2591098, 43.4496378 ], [ 132.2590865, 43.4499124 ], [ 132.2610417, 43.4509711 ] ] ] ] } },
{ "type": "Feature", "properties": { "fid": 5, "NAME": "Кневичи", "NAME_EN": "Knevichi", "NAME_RU": "Кневичи", "INT_NAME": null, "OFFICIAL_S": null, "PLACE": "village", "A_CNTR": "RU", "A_RGN": "Приморский край", "A_DSTRCT": "Артёмовский городской округ", "A_PSTCD": "692777", "POPULATION": null, "OSM_TYPE": "relation", "OSM_ID": 3539975, "oktmo": "05705000106", "okato": null }, "geometry": { "type": "MultiPolygon", "coordinates": [ [ [ [ 132.177075699999989, 43.4032824 ], [ 132.1773409, 43.4032738 ], [ 132.1775125, 43.4032683 ], [ 132.1782776, 43.4015695 ], [ 132.1790777, 43.3997931 ], [ 132.1798511, 43.398076 ], [ 132.179833300000013, 43.3972424 ], [ 132.179813200000012, 43.3962936 ], [ 132.1796833, 43.3962816 ], [ 132.1796037, 43.3951638 ], [ 132.1790216, 43.39275 ], [ 132.17906210000001, 43.3913312 ], [ 132.1790565, 43.391091 ], [ 132.1795765, 43.3888457 ], [ 132.1792967, 43.3877036 ], [ 132.1796223, 43.3866016 ], [ 132.1797654, 43.3860007 ], [ 132.179804100000013, 43.3855892 ], [ 132.1797434, 43.3840453 ], [ 132.180011799999988, 43.3837986 ], [ 132.180108, 43.3837101 ], [ 132.1802013, 43.3836244 ], [ 132.180820899999986, 43.3830546 ], [ 132.180317800000012, 43.3823114 ], [ 132.1799191, 43.3820718 ], [ 132.179278399999987, 43.3820823 ], [ 132.1792806, 43.3819652 ], [ 132.1792988, 43.3810793 ], [ 132.1793112, 43.3810751 ], [ 132.1793906, 43.3810485 ], [ 132.180374199999989, 43.380717 ], [ 132.180405900000011, 43.3807139 ], [ 132.180497, 43.3807139 ], [ 132.1806383, 43.3807021 ], [ 132.1807995, 43.3807109 ], [ 132.1835264, 43.3811238 ], [ 132.1849705, 43.3813428 ], [ 132.185296599999987, 43.3815238 ], [ 132.188258499999989, 43.3818955 ], [ 132.1899668, 43.3820396 ], [ 132.1904882, 43.3819334 ], [ 132.1916302, 43.3826274 ], [ 132.190707300000014, 43.3836073 ], [ 132.1909468, 43.3840339 ], [ 132.1911598, 43.3840733 ], [ 132.191376, 43.384131 ], [ 132.191433100000012, 43.3841351 ], [ 132.191667200000012, 43.3842469 ], [ 132.1916802, 43.3842474 ], [ 132.1917439, 43.3842497 ], [ 132.1917549, 43.3842496 ], [ 132.192371799999989, 43.3842068 ], [ 132.1928073, 43.384093 ], [ 132.1932032, 43.3840451 ], [ 132.1933855, 43.3840404 ], [ 132.193450899999988, 43.3840399 ], [ 132.19368080000001, 43.38408 ], [ 132.1938762, 43.3841449 ], [ 132.193966499999988, 43.3841914 ], [ 132.194132599999989, 43.3842958 ], [ 132.1942544, 43.3844201 ], [ 132.194345700000014, 43.3845538 ], [ 132.1943932, 43.3847357 ], [ 132.1943963, 43.3849046 ], [ 132.1943444, 43.3850983 ], [ 132.194256599999989, 43.3852326 ], [ 132.1939312, 43.3855696 ], [ 132.1939907, 43.3855897 ], [ 132.194053, 43.3856106 ], [ 132.1945173, 43.3859048 ], [ 132.194665500000013, 43.3859799 ], [ 132.1951357, 43.3861691 ], [ 132.1955127, 43.3863418 ], [ 132.1958789, 43.3865013 ], [ 132.1960554, 43.3865665 ], [ 132.1961748, 43.3866106 ], [ 132.1963791, 43.3866818 ], [ 132.19735510000001, 43.3869216 ], [ 132.197755, 43.3870216 ], [ 132.1979591, 43.3870621 ], [ 132.1979695, 43.3870641 ], [ 132.1980357, 43.3870917 ], [ 132.199174199999987, 43.3875666 ], [ 132.1994852, 43.3876963 ], [ 132.199841, 43.3878447 ], [ 132.1998433, 43.3878457 ], [ 132.2008396, 43.3882613 ], [ 132.2039478, 43.3881638 ], [ 132.2040936, 43.3881592 ], [ 132.2062828, 43.3880903 ], [ 132.2094132, 43.3885012 ], [ 132.210515, 43.3897762 ], [ 132.2119959, 43.3914721 ], [ 132.2126491, 43.392147 ], [ 132.2131164, 43.3925403 ], [ 132.2140197, 43.393185 ], [ 132.2168711, 43.3951705 ], [ 132.222172199999989, 43.3988541 ], [ 132.2248009, 43.4006816 ], [ 132.225712, 43.4013156 ], [ 132.226784900000013, 43.4020621 ], [ 132.2236189, 43.4043731 ], [ 132.219228, 43.40663 ], [ 132.218262399999986, 43.4071087 ], [ 132.2186849, 43.4075839 ], [ 132.217944, 43.408066 ], [ 132.2172941, 43.408489 ], [ 132.217008, 43.408675 ], [ 132.2164611, 43.409031 ], [ 132.215783, 43.4094721 ], [ 132.214858, 43.4085201 ], [ 132.2108556, 43.4038681 ], [ 132.208564200000012, 43.4018609 ], [ 132.2066841, 43.4002451 ], [ 132.205236, 43.4004838 ], [ 132.2031797, 43.401551 ], [ 132.2024155, 43.4019425 ], [ 132.20186910000001, 43.4020836 ], [ 132.200053, 43.4032402 ], [ 132.1967809, 43.4052719 ], [ 132.1965581, 43.4056292 ], [ 132.1965418, 43.4060029 ], [ 132.1966329, 43.4063943 ], [ 132.196642700000012, 43.4070667 ], [ 132.1978241, 43.4097622 ], [ 132.1980031, 43.4103518 ], [ 132.1991803, 43.4124971 ], [ 132.1975263, 43.413185 ], [ 132.1924445, 43.4111971 ], [ 132.1910384, 43.4140037 ], [ 132.1900464, 43.413863 ], [ 132.1901537, 43.4133445 ], [ 132.1895929, 43.4130798 ], [ 132.189906799999989, 43.4124245 ], [ 132.189577500000013, 43.4123373 ], [ 132.1896544, 43.4121389 ], [ 132.1892861, 43.4120209 ], [ 132.189363500000013, 43.4113617 ], [ 132.1879926, 43.4111751 ], [ 132.1878648, 43.4111577 ], [ 132.1878126, 43.4113182 ], [ 132.1874065, 43.4112493 ], [ 132.187418, 43.411319 ], [ 132.1875573, 43.4113197 ], [ 132.1878295, 43.4121696 ], [ 132.188231, 43.4130057 ], [ 132.1889573, 43.4138845 ], [ 132.189684, 43.4144836 ], [ 132.190621, 43.4150285 ], [ 132.1932028, 43.4160868 ], [ 132.1926331, 43.4163102 ], [ 132.1923868, 43.416636 ], [ 132.1914418, 43.4164322 ], [ 132.191128, 43.4163525 ], [ 132.1889141, 43.4171208 ], [ 132.1873009, 43.4168468 ], [ 132.1833181, 43.4170445 ], [ 132.1833526, 43.4174308 ], [ 132.1829213, 43.4174788 ], [ 132.182473, 43.4174665 ], [ 132.181862200000012, 43.4175322 ], [ 132.1812007, 43.417411 ], [ 132.180891, 43.4160484 ], [ 132.1808392, 43.4157796 ], [ 132.18084540000001, 43.4156836 ], [ 132.1807761, 43.4153935 ], [ 132.180622, 43.4149941 ], [ 132.180566, 43.4149834 ], [ 132.1793165, 43.4146052 ], [ 132.179444600000011, 43.414018 ], [ 132.1798153, 43.4139205 ], [ 132.1799112, 43.4138347 ], [ 132.1799289, 43.4137306 ], [ 132.1804163, 43.4133291 ], [ 132.1802539, 43.4130936 ], [ 132.1800015, 43.4127431 ], [ 132.179619699999989, 43.4124452 ], [ 132.1795768, 43.4118752 ], [ 132.1795885, 43.411628 ], [ 132.1803739, 43.411153 ], [ 132.180272699999989, 43.410265 ], [ 132.1803902, 43.409505 ], [ 132.178091099999989, 43.4079675 ], [ 132.177343400000012, 43.4076656 ], [ 132.17732860000001, 43.4074218 ], [ 132.177407499999987, 43.4074193 ], [ 132.177353399999987, 43.4065365 ], [ 132.17727450000001, 43.4065389 ], [ 132.177075699999989, 43.4032824 ] ] ] ] } },
{ "type": "Feature", "properties": { "fid": 8, "NAME": "Олений", "NAME_EN": null, "NAME_RU": null, "INT_NAME": null, "OFFICIAL_S": null, "PLACE": "village", "A_CNTR": "RU", "A_RGN": "Приморский край", "A_DSTRCT": "Артёмовский городской округ", "A_PSTCD": "692774", "POPULATION": null, "OSM_TYPE": "relation", "OSM_ID": 14133602, "oktmo": "05705000116", "okato": null }, "geometry": { "type": "MultiPolygon", "coordinates": [ [ [ [ 132.2800967, 43.3616145 ], [ 132.279910199999989, 43.3619704 ], [ 132.2794485, 43.3620772 ], [ 132.279021, 43.3620187 ], [ 132.278718700000013, 43.3620248 ], [ 132.2782525, 43.3620632 ], [ 132.277996300000012, 43.3620163 ], [ 132.277760199999989, 43.362076 ], [ 132.27767080000001, 43.3622746 ], [ 132.277223, 43.3626871 ], [ 132.2768601, 43.3628095 ], [ 132.275852500000013, 43.3630328 ], [ 132.2755147, 43.3628914 ], [ 132.275012, 43.3625193 ], [ 132.274348300000014, 43.3620434 ], [ 132.2741411, 43.36202 ], [ 132.2740105, 43.3619512 ], [ 132.2737405, 43.361958 ], [ 132.2731183, 43.3623265 ], [ 132.272836899999987, 43.3624216 ], [ 132.272476, 43.3625487 ], [ 132.2718926, 43.3627453 ], [ 132.2712789, 43.3629465 ], [ 132.2705028, 43.363137 ], [ 132.269458500000013, 43.3634518 ], [ 132.2689048, 43.36379 ], [ 132.2680278, 43.3643585 ], [ 132.2661608, 43.3655875 ], [ 132.2653814, 43.3660871 ], [ 132.264367600000014, 43.3666601 ], [ 132.2638856, 43.3670452 ], [ 132.2631524, 43.3676094 ], [ 132.2627034, 43.3677196 ], [ 132.2607313, 43.3684485 ], [ 132.2601923, 43.368617 ], [ 132.2583457, 43.36919 ], [ 132.257581, 43.3694118 ], [ 132.2564868, 43.368926 ], [ 132.2562145, 43.3688867 ], [ 132.256022, 43.3688133 ], [ 132.2558898, 43.3684407 ], [ 132.255731200000014, 43.3679013 ], [ 132.2557875, 43.3676624 ], [ 132.2556832, 43.3672933 ], [ 132.2555434, 43.3667514 ], [ 132.2551458, 43.3653296 ], [ 132.2548904, 43.3649366 ], [ 132.253836400000012, 43.3634081 ], [ 132.25335530000001, 43.3626103 ], [ 132.2530444, 43.3621682 ], [ 132.252973, 43.3619092 ], [ 132.252685899999989, 43.3614932 ], [ 132.2523687, 43.3611133 ], [ 132.2520146, 43.3602119 ], [ 132.2518715, 43.3593819 ], [ 132.251843, 43.3586669 ], [ 132.2518853, 43.358264 ], [ 132.2518614, 43.3578201 ], [ 132.2519567, 43.3572915 ], [ 132.2521587, 43.3558141 ], [ 132.2522826, 43.355233 ], [ 132.25241410000001, 43.3543695 ], [ 132.252497, 43.3538462 ], [ 132.2526829, 43.3527766 ], [ 132.2527797, 43.3522376 ], [ 132.2528263, 43.3519189 ], [ 132.25316380000001, 43.3498817 ], [ 132.25332370000001, 43.3489751 ], [ 132.253543, 43.3478036 ], [ 132.2531387, 43.3477449 ], [ 132.252817099999987, 43.3475786 ], [ 132.2518799, 43.3470467 ], [ 132.2512806, 43.3470091 ], [ 132.2511108, 43.3424534 ], [ 132.252112, 43.342208 ], [ 132.252267100000012, 43.3401857 ], [ 132.252398, 43.3389836 ], [ 132.2522865, 43.3375386 ], [ 132.251392399999986, 43.3372805 ], [ 132.251371299999988, 43.3367702 ], [ 132.2545192, 43.3342802 ], [ 132.255676599999987, 43.3343431 ], [ 132.256595299999987, 43.3340254 ], [ 132.2572279, 43.3336254 ], [ 132.2583203, 43.3331596 ], [ 132.259248500000012, 43.3328278 ], [ 132.259336, 43.3327966 ], [ 132.2599657, 43.3323271 ], [ 132.259129300000012, 43.3301723 ], [ 132.259686, 43.3296791 ], [ 132.261423, 43.3284675 ], [ 132.261748899999986, 43.3275759 ], [ 132.2622222, 43.3271224 ], [ 132.262412500000011, 43.3270617 ], [ 132.264448499999986, 43.326206 ], [ 132.264804199999986, 43.3261437 ], [ 132.2650683, 43.3260623 ], [ 132.2654049, 43.3259423 ], [ 132.265681, 43.3259349 ], [ 132.266548, 43.3260629 ], [ 132.267158200000011, 43.3262225 ], [ 132.267376500000012, 43.326255 ], [ 132.2676194, 43.326242 ], [ 132.267806, 43.3261427 ], [ 132.2678673, 43.326038 ], [ 132.2682925, 43.3261072 ], [ 132.2682921, 43.3261834 ], [ 132.2683332, 43.326292 ], [ 132.268464200000011, 43.3263965 ], [ 132.268586, 43.3264322 ], [ 132.268856699999986, 43.3264424 ], [ 132.2692438, 43.3264084 ], [ 132.270818100000014, 43.3269342 ], [ 132.2712727, 43.3270282 ], [ 132.272826900000013, 43.3271309 ], [ 132.273960100000011, 43.3271366 ], [ 132.2742476, 43.3271014 ], [ 132.2748814, 43.3271579 ], [ 132.274987399999986, 43.3272824 ], [ 132.2751072, 43.3272828 ], [ 132.275107100000014, 43.3273057 ], [ 132.2751446, 43.3276057 ], [ 132.2752198, 43.3276561 ], [ 132.2753265, 43.327716 ], [ 132.2753756, 43.3278718 ], [ 132.2763905, 43.3279608 ], [ 132.2770783, 43.3279361 ], [ 132.2770572, 43.3275562 ], [ 132.2771481, 43.3275012 ], [ 132.2772232, 43.3274531 ], [ 132.2772548, 43.327395 ], [ 132.277571599999987, 43.3273324 ], [ 132.27759420000001, 43.3273677 ], [ 132.277695099999988, 43.3273573 ], [ 132.277712, 43.3273178 ], [ 132.2778371, 43.3273069 ], [ 132.278119800000013, 43.3273051 ], [ 132.2783763, 43.3272778 ], [ 132.279486, 43.3271376 ], [ 132.280252, 43.3269786 ], [ 132.2805405, 43.326912 ], [ 132.2805131, 43.3268924 ], [ 132.280419599999988, 43.3268639 ], [ 132.2806191, 43.3268152 ], [ 132.2813999, 43.3271264 ], [ 132.2841502, 43.3285063 ], [ 132.2856081, 43.3292378 ], [ 132.2856725, 43.3292702 ], [ 132.2864193, 43.3302413 ], [ 132.2864912, 43.3306146 ], [ 132.2864918, 43.3311116 ], [ 132.2864692, 43.3312379 ], [ 132.2864037, 43.3316037 ], [ 132.2863609, 43.3318426 ], [ 132.286184100000014, 43.3331005 ], [ 132.2859401, 43.3341396 ], [ 132.2858197, 43.3345588 ], [ 132.2852299, 43.3348237 ], [ 132.2850249, 43.3351647 ], [ 132.284938, 43.3358029 ], [ 132.286071099999987, 43.3358844 ], [ 132.2866455, 43.3368473 ], [ 132.287409200000013, 43.3367538 ], [ 132.2885824, 43.3359115 ], [ 132.289452899999986, 43.3359057 ], [ 132.2903714, 43.3367085 ], [ 132.2904395, 43.3367587 ], [ 132.291757600000011, 43.3377101 ], [ 132.292376600000011, 43.3379012 ], [ 132.2924778, 43.3379767 ], [ 132.2925536, 43.3382457 ], [ 132.2931058, 43.338651 ], [ 132.2942497, 43.3394978 ], [ 132.2951199, 43.3401396 ], [ 132.29557650000001, 43.3404492 ], [ 132.2978517, 43.34216 ], [ 132.2986803, 43.342821 ], [ 132.299118600000014, 43.3431729 ], [ 132.2996479, 43.3434857 ], [ 132.3000915, 43.3437601 ], [ 132.3005331, 43.3440591 ], [ 132.301060400000011, 43.3443585 ], [ 132.3015412, 43.3447118 ], [ 132.3019936, 43.3450448 ], [ 132.3022575, 43.3453895 ], [ 132.3043681, 43.3471968 ], [ 132.3048042, 43.3475996 ], [ 132.3049852, 43.3484723 ], [ 132.3051605, 43.3491463 ], [ 132.3049564, 43.3495579 ], [ 132.3056172, 43.3504314 ], [ 132.3030699, 43.3517135 ], [ 132.3027003, 43.3516096 ], [ 132.302024100000011, 43.3517634 ], [ 132.301735799999989, 43.3526331 ], [ 132.300308699999988, 43.3527488 ], [ 132.2998719, 43.3520777 ], [ 132.2997856, 43.3510776 ], [ 132.299486800000011, 43.3505283 ], [ 132.298633200000012, 43.3507582 ], [ 132.2984477, 43.3507974 ], [ 132.29777390000001, 43.351087 ], [ 132.2975214, 43.351305 ], [ 132.2972921, 43.3517034 ], [ 132.2986492, 43.3526622 ], [ 132.2979192, 43.3531545 ], [ 132.2967463, 43.3535623 ], [ 132.296748799999989, 43.3540863 ], [ 132.2963417, 43.3542064 ], [ 132.296441, 43.3545395 ], [ 132.295985300000012, 43.3547788 ], [ 132.2954803, 43.3549708 ], [ 132.2947771, 43.3546748 ], [ 132.294590199999988, 43.3544971 ], [ 132.294253200000014, 43.3546223 ], [ 132.295081399999987, 43.357024 ], [ 132.2907701, 43.3584474 ], [ 132.2899721, 43.3611968 ], [ 132.2867013, 43.3600751 ], [ 132.2851498, 43.3595429 ], [ 132.2848258, 43.3596126 ], [ 132.284588899999989, 43.3596635 ], [ 132.2844536, 43.3592511 ], [ 132.2844451, 43.3592254 ], [ 132.2838609, 43.3589621 ], [ 132.280333399999989, 43.3573722 ], [ 132.2799123, 43.3576275 ], [ 132.2800401, 43.3576834 ], [ 132.280500499999988, 43.3582811 ], [ 132.2809756, 43.3586258 ], [ 132.2807558, 43.3591655 ], [ 132.2806776, 43.3597554 ], [ 132.2806295, 43.3601006 ], [ 132.280475, 43.3603933 ], [ 132.2803927, 43.3608586 ], [ 132.280383699999987, 43.3612525 ], [ 132.280273, 43.3612645 ], [ 132.2800967, 43.3616145 ] ] ] ] } },
{ "type": "Feature", "properties": { "fid": 9, "NAME": "Кролевцы", "NAME_EN": "Krolevci", "NAME_RU": "Кролевцы", "INT_NAME": null, "OFFICIAL_S": null, "PLACE": "village", "A_CNTR": "RU", "A_RGN": "Приморский край", "A_DSTRCT": "Артёмовский городской округ", "A_PSTCD": "692778", "POPULATION": null, "OSM_TYPE": "relation", "OSM_ID": 14133603, "oktmo": "05705000111", "okato": null }, "geometry": { "type": "MultiPolygon", "coordinates": [ [ [ [ 132.2626496, 43.4461052 ], [ 132.2627057, 43.4461557 ], [ 132.2592272, 43.4481632 ], [ 132.2591557, 43.4490616 ], [ 132.2591098, 43.4496378 ], [ 132.2590865, 43.4499124 ], [ 132.2610417, 43.4509711 ], [ 132.260270100000014, 43.4518133 ], [ 132.2586159, 43.4511504 ], [ 132.257685900000013, 43.4512748 ], [ 132.257788, 43.4519036 ], [ 132.2577048, 43.4530744 ], [ 132.2573822, 43.4540036 ], [ 132.2564932, 43.454919 ], [ 132.256446, 43.4549318 ], [ 132.2559441, 43.4550504 ], [ 132.25335290000001, 43.4549937 ], [ 132.253139, 43.4547842 ], [ 132.2506966, 43.455472 ], [ 132.2501674, 43.4553698 ], [ 132.2500808, 43.4553532 ], [ 132.248015400000014, 43.4555881 ], [ 132.2477811, 43.4554732 ], [ 132.2458608, 43.4545312 ], [ 132.245372800000013, 43.4542603 ], [ 132.2441009, 43.4534541 ], [ 132.242807, 43.4525942 ], [ 132.242712899999987, 43.4522168 ], [ 132.24314050000001, 43.4521757 ], [ 132.243043199999988, 43.4519034 ], [ 132.2425891, 43.4510102 ], [ 132.2424761, 43.4506532 ], [ 132.2421463, 43.4498298 ], [ 132.2421042, 43.4497336 ], [ 132.2420406, 43.4496028 ], [ 132.2419815, 43.4494717 ], [ 132.2419325, 43.4493831 ], [ 132.2418245, 43.4492353 ], [ 132.2416734, 43.449261 ], [ 132.2415805, 43.448992 ], [ 132.241133499999989, 43.4478184 ], [ 132.2380262, 43.4466908 ], [ 132.2353699, 43.44632 ], [ 132.23465250000001, 43.4462986 ], [ 132.2343971, 43.4460735 ], [ 132.2343018, 43.4453948 ], [ 132.2350722, 43.4450284 ], [ 132.2352646, 43.4449765 ], [ 132.2364641, 43.4450552 ], [ 132.236569, 43.4450033 ], [ 132.2366097, 43.4449107 ], [ 132.2368606, 43.4443391 ], [ 132.236869, 43.4443197 ], [ 132.2370771, 43.4437591 ], [ 132.2372325, 43.4431761 ], [ 132.2372885, 43.4429656 ], [ 132.23769, 43.4426491 ], [ 132.2379153, 43.4421322 ], [ 132.238099299999988, 43.4417103 ], [ 132.238165, 43.4416544 ], [ 132.2386258, 43.4402524 ], [ 132.2389016, 43.4394675 ], [ 132.237907400000012, 43.4393452 ], [ 132.236916400000013, 43.4391725 ], [ 132.2365919, 43.4383443 ], [ 132.2364311, 43.4381166 ], [ 132.236142, 43.4377027 ], [ 132.2360737, 43.437437 ], [ 132.2360928, 43.4368137 ], [ 132.236670299999986, 43.4363816 ], [ 132.236720100000014, 43.4363442 ], [ 132.2366046, 43.435969 ], [ 132.2364782, 43.4355582 ], [ 132.2364168, 43.4353587 ], [ 132.236367699999988, 43.4351505 ], [ 132.2362727, 43.4347466 ], [ 132.2361766, 43.4343392 ], [ 132.2360803, 43.4339299 ], [ 132.2360332, 43.4337302 ], [ 132.2359846, 43.4335227 ], [ 132.235889500000013, 43.4331173 ], [ 132.2357948, 43.4327139 ], [ 132.2357222, 43.4321448 ], [ 132.2373844, 43.4313244 ], [ 132.238252, 43.4342064 ], [ 132.23890750000001, 43.435829 ], [ 132.239428, 43.4373778 ], [ 132.2395454, 43.4377678 ], [ 132.2402499, 43.4392846 ], [ 132.2408163, 43.440978 ], [ 132.2412596, 43.4415703 ], [ 132.241845, 43.442456 ], [ 132.2422968, 43.4430323 ], [ 132.2424256, 43.444392 ], [ 132.2424604, 43.4447595 ], [ 132.2425888, 43.4447519 ], [ 132.2426226, 43.4448819 ], [ 132.2433682, 43.4450102 ], [ 132.243473599999987, 43.4453774 ], [ 132.2434608, 43.4458469 ], [ 132.243714, 43.4458506 ], [ 132.2450519, 43.4458988 ], [ 132.2484546, 43.446086 ], [ 132.2484585, 43.4438326 ], [ 132.2484821, 43.4437355 ], [ 132.2482281, 43.4437497 ], [ 132.248125, 43.4437504 ], [ 132.2479032, 43.4437243 ], [ 132.247864099999987, 43.4437208 ], [ 132.247655400000014, 43.4437024 ], [ 132.24751710000001, 43.4436799 ], [ 132.246770700000013, 43.4434812 ], [ 132.2467636, 43.4433382 ], [ 132.2467641, 43.4430697 ], [ 132.2468359, 43.4427427 ], [ 132.246383, 43.4425431 ], [ 132.2458907, 43.4423103 ], [ 132.2457129, 43.4421292 ], [ 132.245528, 43.4417716 ], [ 132.2446713, 43.4405368 ], [ 132.2445329, 43.4403272 ], [ 132.2456449, 43.4398823 ], [ 132.24625420000001, 43.4398811 ], [ 132.247278200000011, 43.4401527 ], [ 132.2488184, 43.4406116 ], [ 132.249596700000012, 43.4401218 ], [ 132.2498976, 43.4401771 ], [ 132.2502763, 43.4402401 ], [ 132.2508339, 43.4405089 ], [ 132.2511331, 43.4406531 ], [ 132.2531644, 43.440854 ], [ 132.254314, 43.4401432 ], [ 132.2572398, 43.4403133 ], [ 132.2593314, 43.4424746 ], [ 132.2595014, 43.4428949 ], [ 132.2595516, 43.4430007 ], [ 132.2598013, 43.4431128 ], [ 132.2605438, 43.4432663 ], [ 132.2614697, 43.4440014 ], [ 132.26171, 43.4444608 ], [ 132.2617933, 43.4445954 ], [ 132.2618453, 43.444679 ], [ 132.2619018, 43.4447619 ], [ 132.2621821, 43.4451727 ], [ 132.2622512, 43.4453342 ], [ 132.2626496, 43.4461052 ] ] ] ] } },
{ "type": "Feature", "properties": { "fid": 12, "NAME": "Суражевка", "NAME_EN": "Surazhevka", "NAME_RU": "Суражевка", "INT_NAME": null, "OFFICIAL_S": null, "PLACE": "village", "A_CNTR": "RU", "A_RGN": "Приморский край", "A_DSTRCT": "Артёмовский городской округ", "A_PSTCD": "692779", "POPULATION": null, "OSM_TYPE": "way", "OSM_ID": 130229272, "oktmo": "05705000121", "okato": null }, "geometry": { "type": "MultiPolygon", "coordinates": [ [ [ [ 132.322941500000013, 43.4271267 ], [ 132.32474160000001, 43.4265962 ], [ 132.324816700000014, 43.4260899 ], [ 132.325929800000011, 43.4252358 ], [ 132.33207010000001, 43.4226445 ], [ 132.33589760000001, 43.4218271 ], [ 132.336767, 43.4212451 ], [ 132.3362421, 43.4198121 ], [ 132.3352946, 43.4174605 ], [ 132.333849, 43.4168897 ], [ 132.333588099999986, 43.4165064 ], [ 132.3339674, 43.4152434 ], [ 132.3364847, 43.4145305 ], [ 132.3363115, 43.4124582 ], [ 132.3369411, 43.4122881 ], [ 132.337121599999989, 43.411318 ], [ 132.3363886, 43.4103717 ], [ 132.331662599999987, 43.41175 ], [ 132.3298943, 43.4126057 ], [ 132.3279646, 43.4132588 ], [ 132.326209, 43.4140628 ], [ 132.324685, 43.4144283 ], [ 132.3235923, 43.4149274 ], [ 132.3214841, 43.4160642 ], [ 132.3227252, 43.4172723 ], [ 132.3216337, 43.4178197 ], [ 132.3207208, 43.418714 ], [ 132.3176345, 43.4202353 ], [ 132.316779200000013, 43.420516 ], [ 132.315679499999987, 43.4204777 ], [ 132.3148865, 43.420607 ], [ 132.315069, 43.4208195 ], [ 132.3142987, 43.4212495 ], [ 132.3145707, 43.4217778 ], [ 132.3125231, 43.4227093 ], [ 132.3116675, 43.4224203 ], [ 132.3106416, 43.4229506 ], [ 132.311341, 43.4237471 ], [ 132.3127175, 43.4230936 ], [ 132.314081, 43.4225048 ], [ 132.3161398, 43.4217182 ], [ 132.3166189, 43.4222705 ], [ 132.3182803, 43.4220752 ], [ 132.3197098, 43.4239838 ], [ 132.321987299999989, 43.4250654 ], [ 132.3210775, 43.4257984 ], [ 132.322941500000013, 43.4271267 ] ] ] ] } }
]
}
