{
"type": "FeatureCollection",
"name": "Границы Владивосток",
"crs": { "type": "name", "properties": { "name": "urn:ogc:def:crs:OGC:1.3:CRS84" } },
"features": [
{ "type": "Feature", "properties": { "fid": 2, "NAME": "Владивосток", "NAME_EN": "Vladivostok", "NAME_RU": "Владивосток", "INT_NAME": null, "OFFICIAL_S": null, "PLACE": "city", "A_CNTR": "RU", "A_RGN": "Приморский край", "A_DSTRCT": null, "A_PSTCD": "690000", "POPULATION": "600871", "OSM_TYPE": "relation", "OSM_ID": 1704857, "oktmo": "05701000001", "okato": null }, "geometry": { "type": "MultiPolygon", "coordinates": [ [ [ [ 132.2068827, 43.2662962 ], [ 132.2056187, 43.2664367 ], [ 132.2045714, 43.2674151 ], [ 132.204122, 43.2684557 ], [ 132.2040177, 43.2693891 ], [ 132.2049749, 43.2713486 ], [ 132.2044396, 43.2723454 ], [ 132.2046684, 43.2737894 ], [ 132.2045577, 43.2741311 ], [ 132.203978799999987, 43.2743822 ], [ 132.2030824, 43.2743211 ], [ 132.2022847, 43.2739566 ], [ 132.200515700000011, 43.2739598 ], [ 132.198623700000013, 43.2732388 ], [ 132.1970653, 43.2738686 ], [ 132.1966066, 43.2741768 ], [ 132.196327599999989, 43.2744894 ], [ 132.1961292, 43.2749399 ], [ 132.1959641, 43.2753297 ], [ 132.1955687, 43.2761363 ], [ 132.1955573, 43.2761683 ], [ 132.195267800000011, 43.2769836 ], [ 132.1937797, 43.2762576 ], [ 132.193406399999986, 43.2760364 ], [ 132.1922869, 43.2754959 ], [ 132.191129100000012, 43.2756065 ], [ 132.1870887, 43.2754024 ], [ 132.1858554, 43.2755617 ], [ 132.185014200000012, 43.2758634 ], [ 132.18422, 43.2762884 ], [ 132.182882, 43.276818 ], [ 132.1827401, 43.2770064 ], [ 132.182659, 43.2772977 ], [ 132.1823618, 43.2775389 ], [ 132.1799671, 43.2780287 ], [ 132.1792662, 43.2777943 ], [ 132.1780597, 43.2770943 ], [ 132.176683200000014, 43.2769662 ], [ 132.1736688, 43.2769484 ], [ 132.1723221, 43.2772028 ], [ 132.1719644, 43.2771106 ], [ 132.1710258, 43.2766376 ], [ 132.1706508, 43.2771432 ], [ 132.1703315, 43.2773842 ], [ 132.169871, 43.2775395 ], [ 132.169173699999988, 43.2779048 ], [ 132.1685005, 43.2781618 ], [ 132.1682222, 43.2781788 ], [ 132.1675668, 43.2778776 ], [ 132.1668742, 43.2779997 ], [ 132.166235199999988, 43.2779124 ], [ 132.16507630000001, 43.2779375 ], [ 132.162472799999989, 43.2781332 ], [ 132.1620754, 43.2782671 ], [ 132.1609463, 43.278255 ], [ 132.1605087, 43.2781026 ], [ 132.1604568, 43.2768998 ], [ 132.1594711, 43.2752397 ], [ 132.1594864, 43.2743162 ], [ 132.1572536, 43.2730412 ], [ 132.15685160000001, 43.2728639 ], [ 132.15648920000001, 43.272865 ], [ 132.1560692, 43.2730359 ], [ 132.1552469, 43.2729085 ], [ 132.1541933, 43.272303 ], [ 132.151755400000013, 43.2718352 ], [ 132.1502865, 43.2713012 ], [ 132.148372099999989, 43.2705323 ], [ 132.14663920000001, 43.2691986 ], [ 132.1425174, 43.2693804 ], [ 132.1400645, 43.2696215 ], [ 132.1386671, 43.270491 ], [ 132.1381878, 43.2704777 ], [ 132.1368826, 43.2697233 ], [ 132.1357818, 43.2695489 ], [ 132.135386899999986, 43.269487 ], [ 132.133656300000013, 43.2689838 ], [ 132.132234399999987, 43.2694126 ], [ 132.1318363, 43.2703134 ], [ 132.1317723, 43.2705323 ], [ 132.1312532, 43.2723068 ], [ 132.131150100000013, 43.2723593 ], [ 132.129217399999987, 43.2733576 ], [ 132.128069, 43.2738377 ], [ 132.1261671, 43.2746326 ], [ 132.1247597, 43.2752208 ], [ 132.1246946, 43.2752085 ], [ 132.1246782, 43.2752547 ], [ 132.1240464, 43.2755189 ], [ 132.123590299999989, 43.2757094 ], [ 132.1226036, 43.2759768 ], [ 132.1220927, 43.2761151 ], [ 132.1221677, 43.2758841 ], [ 132.1221112, 43.2757339 ], [ 132.1214794, 43.2759069 ], [ 132.121272, 43.2755829 ], [ 132.1207336, 43.275829 ], [ 132.1209395, 43.2761333 ], [ 132.1203314, 43.2763516 ], [ 132.11916260000001, 43.2767944 ], [ 132.118786300000011, 43.2769401 ], [ 132.1186167, 43.2768277 ], [ 132.1184637, 43.2767263 ], [ 132.1181494, 43.2768617 ], [ 132.117901499999988, 43.2769238 ], [ 132.1138269, 43.2774693 ], [ 132.1125582, 43.2776151 ], [ 132.1109358, 43.2778185 ], [ 132.108853399999987, 43.2780963 ], [ 132.107475, 43.2782828 ], [ 132.106969, 43.2783487 ], [ 132.1064878, 43.2783493 ], [ 132.1064581, 43.2783489 ], [ 132.1059634, 43.2783407 ], [ 132.1054662, 43.2783454 ], [ 132.1054775, 43.2786735 ], [ 132.1054782, 43.2786938 ], [ 132.1045321, 43.2788155 ], [ 132.1045273, 43.2788161 ], [ 132.1037461, 43.2789166 ], [ 132.1032588, 43.2789793 ], [ 132.102526, 43.2790736 ], [ 132.100429100000014, 43.2793408 ], [ 132.0996102, 43.2794452 ], [ 132.098091, 43.2796388 ], [ 132.0978514, 43.2796716 ], [ 132.0971945, 43.2797617 ], [ 132.097128199999986, 43.2796733 ], [ 132.0968106, 43.2793379 ], [ 132.0966517, 43.2792684 ], [ 132.09656240000001, 43.2790317 ], [ 132.096465599999988, 43.2790672 ], [ 132.096164, 43.2791781 ], [ 132.0959722, 43.2792487 ], [ 132.0959286, 43.2792647 ], [ 132.0957086, 43.2793456 ], [ 132.095632200000011, 43.2793737 ], [ 132.0955539, 43.2794025 ], [ 132.095120900000012, 43.2794982 ], [ 132.0946552, 43.2795858 ], [ 132.0929868, 43.2799155 ], [ 132.092624300000011, 43.2800246 ], [ 132.092358100000013, 43.2801361 ], [ 132.0916279, 43.2804656 ], [ 132.0916054, 43.2804446 ], [ 132.0915769, 43.280466 ], [ 132.0913878, 43.2807022 ], [ 132.0913541, 43.2807364 ], [ 132.090948700000013, 43.2811457 ], [ 132.0907769, 43.2813597 ], [ 132.0905947, 43.2816076 ], [ 132.09042740000001, 43.2817712 ], [ 132.0904346, 43.2817753 ], [ 132.090397700000011, 43.2818312 ], [ 132.0901936, 43.2820124 ], [ 132.0901441, 43.2819829 ], [ 132.0899959, 43.282121 ], [ 132.089934, 43.282089 ], [ 132.089778599999988, 43.2820097 ], [ 132.0897034, 43.2819713 ], [ 132.0896429, 43.2819476 ], [ 132.089475, 43.2820744 ], [ 132.0893964, 43.2821288 ], [ 132.0893869, 43.2821354 ], [ 132.089209899999986, 43.2822623 ], [ 132.0892605, 43.2822895 ], [ 132.0889853, 43.2824897 ], [ 132.08876, 43.2827158 ], [ 132.0886549, 43.2826926 ], [ 132.088535400000012, 43.2828298 ], [ 132.0884812, 43.2828089 ], [ 132.0884629, 43.2828048 ], [ 132.088346, 43.2829821 ], [ 132.0880837, 43.2828967 ], [ 132.088038, 43.2828848 ], [ 132.087821100000014, 43.2830296 ], [ 132.087418500000013, 43.2838217 ], [ 132.0871056, 43.2841228 ], [ 132.0870506, 43.2841357 ], [ 132.0867158, 43.2842123 ], [ 132.086123500000014, 43.2845662 ], [ 132.0850375, 43.2853081 ], [ 132.0848885, 43.285664 ], [ 132.0850027, 43.28581 ], [ 132.0847415, 43.2858719 ], [ 132.0846072, 43.2859301 ], [ 132.084572799999989, 43.2859024 ], [ 132.0845184, 43.2859383 ], [ 132.0840636, 43.2861946 ], [ 132.0841179, 43.2864389 ], [ 132.0838042, 43.2865788 ], [ 132.083806900000013, 43.2865835 ], [ 132.0838493, 43.2866512 ], [ 132.0837914, 43.2866737 ], [ 132.0837664, 43.286676 ], [ 132.083679499999988, 43.2867141 ], [ 132.0835889, 43.2867574 ], [ 132.0834671, 43.286819 ], [ 132.083403800000013, 43.2868732 ], [ 132.0832622, 43.2869318 ], [ 132.083156699999989, 43.2869747 ], [ 132.0831513, 43.2869788 ], [ 132.0830699, 43.2870146 ], [ 132.0830101, 43.287039 ], [ 132.0829891, 43.2870477 ], [ 132.0829534, 43.2870625 ], [ 132.0829401, 43.2870668 ], [ 132.0828942, 43.2870785 ], [ 132.0828841, 43.287081 ], [ 132.0828143, 43.2871071 ], [ 132.082918400000011, 43.2872809 ], [ 132.0813675, 43.2885039 ], [ 132.0766762, 43.2885113 ], [ 132.0768856, 43.2888805 ], [ 132.076706300000012, 43.2890383 ], [ 132.075819, 43.2885182 ], [ 132.0754049, 43.2888015 ], [ 132.0752603, 43.2888861 ], [ 132.0744841, 43.2888734 ], [ 132.0742721, 43.2888429 ], [ 132.0739318, 43.2885155 ], [ 132.0738054, 43.2885156 ], [ 132.073418299999986, 43.2887799 ], [ 132.0708811, 43.2880163 ], [ 132.070569299999988, 43.2878783 ], [ 132.0694344, 43.2878876 ], [ 132.0676565, 43.2882818 ], [ 132.0669547, 43.28853 ], [ 132.0606769, 43.2885343 ], [ 132.059761900000012, 43.2891521 ], [ 132.0595313, 43.2891453 ], [ 132.059384599999987, 43.2891409 ], [ 132.05927890000001, 43.2891377 ], [ 132.0592058, 43.2891459 ], [ 132.0591729, 43.2889744 ], [ 132.059053, 43.288535 ], [ 132.0567323, 43.2885335 ], [ 132.0566485, 43.2885331 ], [ 132.0560736, 43.2885312 ], [ 132.0554246, 43.2885272 ], [ 132.054605900000013, 43.2879731 ], [ 132.0557899, 43.287304 ], [ 132.0557378, 43.2863041 ], [ 132.0467399, 43.2802448 ], [ 132.0432489, 43.2791154 ], [ 132.0414601, 43.2770683 ], [ 132.0357024, 43.2754368 ], [ 132.0333421, 43.2732534 ], [ 132.03304510000001, 43.2719361 ], [ 132.030696799999987, 43.2710071 ], [ 132.0301227, 43.269499 ], [ 132.028985799999987, 43.2686595 ], [ 132.0267909, 43.267915 ], [ 132.022861400000011, 43.2676772 ], [ 132.0165529, 43.2679812 ], [ 132.0152957, 43.2691867 ], [ 132.014427, 43.2688807 ], [ 132.0140892, 43.2649085 ], [ 132.0127032, 43.2635161 ], [ 132.0089384, 43.2625215 ], [ 132.003001500000011, 43.2622829 ], [ 132.0026834, 43.2625178 ], [ 132.001891, 43.262465 ], [ 132.0016224, 43.2620717 ], [ 132.0017011, 43.2613874 ], [ 132.002768800000013, 43.260849 ], [ 132.0053059, 43.2577865 ], [ 132.0053546, 43.2560237 ], [ 132.0060956, 43.2538273 ], [ 132.0059019, 43.252417 ], [ 132.00439320000001, 43.250519 ], [ 132.0046802, 43.2500586 ], [ 132.0087088, 43.2486669 ], [ 132.0090462, 43.2476696 ], [ 132.0100162, 43.2470243 ], [ 132.0119301, 43.2469567 ], [ 132.0128877, 43.2459904 ], [ 132.0124362, 43.244659 ], [ 132.012201, 43.2429434 ], [ 132.0117354, 43.242534 ], [ 132.0107035, 43.2421416 ], [ 132.0105863, 43.2402588 ], [ 132.0111396, 43.239932 ], [ 132.0104293, 43.238545 ], [ 132.00920880000001, 43.2374544 ], [ 132.0076843, 43.2367568 ], [ 132.002073, 43.2348383 ], [ 132.0011135, 43.2354669 ], [ 132.0002867, 43.2353979 ], [ 131.998475500000012, 43.2335037 ], [ 131.9966595, 43.2335857 ], [ 131.9967188, 43.2331492 ], [ 131.9959552, 43.2330398 ], [ 131.9935712, 43.2339164 ], [ 131.987640699999986, 43.234964 ], [ 131.9859764, 43.2337332 ], [ 131.9849442, 43.2332912 ], [ 131.982970599999987, 43.2328549 ], [ 131.9811212, 43.2333949 ], [ 131.980555399999986, 43.2332686 ], [ 131.9798606, 43.2325819 ], [ 131.9778574, 43.2311653 ], [ 131.970289799999989, 43.2274399 ], [ 131.9533765, 43.2203095 ], [ 131.9526936, 43.2194588 ], [ 131.9499188, 43.2181376 ], [ 131.9465204, 43.2178629 ], [ 131.938467, 43.2139018 ], [ 131.936518799999988, 43.2110361 ], [ 131.933281599999987, 43.2087028 ], [ 131.9242232, 43.2051511 ], [ 131.921832099999989, 43.2050566 ], [ 131.9194989, 43.2037669 ], [ 131.91712, 43.1938787 ], [ 131.908053099999989, 43.1883035 ], [ 131.907137400000011, 43.1867841 ], [ 131.9082727, 43.182548 ], [ 131.9074411, 43.1810446 ], [ 131.9057202, 43.1812232 ], [ 131.9042723, 43.1799366 ], [ 131.903854, 43.1788772 ], [ 131.904013, 43.1772585 ], [ 131.903483599999987, 43.1764606 ], [ 131.9030227, 43.176082 ], [ 131.901860699999986, 43.1755977 ], [ 131.899796, 43.175712 ], [ 131.8989382, 43.1756443 ], [ 131.8976533, 43.175363 ], [ 131.8959969, 43.1742524 ], [ 131.894877900000012, 43.170202 ], [ 131.8953098, 43.1695051 ], [ 131.8982744, 43.1670463 ], [ 131.903333800000013, 43.1595812 ], [ 131.9037617, 43.1589499 ], [ 131.904920299999986, 43.1579758 ], [ 131.899283200000013, 43.1468772 ], [ 131.8944737, 43.145511 ], [ 131.892002, 43.1433112 ], [ 131.8873323, 43.1391549 ], [ 131.8882261, 43.1383074 ], [ 131.8831796, 43.1348736 ], [ 131.882501, 43.1303827 ], [ 131.8818436, 43.1297416 ], [ 131.8748444, 43.1274962 ], [ 131.8729031, 43.1206728 ], [ 131.8745395, 43.1181664 ], [ 131.869046700000013, 43.1140622 ], [ 131.867011100000013, 43.111702 ], [ 131.8680406, 43.1066459 ], [ 131.8630608, 43.1053811 ], [ 131.861375, 43.1060214 ], [ 131.8591289, 43.1054238 ], [ 131.8583181, 43.1045064 ], [ 131.858277500000014, 43.1034036 ], [ 131.8596664, 43.1020708 ], [ 131.859852600000011, 43.1008039 ], [ 131.8585074, 43.0994628 ], [ 131.857297499999987, 43.0992388 ], [ 131.8567984, 43.0986176 ], [ 131.857424, 43.0972441 ], [ 131.8537165, 43.0956983 ], [ 131.8513486, 43.0941776 ], [ 131.849938900000012, 43.0924192 ], [ 131.850407600000011, 43.0915384 ], [ 131.852743, 43.0909012 ], [ 131.851902700000011, 43.0899545 ], [ 131.85066710000001, 43.0896637 ], [ 131.8463644, 43.0891837 ], [ 131.8435192, 43.0871519 ], [ 131.842589800000013, 43.0857937 ], [ 131.842178100000012, 43.0838737 ], [ 131.8404913, 43.0825816 ], [ 131.839718800000014, 43.081163 ], [ 131.8401107, 43.0795281 ], [ 131.839891, 43.075968 ], [ 131.840991699999989, 43.0744233 ], [ 131.841523200000012, 43.0742041 ], [ 131.8426805, 43.0725766 ], [ 131.8433513, 43.0724777 ], [ 131.8438478, 43.0727843 ], [ 131.843925, 43.0732301 ], [ 131.8430078, 43.0747356 ], [ 131.842888, 43.0753468 ], [ 131.841331, 43.0765394 ], [ 131.841698900000011, 43.0778746 ], [ 131.8452979, 43.0795396 ], [ 131.8520643, 43.0783715 ], [ 131.8558504, 43.080254 ], [ 131.8571775, 43.0814627 ], [ 131.8572531, 43.0819101 ], [ 131.859437899999989, 43.0836847 ], [ 131.8613469, 43.082526 ], [ 131.867457300000012, 43.0880786 ], [ 131.8668903, 43.0884831 ], [ 131.8748563, 43.0951167 ], [ 131.8738678, 43.0971891 ], [ 131.8698617, 43.0987759 ], [ 131.880257300000011, 43.1050988 ], [ 131.8795389, 43.1057091 ], [ 131.882632699999988, 43.1079087 ], [ 131.882619799999986, 43.1083495 ], [ 131.8850712, 43.1127531 ], [ 131.886723100000012, 43.1131544 ], [ 131.887258300000013, 43.1123137 ], [ 131.893126099999989, 43.1107056 ], [ 131.8989344, 43.1115862 ], [ 131.8987962, 43.112275 ], [ 131.9018359, 43.1126582 ], [ 131.909739800000011, 43.1101724 ], [ 131.918085, 43.1086889 ], [ 131.918779, 43.1081037 ], [ 131.930908, 43.1076646 ], [ 131.9324114, 43.1068483 ], [ 131.9314616, 43.1059118 ], [ 131.929127099999988, 43.1059258 ], [ 131.9278952, 43.1049526 ], [ 131.9242654, 43.1050079 ], [ 131.924297700000011, 43.1059814 ], [ 131.9230604, 43.1059897 ], [ 131.9224068, 43.1050355 ], [ 131.912252099999989, 43.1051145 ], [ 131.9036069, 43.1063411 ], [ 131.9038339, 43.1073988 ], [ 131.9024977, 43.107514 ], [ 131.902296299999989, 43.1065582 ], [ 131.896233599999988, 43.1072365 ], [ 131.8961046, 43.1065833 ], [ 131.8916539, 43.1064498 ], [ 131.8825041, 43.1014242 ], [ 131.881533, 43.0990289 ], [ 131.882355499999989, 43.0967007 ], [ 131.8810224, 43.0940625 ], [ 131.880058600000012, 43.0936286 ], [ 131.8783516, 43.0902931 ], [ 131.878095300000012, 43.0880002 ], [ 131.8800104, 43.0855596 ], [ 131.8823878, 43.0853966 ], [ 131.88498580000001, 43.0862221 ], [ 131.8899877, 43.0899056 ], [ 131.8971392, 43.0922122 ], [ 131.8985145, 43.0913788 ], [ 131.8975055, 43.0904066 ], [ 131.8916056, 43.0889974 ], [ 131.888472400000012, 43.0859874 ], [ 131.8875885, 43.0834124 ], [ 131.889203400000014, 43.0817606 ], [ 131.893915, 43.0815043 ], [ 131.8945223, 43.081298 ], [ 131.895300600000013, 43.0805714 ], [ 131.8959256, 43.0804895 ], [ 131.8990016, 43.0776398 ], [ 131.8988927, 43.0770029 ], [ 131.89945, 43.0766367 ], [ 131.9002415, 43.0767019 ], [ 131.902971, 43.0779076 ], [ 131.9037339, 43.0768167 ], [ 131.9120978, 43.0766822 ], [ 131.9143085, 43.0771253 ], [ 131.914560200000011, 43.0766257 ], [ 131.915994500000011, 43.0769909 ], [ 131.9156922, 43.0777035 ], [ 131.916626799999989, 43.0779282 ], [ 131.916741, 43.0777865 ], [ 131.9178432, 43.0780408 ], [ 131.917735599999986, 43.0787604 ], [ 131.917953899999986, 43.0795689 ], [ 131.9193187, 43.0812622 ], [ 131.9220186, 43.083169 ], [ 131.922418, 43.083006 ], [ 131.922941400000013, 43.0830198 ], [ 131.9229389, 43.0813409 ], [ 131.9234511, 43.0802677 ], [ 131.9237594, 43.0800946 ], [ 131.9244742, 43.0800973 ], [ 131.9247105, 43.079276 ], [ 131.9247215, 43.0792375 ], [ 131.9249201, 43.0785468 ], [ 131.925283400000012, 43.0780581 ], [ 131.9262186, 43.077541 ], [ 131.9262276, 43.0773023 ], [ 131.9259286, 43.0769642 ], [ 131.9259376, 43.0764688 ], [ 131.9297511, 43.0749261 ], [ 131.930331099999989, 43.0750114 ], [ 131.9307315, 43.0752729 ], [ 131.9311827, 43.0750108 ], [ 131.9322759, 43.0745831 ], [ 131.9327457, 43.0739084 ], [ 131.9323162, 43.0731623 ], [ 131.9313468, 43.073349 ], [ 131.9298001, 43.0732655 ], [ 131.9292199, 43.0730268 ], [ 131.927316100000013, 43.0733206 ], [ 131.920530500000012, 43.0736497 ], [ 131.918059699999986, 43.0739651 ], [ 131.914402, 43.0731684 ], [ 131.914494, 43.0728138 ], [ 131.912763500000011, 43.0712822 ], [ 131.912915199999986, 43.0699708 ], [ 131.9140399, 43.0700004 ], [ 131.914040199999988, 43.0699103 ], [ 131.9134023, 43.0689252 ], [ 131.9134802, 43.0681224 ], [ 131.9129271, 43.0677802 ], [ 131.9122366, 43.0677899 ], [ 131.9109967, 43.0670596 ], [ 131.912839600000012, 43.0654836 ], [ 131.9136125, 43.0654117 ], [ 131.914510799999988, 43.0658832 ], [ 131.914577400000013, 43.0665017 ], [ 131.9151416, 43.0668591 ], [ 131.916619, 43.0663291 ], [ 131.9208458, 43.0658328 ], [ 131.921444799999989, 43.06528 ], [ 131.9229348, 43.0652793 ], [ 131.926436700000011, 43.0642431 ], [ 131.929244399999988, 43.0655285 ], [ 131.9298905, 43.0656291 ], [ 131.931432, 43.0653127 ], [ 131.932931599999989, 43.0655489 ], [ 131.933513299999987, 43.0660351 ], [ 131.9342562, 43.0675323 ], [ 131.9348267, 43.0676094 ], [ 131.935342, 43.067847 ], [ 131.9363138, 43.0688605 ], [ 131.9380988, 43.0694775 ], [ 131.9394785, 43.0707794 ], [ 131.9416565, 43.0716002 ], [ 131.946665, 43.0697551 ], [ 131.9508616, 43.0715053 ], [ 131.9512661, 43.0742372 ], [ 131.959221500000012, 43.0730489 ], [ 131.9620684, 43.0708704 ], [ 131.962408399999987, 43.0690195 ], [ 131.9620229, 43.0682273 ], [ 131.9603268, 43.0681765 ], [ 131.9573273, 43.0622981 ], [ 131.95588, 43.0577479 ], [ 131.956001, 43.0573621 ], [ 131.9578003, 43.0571853 ], [ 131.9584396, 43.0579493 ], [ 131.961666, 43.0578922 ], [ 131.962289700000014, 43.0572138 ], [ 131.9631724, 43.0570914 ], [ 131.9636557, 43.057455 ], [ 131.9638103, 43.0590687 ], [ 131.9633153, 43.0600819 ], [ 131.965081199999986, 43.0636691 ], [ 131.9650797, 43.0657937 ], [ 131.9654333, 43.0695749 ], [ 131.96369390000001, 43.0725064 ], [ 131.9631288, 43.0748603 ], [ 131.9638234, 43.0758941 ], [ 131.965355, 43.0770067 ], [ 131.967803300000014, 43.0781642 ], [ 131.9689639, 43.0795417 ], [ 131.970402400000012, 43.08045 ], [ 131.9716685, 43.0821703 ], [ 131.972756, 43.0859244 ], [ 131.973811, 43.0868728 ], [ 131.9745579, 43.0864173 ], [ 131.9753754, 43.0865024 ], [ 131.9767005, 43.0871867 ], [ 131.9779292, 43.0885783 ], [ 131.9800481, 43.0890224 ], [ 131.981998299999987, 43.0902293 ], [ 131.9867496, 43.0913728 ], [ 131.9885712, 43.0923088 ], [ 131.9903707, 43.0938478 ], [ 131.993634, 43.0955499 ], [ 131.9949049, 43.0980026 ], [ 131.9948909, 43.0995025 ], [ 131.9956315, 43.1000562 ], [ 132.000402900000012, 43.1015367 ], [ 132.0030789, 43.1033357 ], [ 132.0063648, 43.1043741 ], [ 132.0095655, 43.1067306 ], [ 132.0106481, 43.10931 ], [ 132.010343, 43.1130572 ], [ 132.0127694, 43.1143692 ], [ 132.017502, 43.1151709 ], [ 132.019868800000012, 43.1126999 ], [ 132.0224604, 43.1132865 ], [ 132.0243669, 43.1156201 ], [ 132.0286362, 43.116876 ], [ 132.0302547, 43.1159534 ], [ 132.031561399999987, 43.1158061 ], [ 132.031746700000014, 43.1170999 ], [ 132.0331227, 43.1174433 ], [ 132.034508, 43.1192194 ], [ 132.0343964, 43.1199763 ], [ 132.0339998, 43.1204951 ], [ 132.0328921, 43.1209665 ], [ 132.032885099999987, 43.1217427 ], [ 132.0334221, 43.1220117 ], [ 132.034791500000011, 43.1221496 ], [ 132.036055, 43.1225645 ], [ 132.038552, 43.1217739 ], [ 132.039321199999989, 43.1218398 ], [ 132.0408357, 43.1237893 ], [ 132.040890499999989, 43.1246784 ], [ 132.0398028, 43.124997 ], [ 132.0396566, 43.1254187 ], [ 132.0402248, 43.1268382 ], [ 132.0439333, 43.1288229 ], [ 132.0440659, 43.1297686 ], [ 132.0437704, 43.1306347 ], [ 132.044018, 43.1309679 ], [ 132.0456562, 43.1316022 ], [ 132.046987800000011, 43.1328829 ], [ 132.0473194, 43.1349839 ], [ 132.048192699999987, 43.1367511 ], [ 132.0534643, 43.1410183 ], [ 132.054005499999988, 43.1427691 ], [ 132.0562222, 43.1450396 ], [ 132.058132199999989, 43.1448246 ], [ 132.0592101, 43.1463945 ], [ 132.0590477, 43.1471891 ], [ 132.058343, 43.1474696 ], [ 132.0575332, 43.147479 ], [ 132.0575024, 43.1478946 ], [ 132.0578652, 43.1488967 ], [ 132.0590918, 43.1498652 ], [ 132.0597885, 43.150197 ], [ 132.061245500000012, 43.151735 ], [ 132.0625987, 43.1522398 ], [ 132.0641728, 43.1522032 ], [ 132.064715400000011, 43.1520604 ], [ 132.0654398, 43.1512106 ], [ 132.0653681, 43.1502276 ], [ 132.066514899999987, 43.1497261 ], [ 132.0675287, 43.1501945 ], [ 132.0675248, 43.1512524 ], [ 132.0662151, 43.1528058 ], [ 132.0677743, 43.1550771 ], [ 132.0705963, 43.1569654 ], [ 132.0748964, 43.1610589 ], [ 132.079817, 43.1636905 ], [ 132.0827491, 43.1670595 ], [ 132.087492200000014, 43.1687897 ], [ 132.0890671, 43.1705357 ], [ 132.096057300000012, 43.1734488 ], [ 132.0986297, 43.1757434 ], [ 132.0984846, 43.1761956 ], [ 132.0974736, 43.1771309 ], [ 132.0982813, 43.1782662 ], [ 132.102344, 43.1790814 ], [ 132.103568, 43.1804221 ], [ 132.1046299, 43.1805485 ], [ 132.1050651, 43.1812808 ], [ 132.10898, 43.1821122 ], [ 132.110390599999988, 43.1852707 ], [ 132.1108654, 43.1855132 ], [ 132.112343900000013, 43.1856854 ], [ 132.1135535, 43.1867053 ], [ 132.113267900000011, 43.187793 ], [ 132.1112321, 43.1907427 ], [ 132.1130982, 43.1926101 ], [ 132.115317299999987, 43.1937589 ], [ 132.117874300000011, 43.1944739 ], [ 132.123559, 43.1951995 ], [ 132.130746499999987, 43.1957578 ], [ 132.132106599999986, 43.1952579 ], [ 132.1320653, 43.1944663 ], [ 132.1328193, 43.1941688 ], [ 132.133637599999986, 43.1945263 ], [ 132.138693499999988, 43.1978013 ], [ 132.1409507, 43.2011945 ], [ 132.1431603, 43.2014442 ], [ 132.1470009, 43.1994505 ], [ 132.1499315, 43.1994622 ], [ 132.1552193, 43.2027795 ], [ 132.15778610000001, 43.2030643 ], [ 132.15984370000001, 43.2056336 ], [ 132.1601286, 43.2066167 ], [ 132.162244500000014, 43.2070135 ], [ 132.16437160000001, 43.2068227 ], [ 132.1655505, 43.2072737 ], [ 132.1677579, 43.2057414 ], [ 132.1704947, 43.20558 ], [ 132.1712373, 43.206053 ], [ 132.1706729, 43.2076844 ], [ 132.1688217, 43.209436 ], [ 132.1681206, 43.2102415 ], [ 132.168515899999989, 43.210938 ], [ 132.170693, 43.2125037 ], [ 132.171105899999986, 43.2131841 ], [ 132.1732331, 43.2143084 ], [ 132.17332110000001, 43.2148257 ], [ 132.176006300000012, 43.2157413 ], [ 132.1930668, 43.2175496 ], [ 132.197980800000011, 43.2191067 ], [ 132.2008894, 43.2190769 ], [ 132.2017667, 43.2187212 ], [ 132.20311860000001, 43.2186281 ], [ 132.2040735, 43.2187381 ], [ 132.206452, 43.220172 ], [ 132.210146, 43.2200384 ], [ 132.2104955, 43.2204446 ], [ 132.2109051, 43.2211064 ], [ 132.2113358, 43.2212835 ], [ 132.2124263, 43.2220252 ], [ 132.212770799999987, 43.222473 ], [ 132.2154198, 43.2236089 ], [ 132.216037, 43.2259393 ], [ 132.220346299999989, 43.226617 ], [ 132.2208444, 43.2269595 ], [ 132.2210119, 43.228884 ], [ 132.2242403, 43.2294109 ], [ 132.231426699999986, 43.2291916 ], [ 132.2318761, 43.2296292 ], [ 132.2318067, 43.2303154 ], [ 132.23082070000001, 43.2315923 ], [ 132.2304138, 43.2335031 ], [ 132.229561100000012, 43.2340729 ], [ 132.2295249, 43.2346596 ], [ 132.230134600000014, 43.2359817 ], [ 132.2311058, 43.2367708 ], [ 132.2350563, 43.2381542 ], [ 132.236379, 43.2383532 ], [ 132.2381101, 43.2389399 ], [ 132.2378646, 43.2392797 ], [ 132.237822099999988, 43.2393384 ], [ 132.236741200000012, 43.240834 ], [ 132.2355866, 43.2412588 ], [ 132.2335525, 43.2421487 ], [ 132.2307796, 43.243522 ], [ 132.2290194, 43.2433328 ], [ 132.2282444, 43.243889 ], [ 132.226761399999987, 43.2457243 ], [ 132.2262499, 43.2461334 ], [ 132.225341899999989, 43.2464902 ], [ 132.2237041, 43.2476543 ], [ 132.222069299999987, 43.2482382 ], [ 132.2224621, 43.2489223 ], [ 132.2227863, 43.2497252 ], [ 132.2224139, 43.2513854 ], [ 132.2218633, 43.2520286 ], [ 132.2199374, 43.2525229 ], [ 132.2185149, 43.2524808 ], [ 132.2168847, 43.253017 ], [ 132.215887, 43.2530179 ], [ 132.2150767, 43.2534821 ], [ 132.213244300000014, 43.25365 ], [ 132.2126269, 43.2573541 ], [ 132.2131589, 43.2577323 ], [ 132.2143078, 43.2583172 ], [ 132.215459900000013, 43.2588612 ], [ 132.216208099999989, 43.2592163 ], [ 132.2161908, 43.2598553 ], [ 132.2175344, 43.2609679 ], [ 132.218070399999988, 43.2614604 ], [ 132.2182448, 43.2621066 ], [ 132.218773, 43.262942 ], [ 132.2194096, 43.2635794 ], [ 132.2200209, 43.2643005 ], [ 132.219495, 43.265317 ], [ 132.2188545, 43.2663912 ], [ 132.218395, 43.2662623 ], [ 132.2157819, 43.2663161 ], [ 132.2148882, 43.2661043 ], [ 132.1998356, 43.2584975 ], [ 132.185260699999986, 43.2504321 ], [ 132.1811965, 43.2481696 ], [ 132.178406, 43.2488819 ], [ 132.1783423, 43.2488982 ], [ 132.1781091, 43.2489578 ], [ 132.1769559, 43.249252 ], [ 132.1757639, 43.2495564 ], [ 132.170972799999987, 43.2486131 ], [ 132.163576299999988, 43.2487105 ], [ 132.1509097, 43.2467656 ], [ 132.146194900000012, 43.2443568 ], [ 132.1337186, 43.2430903 ], [ 132.1271351, 43.2425018 ], [ 132.1267436, 43.2424668 ], [ 132.1263959, 43.2424357 ], [ 132.1244275, 43.2416497 ], [ 132.1086909, 43.2384306 ], [ 132.1070774, 43.2397284 ], [ 132.104122100000012, 43.2389296 ], [ 132.099874, 43.2373988 ], [ 132.0996705, 43.2353881 ], [ 132.0955808, 43.2242634 ], [ 132.0918766, 43.2141828 ], [ 132.0860879, 43.2139546 ], [ 132.0859548, 43.2139493 ], [ 132.078350300000011, 43.2136492 ], [ 132.078071099999988, 43.2136381 ], [ 132.07771120000001, 43.2136239 ], [ 132.0774585, 43.2136139 ], [ 132.0771599, 43.2136021 ], [ 132.0764546, 43.2135742 ], [ 132.073080299999987, 43.2130935 ], [ 132.072977400000013, 43.2128972 ], [ 132.0712026, 43.2095127 ], [ 132.0686653, 43.2086469 ], [ 132.0667463, 43.2073437 ], [ 132.062466300000011, 43.1971022 ], [ 132.0581593, 43.1952442 ], [ 132.0565753, 43.1915238 ], [ 132.053265399999987, 43.1911004 ], [ 132.05286430000001, 43.1910491 ], [ 132.0521278, 43.1883564 ], [ 132.051341799999989, 43.1854822 ], [ 132.049944900000014, 43.1806255 ], [ 132.0483841, 43.1793725 ], [ 132.0459658, 43.1774311 ], [ 132.0459588, 43.1774347 ], [ 132.045918699999987, 43.1773948 ], [ 132.0459198, 43.1773941 ], [ 132.0450961, 43.176733 ], [ 132.0437334, 43.1756389 ], [ 132.0436968, 43.1756581 ], [ 132.0436568, 43.175617 ], [ 132.0436867, 43.1756013 ], [ 132.042422, 43.1745858 ], [ 132.04210470000001, 43.1743311 ], [ 132.0331033, 43.1662537 ], [ 132.027480200000014, 43.1643578 ], [ 132.0264386, 43.1640052 ], [ 132.026295800000014, 43.1639569 ], [ 132.0251008, 43.1635524 ], [ 132.024446899999987, 43.1637555 ], [ 132.024346799999989, 43.1637867 ], [ 132.023796299999987, 43.1639578 ], [ 132.0182945, 43.1656676 ], [ 132.0140063, 43.1665683 ], [ 132.011104499999988, 43.1666081 ], [ 132.00836, 43.1656076 ], [ 132.0083601, 43.1630968 ], [ 132.0101133, 43.1610708 ], [ 132.007775400000014, 43.1551271 ], [ 132.0053834, 43.1521933 ], [ 132.005728800000014, 43.1514919 ], [ 132.0058383, 43.1512696 ], [ 132.0065136, 43.149939 ], [ 132.0076119, 43.1481091 ], [ 132.0063269, 43.1461881 ], [ 132.0060942, 43.1458402 ], [ 132.008245100000011, 43.1450713 ], [ 132.0078426, 43.1444676 ], [ 132.007778, 43.1443708 ], [ 132.0053326, 43.1407034 ], [ 132.0000554, 43.1425903 ], [ 131.9995887, 43.142757 ], [ 131.9997505, 43.1429996 ], [ 131.9993768, 43.1431331 ], [ 131.9989184, 43.143297 ], [ 131.999391, 43.1440038 ], [ 131.9998694, 43.1447192 ], [ 132.0020188, 43.1479363 ], [ 132.002034400000014, 43.1479378 ], [ 132.002031499999987, 43.1479553 ], [ 132.0021939, 43.1481986 ], [ 132.0018873, 43.1487142 ], [ 132.0019316, 43.1487157 ], [ 132.0019258, 43.1488069 ], [ 132.001834, 43.148804 ], [ 132.001783499999988, 43.1488887 ], [ 131.9999719, 43.1525803 ], [ 132.0032258, 43.1565719 ], [ 132.004775200000012, 43.1605114 ], [ 132.0034417, 43.1620522 ], [ 132.003440899999987, 43.1678366 ], [ 132.009991, 43.1702245 ], [ 132.0147431, 43.1701593 ], [ 132.019940100000014, 43.1690678 ], [ 132.025015700000012, 43.1674904 ], [ 132.0300111, 43.1691769 ], [ 132.038287200000013, 43.1766074 ], [ 132.0454063, 43.1823266 ], [ 132.048681499999986, 43.1941688 ], [ 132.052769899999987, 43.1946921 ], [ 132.054025200000012, 43.1976404 ], [ 132.0552592, 43.1981728 ], [ 132.05573050000001, 43.1983761 ], [ 132.0564798, 43.1986994 ], [ 132.0583203, 43.1994934 ], [ 132.0624259, 43.2093199 ], [ 132.0657093, 43.2115538 ], [ 132.0658784, 43.2116689 ], [ 132.067012799999986, 43.2120561 ], [ 132.0673189, 43.2121606 ], [ 132.0678749, 43.213221 ], [ 132.0679069, 43.213282 ], [ 132.068781800000011, 43.2149506 ], [ 132.0686992, 43.2149658 ], [ 132.0683698, 43.2150261 ], [ 132.0661476, 43.2154335 ], [ 132.0660459, 43.2155542 ], [ 132.065728400000012, 43.2160417 ], [ 132.0655357, 43.2163522 ], [ 132.0653979, 43.2166779 ], [ 132.0653174, 43.2170135 ], [ 132.0652955, 43.2173537 ], [ 132.065332399999988, 43.2176933 ], [ 132.0654276, 43.2180269 ], [ 132.0655797, 43.2183491 ], [ 132.065786, 43.218655 ], [ 132.0660436, 43.2189395 ], [ 132.066348299999987, 43.2191985 ], [ 132.0666951, 43.2194276 ], [ 132.067078900000013, 43.2196234 ], [ 132.067493399999989, 43.2197826 ], [ 132.06816, 43.2200147 ], [ 132.0685987, 43.220135 ], [ 132.069054599999987, 43.2202143 ], [ 132.0695208, 43.2202515 ], [ 132.069989600000014, 43.2202459 ], [ 132.0704539, 43.2201978 ], [ 132.0709061, 43.2201077 ], [ 132.071339200000011, 43.2199771 ], [ 132.0717464, 43.2198082 ], [ 132.0721213, 43.2196035 ], [ 132.072458, 43.2193663 ], [ 132.072751, 43.2191003 ], [ 132.0729958, 43.2188098 ], [ 132.0733132, 43.2183222 ], [ 132.0735061, 43.2180116 ], [ 132.073570100000012, 43.2178602 ], [ 132.0736148, 43.2178416 ], [ 132.0739897, 43.217637 ], [ 132.0743263, 43.2173997 ], [ 132.074619399999989, 43.2171337 ], [ 132.0747342, 43.2169973 ], [ 132.0758485, 43.217156 ], [ 132.079655699999989, 43.2173065 ], [ 132.0804751, 43.2173389 ], [ 132.080610900000011, 43.2173443 ], [ 132.0880484, 43.2176377 ], [ 132.0890085, 43.2202511 ], [ 132.089047599999986, 43.2203575 ], [ 132.0909135, 43.2254358 ], [ 132.09102390000001, 43.2257363 ], [ 132.0947927, 43.2359904 ], [ 132.0951871, 43.2397237 ], [ 132.1021743, 43.2422419 ], [ 132.105951800000014, 43.2432687 ], [ 132.1084874, 43.2439489 ], [ 132.1102907, 43.2424966 ], [ 132.1225595, 43.2450064 ], [ 132.12326680000001, 43.2452888 ], [ 132.1239344, 43.2455553 ], [ 132.1248625, 43.2459258 ], [ 132.1330822, 43.2466605 ], [ 132.1443433, 43.2478036 ], [ 132.146255700000012, 43.2487794 ], [ 132.1462919, 43.2487844 ], [ 132.146288700000014, 43.2487973 ], [ 132.1478127, 43.2495758 ], [ 132.1485572, 43.2499562 ], [ 132.148912700000011, 43.2501378 ], [ 132.1631088, 43.2523177 ], [ 132.1653057, 43.2522888 ], [ 132.1671031, 43.2522651 ], [ 132.170364400000011, 43.2522221 ], [ 132.175959, 43.2533201 ], [ 132.178819299999986, 43.2525901 ], [ 132.1793939, 43.2524435 ], [ 132.1803196, 43.2522071 ], [ 132.1970427, 43.2614642 ], [ 132.201122700000013, 43.2635626 ], [ 132.2020579, 43.2640436 ], [ 132.2023724, 43.2642054 ], [ 132.2027503, 43.2643997 ], [ 132.2028473, 43.2644496 ], [ 132.2068827, 43.2662962 ] ], [ [ 132.0495616, 43.1580364 ], [ 132.0494333, 43.157974 ], [ 132.049082199999987, 43.1578037 ], [ 132.0490376, 43.1577824 ], [ 132.0461652, 43.1597386 ], [ 132.045858399999986, 43.1596404 ], [ 132.0458102, 43.158206 ], [ 132.045608, 43.1574334 ], [ 132.0410914, 43.1568872 ], [ 132.0407466, 43.1540543 ], [ 132.039839699999987, 43.1529988 ], [ 132.0393171, 43.1523595 ], [ 132.0389783, 43.1520943 ], [ 132.038582, 43.1520629 ], [ 132.038398699999988, 43.151692 ], [ 132.0381276, 43.1511433 ], [ 132.037567, 43.1502468 ], [ 132.036407200000014, 43.1484092 ], [ 132.033396900000014, 43.1488876 ], [ 132.0317875, 43.1489607 ], [ 132.03124360000001, 43.1507148 ], [ 132.03203160000001, 43.1509245 ], [ 132.032568700000013, 43.1513219 ], [ 132.0318021, 43.1533298 ], [ 132.0311955, 43.1535476 ], [ 132.030019399999986, 43.1533666 ], [ 132.0289669, 43.1535754 ], [ 132.0269906, 43.1545358 ], [ 132.0270858, 43.1552845 ], [ 132.0283489, 43.1558372 ], [ 132.0287702, 43.1565079 ], [ 132.0309124, 43.1568065 ], [ 132.0330047, 43.1564615 ], [ 132.033324, 43.1562972 ], [ 132.033887099999987, 43.1560612 ], [ 132.0345594, 43.1557391 ], [ 132.035642599999989, 43.1552257 ], [ 132.0370268, 43.1547059 ], [ 132.0375927, 43.1545065 ], [ 132.038517399999989, 43.1540469 ], [ 132.039579300000014, 43.1535844 ], [ 132.0401479, 43.1542062 ], [ 132.040582199999989, 43.1572501 ], [ 132.0408736, 43.1573468 ], [ 132.044012, 43.1577312 ], [ 132.0450932, 43.1578198 ], [ 132.0452458, 43.1598815 ], [ 132.04541420000001, 43.1600971 ], [ 132.045548, 43.1602058 ], [ 132.0458338, 43.1602955 ], [ 132.0463806, 43.1602066 ], [ 132.047640300000012, 43.1594435 ], [ 132.048020799999989, 43.1591898 ], [ 132.048279900000011, 43.1589442 ], [ 132.0495616, 43.1580364 ] ], [ [ 131.9968539, 43.1201525 ], [ 131.9979969, 43.1177131 ], [ 131.9980534, 43.1175925 ], [ 131.9979775, 43.1172267 ], [ 131.997977100000014, 43.1172247 ], [ 131.9976419, 43.1156086 ], [ 131.9964483, 43.1141186 ], [ 131.9949521, 43.113485 ], [ 131.9939181, 43.1128478 ], [ 131.9939139, 43.1128468 ], [ 131.9936238, 43.1127791 ], [ 131.9932188, 43.1126031 ], [ 131.992813899999987, 43.1126411 ], [ 131.9926237, 43.112733 ], [ 131.9929151, 43.1129552 ], [ 131.9929182, 43.1129575 ], [ 131.9931068, 43.1131054 ], [ 131.9937224, 43.1134249 ], [ 131.9938607, 43.1136053 ], [ 131.9937232, 43.113854 ], [ 131.9927845, 43.114012 ], [ 131.9924138, 43.1140708 ], [ 131.991879399999988, 43.114183 ], [ 131.991737699999987, 43.1142142 ], [ 131.991656, 43.1142302 ], [ 131.9912986, 43.1142997 ], [ 131.99125, 43.1143091 ], [ 131.990802, 43.1144095 ], [ 131.990722, 43.1144344 ], [ 131.990545, 43.1144892 ], [ 131.9902759, 43.1145858 ], [ 131.9900374, 43.114671 ], [ 131.989935, 43.1147364 ], [ 131.989800800000012, 43.1149042 ], [ 131.9896881, 43.1151223 ], [ 131.98942310000001, 43.1156417 ], [ 131.989146, 43.1159355 ], [ 131.988807900000012, 43.1163048 ], [ 131.987958099999986, 43.1169655 ], [ 131.9875432, 43.1172865 ], [ 131.9870703, 43.1177364 ], [ 131.9869641, 43.1178825 ], [ 131.986928799999987, 43.1179616 ], [ 131.9869306, 43.1180512 ], [ 131.9869961, 43.1181868 ], [ 131.987343399999986, 43.1186368 ], [ 131.987765599999989, 43.1190871 ], [ 131.988195600000012, 43.1194182 ], [ 131.988808299999988, 43.1198042 ], [ 131.9890484, 43.1198811 ], [ 131.9894885, 43.1198626 ], [ 131.9900356, 43.1198283 ], [ 131.9906911, 43.1197813 ], [ 131.9918805, 43.1197735 ], [ 131.995567, 43.1199208 ], [ 131.9964918, 43.1200874 ], [ 131.9968539, 43.1201525 ] ], [ [ 131.99347, 43.1026947 ], [ 131.9925764, 43.102931 ], [ 131.992435699999987, 43.1029684 ], [ 131.991263800000013, 43.1039574 ], [ 131.9904417, 43.1039973 ], [ 131.9898966, 43.1035419 ], [ 131.9895701, 43.1033367 ], [ 131.987266, 43.1021834 ], [ 131.985740099999987, 43.1021709 ], [ 131.985247, 43.1022588 ], [ 131.985176, 43.1023663 ], [ 131.9850567, 43.1024992 ], [ 131.98500820000001, 43.1025532 ], [ 131.9849059, 43.1026479 ], [ 131.984749099999988, 43.1027928 ], [ 131.98445190000001, 43.1029668 ], [ 131.9843473, 43.1030113 ], [ 131.9841467, 43.1030386 ], [ 131.9838498, 43.1032585 ], [ 131.9837713, 43.1033387 ], [ 131.98373, 43.1033865 ], [ 131.9835347, 43.103649 ], [ 131.983384300000012, 43.1039061 ], [ 131.9832821, 43.1041632 ], [ 131.983235400000012, 43.104391 ], [ 131.983222399999988, 43.1044545 ], [ 131.9832207, 43.1046412 ], [ 131.9832202, 43.1046966 ], [ 131.98324310000001, 43.104835 ], [ 131.9832594, 43.1049322 ], [ 131.9833454, 43.1051731 ], [ 131.9834462, 43.1053566 ], [ 131.983568, 43.1055245 ], [ 131.98373620000001, 43.105709 ], [ 131.9839456, 43.1059034 ], [ 131.984325500000011, 43.1062156 ], [ 131.9844467, 43.1063373 ], [ 131.9846944, 43.1066507 ], [ 131.984793700000012, 43.1068144 ], [ 131.9848622, 43.1069271 ], [ 131.9849615, 43.106991 ], [ 131.985176, 43.1071299 ], [ 131.9869639, 43.1084319 ], [ 131.9930829, 43.1098388 ], [ 131.995505799999989, 43.1085555 ], [ 131.9963414, 43.1080425 ], [ 131.996488699999986, 43.1076284 ], [ 131.9968433, 43.10625 ], [ 131.9968711, 43.1061227 ], [ 131.9969783, 43.1055887 ], [ 131.9969644, 43.1054411 ], [ 131.996868299999988, 43.1052972 ], [ 131.996237799999989, 43.1041156 ], [ 131.9957236, 43.103156 ], [ 131.99495730000001, 43.102862 ], [ 131.994293, 43.1026473 ], [ 131.99347, 43.1026947 ] ] ] ] } },
{ "type": "Feature", "properties": { "fid": 4, "NAME": "Трудовое", "NAME_EN": null, "NAME_RU": "Трудовое", "INT_NAME": null, "OFFICIAL_S": null, "PLACE": "town", "A_CNTR": "RU", "A_RGN": "Приморский край", "A_DSTRCT": "Владивостокский городской округ", "A_PSTCD": null, "POPULATION": null, "OSM_TYPE": "relation", "OSM_ID": 3372537, "oktmo": "05701000116", "okato": null }, "geometry": { "type": "MultiPolygon", "coordinates": [ [ [ [ 132.1312532, 43.2723068 ], [ 132.131150100000013, 43.2723593 ], [ 132.129217399999987, 43.2733576 ], [ 132.128069, 43.2738377 ], [ 132.1261671, 43.2746326 ], [ 132.1247597, 43.2752208 ], [ 132.1246946, 43.2752085 ], [ 132.1246782, 43.2752547 ], [ 132.1240464, 43.2755189 ], [ 132.123590299999989, 43.2757094 ], [ 132.1226036, 43.2759768 ], [ 132.1220927, 43.2761151 ], [ 132.1221677, 43.2758841 ], [ 132.1221112, 43.2757339 ], [ 132.1214794, 43.2759069 ], [ 132.121272, 43.2755829 ], [ 132.1207336, 43.275829 ], [ 132.1209395, 43.2761333 ], [ 132.1203314, 43.2763516 ], [ 132.11916260000001, 43.2767944 ], [ 132.118786300000011, 43.2769401 ], [ 132.1186167, 43.2768277 ], [ 132.1184637, 43.2767263 ], [ 132.1181494, 43.2768617 ], [ 132.117901499999988, 43.2769238 ], [ 132.1138269, 43.2774693 ], [ 132.1125582, 43.2776151 ], [ 132.1109358, 43.2778185 ], [ 132.108853399999987, 43.2780963 ], [ 132.107475, 43.2782828 ], [ 132.106969, 43.2783487 ], [ 132.1064878, 43.2783493 ], [ 132.1064581, 43.2783489 ], [ 132.1059634, 43.2783407 ], [ 132.1054662, 43.2783454 ], [ 132.1054775, 43.2786735 ], [ 132.1054782, 43.2786938 ], [ 132.1045321, 43.2788155 ], [ 132.1045273, 43.2788161 ], [ 132.1037461, 43.2789166 ], [ 132.1032588, 43.2789793 ], [ 132.102526, 43.2790736 ], [ 132.100429100000014, 43.2793408 ], [ 132.0996102, 43.2794452 ], [ 132.098091, 43.2796388 ], [ 132.0978514, 43.2796716 ], [ 132.0971945, 43.2797617 ], [ 132.097128199999986, 43.2796733 ], [ 132.0968106, 43.2793379 ], [ 132.0966517, 43.2792684 ], [ 132.09656240000001, 43.2790317 ], [ 132.096465599999988, 43.2790672 ], [ 132.096164, 43.2791781 ], [ 132.0959722, 43.2792487 ], [ 132.0959286, 43.2792647 ], [ 132.0957086, 43.2793456 ], [ 132.095632200000011, 43.2793737 ], [ 132.0955539, 43.2794025 ], [ 132.095120900000012, 43.2794982 ], [ 132.0946552, 43.2795858 ], [ 132.0929868, 43.2799155 ], [ 132.092624300000011, 43.2800246 ], [ 132.092358100000013, 43.2801361 ], [ 132.0916279, 43.2804656 ], [ 132.0916054, 43.2804446 ], [ 132.0915769, 43.280466 ], [ 132.0913878, 43.2807022 ], [ 132.0913541, 43.2807364 ], [ 132.090948700000013, 43.2811457 ], [ 132.0907769, 43.2813597 ], [ 132.0905947, 43.2816076 ], [ 132.09042740000001, 43.2817712 ], [ 132.0904346, 43.2817753 ], [ 132.090397700000011, 43.2818312 ], [ 132.0901936, 43.2820124 ], [ 132.0901441, 43.2819829 ], [ 132.0899959, 43.282121 ], [ 132.089934, 43.282089 ], [ 132.089778599999988, 43.2820097 ], [ 132.0897034, 43.2819713 ], [ 132.0896429, 43.2819476 ], [ 132.089475, 43.2820744 ], [ 132.0893964, 43.2821288 ], [ 132.0893869, 43.2821354 ], [ 132.089209899999986, 43.2822623 ], [ 132.0892605, 43.2822895 ], [ 132.0889853, 43.2824897 ], [ 132.08876, 43.2827158 ], [ 132.0886549, 43.2826926 ], [ 132.088535400000012, 43.2828298 ], [ 132.0884812, 43.2828089 ], [ 132.0884629, 43.2828048 ], [ 132.088346, 43.2829821 ], [ 132.0880837, 43.2828967 ], [ 132.088038, 43.2828848 ], [ 132.087821100000014, 43.2830296 ], [ 132.087418500000013, 43.2838217 ], [ 132.0871056, 43.2841228 ], [ 132.0870506, 43.2841357 ], [ 132.0867158, 43.2842123 ], [ 132.086123500000014, 43.2845662 ], [ 132.0850375, 43.2853081 ], [ 132.0848885, 43.285664 ], [ 132.0850027, 43.28581 ], [ 132.0847415, 43.2858719 ], [ 132.0846072, 43.2859301 ], [ 132.084572799999989, 43.2859024 ], [ 132.0845184, 43.2859383 ], [ 132.0840636, 43.2861946 ], [ 132.0841179, 43.2864389 ], [ 132.0838042, 43.2865788 ], [ 132.083806900000013, 43.2865835 ], [ 132.0838493, 43.2866512 ], [ 132.0837914, 43.2866737 ], [ 132.0837664, 43.286676 ], [ 132.083679499999988, 43.2867141 ], [ 132.0835889, 43.2867574 ], [ 132.0834671, 43.286819 ], [ 132.083403800000013, 43.2868732 ], [ 132.0832622, 43.2869318 ], [ 132.083156699999989, 43.2869747 ], [ 132.0831513, 43.2869788 ], [ 132.0830699, 43.2870146 ], [ 132.0830101, 43.287039 ], [ 132.0829891, 43.2870477 ], [ 132.0829534, 43.2870625 ], [ 132.0829401, 43.2870668 ], [ 132.0828942, 43.2870785 ], [ 132.0828841, 43.287081 ], [ 132.0828143, 43.2871071 ], [ 132.082918400000011, 43.2872809 ], [ 132.0813675, 43.2885039 ], [ 132.0766762, 43.2885113 ], [ 132.0768856, 43.2888805 ], [ 132.076706300000012, 43.2890383 ], [ 132.075819, 43.2885182 ], [ 132.0754049, 43.2888015 ], [ 132.0752603, 43.2888861 ], [ 132.0744841, 43.2888734 ], [ 132.0742721, 43.2888429 ], [ 132.0739318, 43.2885155 ], [ 132.0738054, 43.2885156 ], [ 132.073418299999986, 43.2887799 ], [ 132.0708811, 43.2880163 ], [ 132.070569299999988, 43.2878783 ], [ 132.0694344, 43.2878876 ], [ 132.0676565, 43.2882818 ], [ 132.0669547, 43.28853 ], [ 132.0606769, 43.2885343 ], [ 132.059761900000012, 43.2891521 ], [ 132.0595313, 43.2891453 ], [ 132.059384599999987, 43.2891409 ], [ 132.05927890000001, 43.2891377 ], [ 132.0592058, 43.2891459 ], [ 132.0591729, 43.2889744 ], [ 132.059053, 43.288535 ], [ 132.0567323, 43.2885335 ], [ 132.0566485, 43.2885331 ], [ 132.0560736, 43.2885312 ], [ 132.0554246, 43.2885272 ], [ 132.054605900000013, 43.2879731 ], [ 132.053626400000013, 43.2879794 ], [ 132.052988199999987, 43.2881987 ], [ 132.052781900000014, 43.2886899 ], [ 132.0530738, 43.2892845 ], [ 132.0538541, 43.2896033 ], [ 132.054565200000013, 43.2911732 ], [ 132.0525475, 43.2960749 ], [ 132.0525738, 43.2983856 ], [ 132.0549925, 43.2992417 ], [ 132.0589855, 43.3052057 ], [ 132.0613357, 43.3070225 ], [ 132.063625699999989, 43.3074813 ], [ 132.0640146, 43.3085365 ], [ 132.0634947, 43.3090662 ], [ 132.0653662, 43.3102566 ], [ 132.0651607, 43.3107227 ], [ 132.0672944, 43.3119035 ], [ 132.0681515, 43.3116875 ], [ 132.0698309, 43.3117879 ], [ 132.0706537, 43.3115409 ], [ 132.0712665, 43.311972 ], [ 132.0714561, 43.3126258 ], [ 132.0712259, 43.3138734 ], [ 132.0701517, 43.3158902 ], [ 132.068495399999989, 43.3160681 ], [ 132.067991299999989, 43.3155283 ], [ 132.067149300000011, 43.3150539 ], [ 132.0667469, 43.3149212 ], [ 132.0645752, 43.3145712 ], [ 132.0636987, 43.3147537 ], [ 132.0626524, 43.3156491 ], [ 132.0623115, 43.3159409 ], [ 132.0638419, 43.3176561 ], [ 132.0646583, 43.317728 ], [ 132.064643499999988, 43.3174334 ], [ 132.064427, 43.3171809 ], [ 132.0641384, 43.3168128 ], [ 132.0638098, 43.3164766 ], [ 132.0633794, 43.3160332 ], [ 132.0638356, 43.3156106 ], [ 132.0651225, 43.3172211 ], [ 132.0659325, 43.3179368 ], [ 132.0662747, 43.3187646 ], [ 132.066823699999986, 43.3190458 ], [ 132.068343700000014, 43.3186768 ], [ 132.070268, 43.3177166 ], [ 132.0709612, 43.3174356 ], [ 132.0711133, 43.3173793 ], [ 132.071253, 43.3173305 ], [ 132.072156299999989, 43.3169973 ], [ 132.0741231, 43.3163872 ], [ 132.0746058, 43.3161595 ], [ 132.075177599999989, 43.3160813 ], [ 132.0758917, 43.3160307 ], [ 132.076199800000012, 43.3159379 ], [ 132.076282099999986, 43.3159131 ], [ 132.076476899999989, 43.3158153 ], [ 132.076660299999986, 43.3157088 ], [ 132.07705150000001, 43.3155656 ], [ 132.0774759, 43.3153415 ], [ 132.0776093, 43.3152712 ], [ 132.0776366, 43.3152568 ], [ 132.077911, 43.315112 ], [ 132.078696900000011, 43.3149221 ], [ 132.0788341, 43.3149293 ], [ 132.0789106, 43.3151129 ], [ 132.0790097, 43.3154146 ], [ 132.0793534, 43.3154744 ], [ 132.079707899999988, 43.3153144 ], [ 132.0799773, 43.3152494 ], [ 132.0801984, 43.3152474 ], [ 132.0803693, 43.3155347 ], [ 132.0808226, 43.3154497 ], [ 132.081066099999987, 43.3153358 ], [ 132.0812219, 43.3153035 ], [ 132.0813712, 43.3153005 ], [ 132.0818007, 43.3152872 ], [ 132.0819823, 43.3152239 ], [ 132.0822016, 43.3152731 ], [ 132.0825551, 43.3153748 ], [ 132.082646, 43.3153863 ], [ 132.082748900000013, 43.3153826 ], [ 132.082805900000011, 43.3153725 ], [ 132.0828704, 43.3153582 ], [ 132.083045700000014, 43.3151657 ], [ 132.0833074, 43.3150801 ], [ 132.0834731, 43.3149662 ], [ 132.0835568, 43.3147509 ], [ 132.0836531, 43.3146711 ], [ 132.083732, 43.3143793 ], [ 132.08384190000001, 43.3142267 ], [ 132.083846200000011, 43.3142207 ], [ 132.0838536, 43.3142103 ], [ 132.084023800000011, 43.3141491 ], [ 132.0841309, 43.3140446 ], [ 132.084562799999986, 43.3138402 ], [ 132.0848829, 43.3137343 ], [ 132.085223899999988, 43.3135127 ], [ 132.0854424, 43.3133919 ], [ 132.085711800000013, 43.313323 ], [ 132.0858921, 43.3133192 ], [ 132.0861879, 43.3131663 ], [ 132.0862512, 43.3130512 ], [ 132.0865332, 43.3129193 ], [ 132.0870668, 43.3127686 ], [ 132.0873972, 43.312722 ], [ 132.0875331, 43.3126767 ], [ 132.087828, 43.3125165 ], [ 132.0882929, 43.3125352 ], [ 132.0883967, 43.3125234 ], [ 132.0884313, 43.3125195 ], [ 132.0886079, 43.3125228 ], [ 132.088719, 43.3125432 ], [ 132.088800600000013, 43.3125582 ], [ 132.0889746, 43.3126124 ], [ 132.0890076, 43.3126166 ], [ 132.0892, 43.3126521 ], [ 132.089518, 43.3125589 ], [ 132.0895509, 43.3125491 ], [ 132.0899287, 43.3126802 ], [ 132.090096499999987, 43.3126801 ], [ 132.090473800000012, 43.3125441 ], [ 132.090615899999989, 43.3123808 ], [ 132.0912592, 43.3119456 ], [ 132.091569099999987, 43.3117691 ], [ 132.0922855, 43.311507 ], [ 132.0924488, 43.3113201 ], [ 132.0926596, 43.3111901 ], [ 132.092904800000014, 43.3110976 ], [ 132.0929076, 43.3110973 ], [ 132.0931602, 43.3111323 ], [ 132.09332710000001, 43.3111207 ], [ 132.093401699999987, 43.3111153 ], [ 132.0937207, 43.3110724 ], [ 132.0940283, 43.3110685 ], [ 132.094969, 43.3111771 ], [ 132.0957735, 43.3112156 ], [ 132.0963995, 43.3111741 ], [ 132.0967527, 43.3111292 ], [ 132.0971846, 43.3109916 ], [ 132.0977571, 43.3107327 ], [ 132.0984607, 43.3104816 ], [ 132.098611799999986, 43.3104572 ], [ 132.0989625, 43.3104439 ], [ 132.0991459, 43.3103503 ], [ 132.099404600000014, 43.3100737 ], [ 132.099739699999986, 43.3096831 ], [ 132.0999324, 43.3093935 ], [ 132.1000879, 43.3092444 ], [ 132.1008449, 43.309049 ], [ 132.1010566, 43.3089629 ], [ 132.1013279, 43.3087367 ], [ 132.101577099999986, 43.3087231 ], [ 132.1018594, 43.3087656 ], [ 132.102195099999989, 43.3088803 ], [ 132.102364, 43.3088612 ], [ 132.1027578, 43.3087143 ], [ 132.102915700000011, 43.3085967 ], [ 132.103050200000013, 43.3084166 ], [ 132.1030982, 43.3082997 ], [ 132.1029907, 43.3078453 ], [ 132.1030619, 43.3076086 ], [ 132.103384, 43.3072911 ], [ 132.104032, 43.3069113 ], [ 132.104209700000013, 43.3067405 ], [ 132.104262799999987, 43.3065716 ], [ 132.1046943, 43.306273 ], [ 132.1048116, 43.3061918 ], [ 132.104897099999988, 43.3061888 ], [ 132.1051395, 43.3061803 ], [ 132.1053664, 43.306221 ], [ 132.1057989, 43.3064303 ], [ 132.1059972, 43.3064931 ], [ 132.106369, 43.3065283 ], [ 132.1066724, 43.3066711 ], [ 132.106952299999989, 43.3068657 ], [ 132.1071613, 43.3069342 ], [ 132.1078373, 43.3069558 ], [ 132.1082013, 43.306898 ], [ 132.1084937, 43.3069311 ], [ 132.108800699999989, 43.3066804 ], [ 132.1088843, 43.306257 ], [ 132.1090448, 43.3061729 ], [ 132.109199499999988, 43.3059854 ], [ 132.109385, 43.305924 ], [ 132.1095781, 43.3059238 ], [ 132.1100822, 43.3060049 ], [ 132.110379599999987, 43.3059824 ], [ 132.1106116, 43.3058925 ], [ 132.111045499999989, 43.3055527 ], [ 132.111964300000011, 43.3080578 ], [ 132.1127665, 43.3079349 ], [ 132.112932699999988, 43.3080059 ], [ 132.1131117, 43.30801 ], [ 132.1132905, 43.3079191 ], [ 132.1136675, 43.3078239 ], [ 132.113934699999987, 43.307829 ], [ 132.1142576, 43.3078788 ], [ 132.1144957, 43.3079388 ], [ 132.116863599999988, 43.3090779 ], [ 132.118637299999989, 43.3093107 ], [ 132.1205936, 43.3099749 ], [ 132.1234821, 43.3104531 ], [ 132.125501, 43.3101408 ], [ 132.1266717, 43.3099597 ], [ 132.1293924, 43.3055325 ], [ 132.1293875, 43.3055285 ], [ 132.1293803, 43.3055224 ], [ 132.129357199999987, 43.3055031 ], [ 132.1294083, 43.3054695 ], [ 132.1294231, 43.3054823 ], [ 132.129564, 43.3052531 ], [ 132.1305462, 43.3036548 ], [ 132.130769, 43.3034877 ], [ 132.1318307, 43.3035882 ], [ 132.1318578, 43.3033755 ], [ 132.1319392, 43.3027334 ], [ 132.1319528, 43.3026237 ], [ 132.1323123, 43.2997129 ], [ 132.1323907, 43.2990772 ], [ 132.1327475, 43.2961935 ], [ 132.1327889, 43.2958585 ], [ 132.133861599999989, 43.2871763 ], [ 132.133152700000011, 43.2862337 ], [ 132.1317526, 43.2843711 ], [ 132.13147330000001, 43.2840001 ], [ 132.1312924, 43.2837595 ], [ 132.1312448, 43.2836969 ], [ 132.1309173, 43.2837035 ], [ 132.1309039, 43.2834746 ], [ 132.1308955, 43.2832497 ], [ 132.1304472, 43.2822526 ], [ 132.130388900000014, 43.2822385 ], [ 132.1303791, 43.28221 ], [ 132.130054800000011, 43.2820746 ], [ 132.1299396, 43.2820424 ], [ 132.1299756, 43.2819503 ], [ 132.1298847, 43.2818375 ], [ 132.1295427, 43.2817594 ], [ 132.1296688, 43.2814684 ], [ 132.129625800000014, 43.2814009 ], [ 132.1296672, 43.2813379 ], [ 132.1292709, 43.2809973 ], [ 132.1291156, 43.2808278 ], [ 132.1287297, 43.2804155 ], [ 132.1285241, 43.2801931 ], [ 132.1284542, 43.2799874 ], [ 132.128611299999989, 43.279257 ], [ 132.1288634, 43.2791322 ], [ 132.128681699999987, 43.2789304 ], [ 132.1287077, 43.2788095 ], [ 132.128501300000011, 43.2785426 ], [ 132.128790900000013, 43.2784172 ], [ 132.1287568, 43.2783829 ], [ 132.1290378, 43.2782658 ], [ 132.1292798, 43.2781177 ], [ 132.1295512, 43.2780075 ], [ 132.129813, 43.2773571 ], [ 132.1299838, 43.2770174 ], [ 132.1299847, 43.2769437 ], [ 132.1301057, 43.2765951 ], [ 132.1302245, 43.2762457 ], [ 132.130108799999988, 43.2762231 ], [ 132.130898800000011, 43.273521 ], [ 132.1312532, 43.2723068 ] ] ] ] } },
{ "type": "Feature", "properties": { "fid": 6, "NAME": "Береговое", "NAME_EN": null, "NAME_RU": null, "INT_NAME": null, "OFFICIAL_S": null, "PLACE": "village", "A_CNTR": "RU", "A_RGN": "Приморский край", "A_DSTRCT": "Владивостокский городской округ", "A_PSTCD": null, "POPULATION": null, "OSM_TYPE": "relation", "OSM_ID": 8879947, "oktmo": "05701000126", "okato": null }, "geometry": { "type": "MultiPolygon", "coordinates": [ [ [ [ 131.7783751, 43.1794594 ], [ 131.7780634, 43.1805427 ], [ 131.7776354, 43.182127 ], [ 131.775869699999987, 43.1819606 ], [ 131.775733800000012, 43.1825961 ], [ 131.7759098, 43.183433 ], [ 131.7759498, 43.1848947 ], [ 131.7758696, 43.1853577 ], [ 131.775381, 43.1859857 ], [ 131.7750634, 43.1863112 ], [ 131.7748488, 43.1866464 ], [ 131.77481370000001, 43.1871627 ], [ 131.7746932, 43.1878411 ], [ 131.7742365, 43.1886194 ], [ 131.7728708, 43.1903628 ], [ 131.771826800000014, 43.1911679 ], [ 131.7713118, 43.191979 ], [ 131.7709226, 43.1924126 ], [ 131.7698905, 43.1930563 ], [ 131.768351700000011, 43.1941455 ], [ 131.767790600000012, 43.1948387 ], [ 131.7667667, 43.1959661 ], [ 131.76628, 43.1967231 ], [ 131.765830099999988, 43.1970497 ], [ 131.7647206, 43.1974684 ], [ 131.7641377, 43.197552 ], [ 131.7558646, 43.1925395 ], [ 131.7513076, 43.1897965 ], [ 131.750048, 43.1891629 ], [ 131.749354899999986, 43.1890079 ], [ 131.7482258, 43.1891363 ], [ 131.741968, 43.1900741 ], [ 131.734966500000013, 43.1913621 ], [ 131.7293831, 43.1922395 ], [ 131.7238281, 43.1930625 ], [ 131.7236287, 43.1934513 ], [ 131.7236222, 43.1939458 ], [ 131.7239176, 43.1949323 ], [ 131.7242611, 43.1961655 ], [ 131.7245165, 43.1973996 ], [ 131.724768399999988, 43.1984186 ], [ 131.725485099999986, 43.2008956 ], [ 131.724882900000011, 43.2009117 ], [ 131.7238519, 43.2007703 ], [ 131.7231885, 43.2006364 ], [ 131.722263199999986, 43.200666 ], [ 131.7209732, 43.2008601 ], [ 131.719684699999988, 43.2011401 ], [ 131.718048, 43.2017027 ], [ 131.7165815, 43.2018876 ], [ 131.7147412, 43.2016779 ], [ 131.7121018, 43.2011203 ], [ 131.7081029, 43.2001015 ], [ 131.706759799999986, 43.1997369 ], [ 131.7055671, 43.199586 ], [ 131.704214400000012, 43.1995331 ], [ 131.7011901, 43.1997097 ], [ 131.699829200000011, 43.2000654 ], [ 131.6993115, 43.2003324 ], [ 131.696343399999989, 43.1982656 ], [ 131.697913699999987, 43.1969858 ], [ 131.6990132, 43.195912 ], [ 131.699778900000013, 43.1950992 ], [ 131.700585600000011, 43.1940925 ], [ 131.7013767, 43.1930321 ], [ 131.7021892, 43.1923909 ], [ 131.7030514, 43.1921039 ], [ 131.7041347, 43.1918581 ], [ 131.7044396, 43.1916297 ], [ 131.7052879, 43.1904828 ], [ 131.7061899, 43.1899268 ], [ 131.707417099999986, 43.1894969 ], [ 131.7083566, 43.1885427 ], [ 131.7105435, 43.1856857 ], [ 131.711986200000013, 43.1831576 ], [ 131.712322, 43.1821226 ], [ 131.7121651, 43.1815112 ], [ 131.7116456, 43.1811825 ], [ 131.7114767, 43.1807324 ], [ 131.7116471, 43.1803654 ], [ 131.7119538, 43.1802552 ], [ 131.712727300000012, 43.1799475 ], [ 131.71347080000001, 43.179597 ], [ 131.713846600000011, 43.1792175 ], [ 131.7143101, 43.1779126 ], [ 131.714484, 43.1768683 ], [ 131.7152395, 43.1754535 ], [ 131.7163327, 43.1740356 ], [ 131.7168756, 43.1730956 ], [ 131.7173958, 43.172575 ], [ 131.718928, 43.1719596 ], [ 131.71973220000001, 43.1717375 ], [ 131.720019799999989, 43.1713588 ], [ 131.7201154, 43.1709172 ], [ 131.7204145, 43.1703448 ], [ 131.720878199999987, 43.1699644 ], [ 131.721521599999988, 43.1697868 ], [ 131.7220046, 43.1696858 ], [ 131.7230687, 43.1683004 ], [ 131.723650099999986, 43.168822 ], [ 131.7243339, 43.168429 ], [ 131.7250158, 43.1679177 ], [ 131.7265844, 43.1659581 ], [ 131.726994, 43.1649654 ], [ 131.7271287, 43.1642332 ], [ 131.7267086, 43.1636887 ], [ 131.7263163, 43.1630579 ], [ 131.72648190000001, 43.1624114 ], [ 131.727002, 43.1618908 ], [ 131.7278015, 43.1613892 ], [ 131.7284157, 43.1612332 ], [ 131.730396, 43.1610975 ], [ 131.7327843, 43.1607753 ], [ 131.7343042, 43.1603318 ], [ 131.7353534, 43.1598387 ], [ 131.735978100000011, 43.1594353 ], [ 131.7365049, 43.1593231 ], [ 131.7378733, 43.1594829 ], [ 131.7386294, 43.159917 ], [ 131.738827, 43.160313 ], [ 131.7388316, 43.1605924 ], [ 131.7403689, 43.1611915 ], [ 131.7424224, 43.1619256 ], [ 131.7434247, 43.1621424 ], [ 131.7447037, 43.1622276 ], [ 131.745938, 43.1622703 ], [ 131.7467639, 43.1624779 ], [ 131.7471203, 43.1627112 ], [ 131.7478918, 43.1631772 ], [ 131.7478443, 43.1638442 ], [ 131.7476048, 43.1644484 ], [ 131.7473622, 43.1648698 ], [ 131.7473368, 43.1651065 ], [ 131.7478271, 43.1654461 ], [ 131.7479957, 43.1658639 ], [ 131.74877, 43.1664912 ], [ 131.749100199999987, 43.167789 ], [ 131.7490551, 43.1685957 ], [ 131.7493743, 43.1692378 ], [ 131.749594, 43.1700744 ], [ 131.7498225, 43.1705561 ], [ 131.7501229, 43.1709511 ], [ 131.750247300000012, 43.1713585 ], [ 131.750456500000013, 43.1715716 ], [ 131.7503932, 43.1721742 ], [ 131.7508109, 43.1725575 ], [ 131.751687, 43.1731193 ], [ 131.753592200000014, 43.1737363 ], [ 131.755160600000011, 43.1744101 ], [ 131.7580058, 43.1750185 ], [ 131.7595095, 43.1753381 ], [ 131.7612005, 43.1754409 ], [ 131.7633256, 43.1760235 ], [ 131.7655181, 43.1762507 ], [ 131.767694, 43.1763598 ], [ 131.7690459, 43.1763903 ], [ 131.770722400000011, 43.1765039 ], [ 131.7714018, 43.1767234 ], [ 131.772496600000011, 43.1771756 ], [ 131.7746206, 43.1776827 ], [ 131.7758632, 43.1781873 ], [ 131.777538099999987, 43.1790533 ], [ 131.7783751, 43.1794594 ] ] ] ] } },
{ "type": "Feature", "properties": { "fid": 7, "NAME": "Русский", "NAME_EN": null, "NAME_RU": null, "INT_NAME": null, "OFFICIAL_S": null, "PLACE": "village", "A_CNTR": null, "A_RGN": null, "A_DSTRCT": null, "A_PSTCD": null, "POPULATION": null, "OSM_TYPE": "relation", "OSM_ID": 14132461, "oktmo": "05701000111", "okato": null }, "geometry": { "type": "MultiPolygon", "coordinates": [ [ [ [ 131.851335400000011, 42.9739605 ], [ 131.851123300000012, 42.9738199 ], [ 131.849525199999988, 42.9727599 ], [ 131.848993799999988, 42.9724074 ], [ 131.8494111, 42.9725645 ], [ 131.849967099999986, 42.9728131 ], [ 131.850670400000013, 42.9732281 ], [ 131.8511162, 42.9735335 ], [ 131.8513079, 42.9737687 ], [ 131.851335400000011, 42.9739605 ] ] ], [ [ [ 131.834736600000014, 43.0586535 ], [ 131.835765400000014, 43.0575896 ], [ 131.843991499999987, 43.0580548 ], [ 131.8462112, 43.0581804 ], [ 131.847378099999986, 43.0567588 ], [ 131.846192699999989, 43.0539938 ], [ 131.8475086, 43.0534652 ], [ 131.8545135, 43.0547283 ], [ 131.856867, 43.0489906 ], [ 131.8626111, 43.0472835 ], [ 131.8632628, 43.0463675 ], [ 131.8655685, 43.0458412 ], [ 131.8663329, 43.0436344 ], [ 131.8725786, 43.0417562 ], [ 131.8764292, 43.0410431 ], [ 131.8761199, 43.0397835 ], [ 131.874349099999989, 43.0397365 ], [ 131.8703645, 43.0406265 ], [ 131.864711699999987, 43.0393225 ], [ 131.863334, 43.0384238 ], [ 131.864564300000012, 43.0371232 ], [ 131.8642702, 43.0332291 ], [ 131.8682227, 43.0306554 ], [ 131.8674518, 43.0297755 ], [ 131.8670085, 43.0263566 ], [ 131.867163, 43.0259049 ], [ 131.86792410000001, 43.0257033 ], [ 131.8704562, 43.026995 ], [ 131.8711653, 43.0277708 ], [ 131.8718295, 43.0278216 ], [ 131.87226050000001, 43.0276695 ], [ 131.871784600000012, 43.0263451 ], [ 131.8720214, 43.0256946 ], [ 131.873266199999989, 43.0249972 ], [ 131.8740721, 43.0247573 ], [ 131.87533830000001, 43.0249537 ], [ 131.875520200000011, 43.0246659 ], [ 131.8751524, 43.0222639 ], [ 131.87754240000001, 43.0203277 ], [ 131.877836800000011, 43.0183378 ], [ 131.8799787, 43.0163414 ], [ 131.881944299999986, 43.0164494 ], [ 131.8827368, 43.0180992 ], [ 131.8852695, 43.0184036 ], [ 131.886436800000013, 43.0179064 ], [ 131.8876553, 43.0167906 ], [ 131.8875208, 43.016342 ], [ 131.8856171, 43.0152214 ], [ 131.8844889, 43.0140949 ], [ 131.8841601, 43.0128265 ], [ 131.8874446, 43.0120754 ], [ 131.888047300000011, 43.010214 ], [ 131.88729810000001, 43.0091535 ], [ 131.8886425, 43.0068991 ], [ 131.8965532, 43.0096382 ], [ 131.897696, 43.0085114 ], [ 131.8970932, 43.0075477 ], [ 131.895572, 43.0067169 ], [ 131.8934286, 43.0066495 ], [ 131.8923738, 43.0063277 ], [ 131.890516, 43.0054718 ], [ 131.889839, 43.0048566 ], [ 131.8898472, 43.0040738 ], [ 131.890817199999987, 43.0033851 ], [ 131.8942873, 43.0048893 ], [ 131.895267600000011, 43.0042695 ], [ 131.895415500000013, 43.0036677 ], [ 131.893494800000013, 43.0027008 ], [ 131.8923618, 43.0016173 ], [ 131.892226, 43.0002353 ], [ 131.8943696, 42.9959132 ], [ 131.8971827, 42.9946314 ], [ 131.9000665, 42.9960952 ], [ 131.9016479, 42.9955159 ], [ 131.9021742, 42.9948898 ], [ 131.9000053, 42.9932842 ], [ 131.898226, 42.9925691 ], [ 131.8976154, 42.9912522 ], [ 131.8996785, 42.9902062 ], [ 131.8995287, 42.9888442 ], [ 131.9015906, 42.9875015 ], [ 131.9000624, 42.9847842 ], [ 131.898534399999988, 42.98404 ], [ 131.8955497, 42.9834732 ], [ 131.8948823, 42.9886077 ], [ 131.893342499999989, 42.9920984 ], [ 131.8937454, 42.9926021 ], [ 131.888711, 42.9985997 ], [ 131.8837691, 42.9953538 ], [ 131.8826259, 42.9973029 ], [ 131.8845392, 43.0022057 ], [ 131.883688799999987, 43.001946 ], [ 131.8754317, 42.9994242 ], [ 131.874954800000012, 42.9992785 ], [ 131.8716846, 42.9982794 ], [ 131.8451387, 43.0178295 ], [ 131.8425851, 43.0156799 ], [ 131.832078700000011, 43.0230849 ], [ 131.828094, 43.0242617 ], [ 131.834563300000013, 43.0078891 ], [ 131.8276016, 43.0061955 ], [ 131.828835700000013, 43.0047305 ], [ 131.8282293, 43.0022542 ], [ 131.8228111, 43.0005635 ], [ 131.8229933, 43.0004045 ], [ 131.822300500000011, 43.0000813 ], [ 131.821301, 42.9998057 ], [ 131.820727799999986, 43.0003303 ], [ 131.8207113, 43.0003492 ], [ 131.8198921, 43.0011187 ], [ 131.8200824, 43.0012224 ], [ 131.8224012, 43.0031454 ], [ 131.8211533, 43.0046264 ], [ 131.8104468, 43.0020202 ], [ 131.810451699999987, 43.0004258 ], [ 131.80913240000001, 43.0003705 ], [ 131.808109300000012, 43.0009835 ], [ 131.8079294, 43.0010879 ], [ 131.8076441, 43.0011163 ], [ 131.80727250000001, 43.0011667 ], [ 131.8070126, 43.0011645 ], [ 131.8064015, 43.0011241 ], [ 131.80607280000001, 43.0010552 ], [ 131.8057623, 43.0010672 ], [ 131.8051731, 43.0014041 ], [ 131.805108600000011, 43.001564 ], [ 131.805133, 43.001746 ], [ 131.8052376, 43.0022604 ], [ 131.805241099999989, 43.002498 ], [ 131.8052408, 43.0025692 ], [ 131.8051034, 43.0028657 ], [ 131.8037586, 43.0038451 ], [ 131.8033457, 43.0039648 ], [ 131.8025888, 43.0041279 ], [ 131.802288, 43.0042682 ], [ 131.801753100000013, 43.0044963 ], [ 131.8014408, 43.0045705 ], [ 131.8012536, 43.0046053 ], [ 131.800409300000013, 43.0046943 ], [ 131.7999332, 43.004727 ], [ 131.7992695, 43.0048004 ], [ 131.7988858, 43.0048355 ], [ 131.7985932, 43.004856 ], [ 131.7980835, 43.0048746 ], [ 131.7980851, 43.0049298 ], [ 131.796969100000013, 43.0050012 ], [ 131.796277800000013, 43.0061409 ], [ 131.7960385, 43.0065353 ], [ 131.7951022, 43.0068096 ], [ 131.793093699999986, 43.007398 ], [ 131.7953037, 43.0091646 ], [ 131.795587500000011, 43.0094211 ], [ 131.79592310000001, 43.0099058 ], [ 131.7962278, 43.0107768 ], [ 131.7959775, 43.0113642 ], [ 131.7957, 43.0116788 ], [ 131.794126799999987, 43.0133059 ], [ 131.7941368, 43.0137671 ], [ 131.794582600000012, 43.0142557 ], [ 131.795938299999989, 43.0157612 ], [ 131.79661680000001, 43.0165265 ], [ 131.7971954, 43.0172001 ], [ 131.7977138, 43.0181596 ], [ 131.7981651, 43.0190163 ], [ 131.7984145, 43.0192364 ], [ 131.798448900000011, 43.0192667 ], [ 131.7988234, 43.0194424 ], [ 131.799716, 43.0197084 ], [ 131.8012817, 43.0199992 ], [ 131.801817199999988, 43.0200986 ], [ 131.8023485, 43.0201973 ], [ 131.8025992, 43.0203372 ], [ 131.8036123, 43.0209027 ], [ 131.8103064, 43.0209225 ], [ 131.8104389, 43.0231972 ], [ 131.8112578, 43.0231537 ], [ 131.8119362, 43.0231535 ], [ 131.812780299999986, 43.0232949 ], [ 131.8135054, 43.023504 ], [ 131.814085, 43.0238108 ], [ 131.8156232, 43.0239328 ], [ 131.8170534, 43.0236427 ], [ 131.8180757, 43.0242072 ], [ 131.8204321, 43.0237288 ], [ 131.8215438, 43.0252881 ], [ 131.8184756, 43.0276827 ], [ 131.817468, 43.028034 ], [ 131.816242100000011, 43.0283158 ], [ 131.815682, 43.0294773 ], [ 131.8140316, 43.0332871 ], [ 131.8164856, 43.0332911 ], [ 131.81676, 43.0356262 ], [ 131.816838499999989, 43.0380414 ], [ 131.816462199999989, 43.0411673 ], [ 131.8214586, 43.041333 ], [ 131.8266261, 43.0411531 ], [ 131.8283309, 43.0380904 ], [ 131.8352961, 43.0407296 ], [ 131.8342164, 43.0433588 ], [ 131.8341284, 43.0435731 ], [ 131.8318277, 43.0455306 ], [ 131.8299916, 43.045907 ], [ 131.8279494, 43.0489076 ], [ 131.8249863, 43.0487227 ], [ 131.8222572, 43.0475434 ], [ 131.8189116, 43.0467223 ], [ 131.81529, 43.0467756 ], [ 131.8121456, 43.0492676 ], [ 131.8116521, 43.0531258 ], [ 131.8111759, 43.0568489 ], [ 131.8095808, 43.0567826 ], [ 131.7998771, 43.0563797 ], [ 131.7995955, 43.0513981 ], [ 131.804204199999987, 43.0505639 ], [ 131.8046338, 43.0511308 ], [ 131.805959699999988, 43.0508756 ], [ 131.8065393, 43.0504049 ], [ 131.806655, 43.0497363 ], [ 131.806310599999989, 43.0492535 ], [ 131.8072717, 43.0469043 ], [ 131.8086716, 43.0451674 ], [ 131.8084868, 43.0447673 ], [ 131.8101322, 43.0434944 ], [ 131.8084814, 43.041306 ], [ 131.8084266, 43.0404548 ], [ 131.8062631, 43.0388931 ], [ 131.8061262, 43.0367631 ], [ 131.8036332, 43.0347239 ], [ 131.8021033, 43.0341504 ], [ 131.7995775, 43.0326741 ], [ 131.7990287, 43.0323534 ], [ 131.7984918, 43.0320396 ], [ 131.7997067, 43.0308388 ], [ 131.7985382, 43.028755 ], [ 131.798694, 43.0279465 ], [ 131.7994285, 43.0273839 ], [ 131.7992419, 43.0268307 ], [ 131.7983902, 43.0261711 ], [ 131.7995426, 43.0253032 ], [ 131.8003642, 43.0258938 ], [ 131.80204, 43.0261685 ], [ 131.80298160000001, 43.0256454 ], [ 131.8030857, 43.0245993 ], [ 131.8039919, 43.0246007 ], [ 131.8042093, 43.0244146 ], [ 131.8040456, 43.0233261 ], [ 131.8030593, 43.0220731 ], [ 131.8015896, 43.0211703 ], [ 131.8018494, 43.0207897 ], [ 131.7999136, 43.0200525 ], [ 131.7983457, 43.019654 ], [ 131.797872500000011, 43.0194238 ], [ 131.7976662, 43.0190988 ], [ 131.7972564, 43.0181768 ], [ 131.79701080000001, 43.01773 ], [ 131.796633, 43.0171073 ], [ 131.7956165, 43.017656 ], [ 131.794900500000011, 43.0168587 ], [ 131.7947552, 43.0166968 ], [ 131.794581, 43.0154771 ], [ 131.794818099999986, 43.0151603 ], [ 131.7942117, 43.0144964 ], [ 131.7937478, 43.0139584 ], [ 131.7934866, 43.0135728 ], [ 131.7921451, 43.0135482 ], [ 131.7904116, 43.013523 ], [ 131.7897932, 43.0136436 ], [ 131.789128799999986, 43.0139409 ], [ 131.7884041, 43.0142825 ], [ 131.7872136, 43.0141808 ], [ 131.7854364, 43.013735 ], [ 131.784668399999987, 43.0134902 ], [ 131.7830126, 43.0128233 ], [ 131.781703099999987, 43.0122677 ], [ 131.781146400000011, 43.0120012 ], [ 131.7743625, 43.0106685 ], [ 131.77481, 43.0125858 ], [ 131.7748589, 43.012795 ], [ 131.774830900000012, 43.0129357 ], [ 131.7746184, 43.0140032 ], [ 131.774614500000013, 43.0140069 ], [ 131.7744028, 43.0140415 ], [ 131.773775199999989, 43.0141528 ], [ 131.7736654, 43.013749 ], [ 131.7737162, 43.0133211 ], [ 131.7740327, 43.0126731 ], [ 131.773673300000013, 43.0120707 ], [ 131.772794800000014, 43.0112636 ], [ 131.772761, 43.0094387 ], [ 131.7742614, 43.0072464 ], [ 131.7774023, 43.0048141 ], [ 131.77955750000001, 43.0038323 ], [ 131.7803496, 43.0024575 ], [ 131.781551, 43.0018917 ], [ 131.782216799999986, 43.0024222 ], [ 131.7826895, 43.0033459 ], [ 131.781511, 43.004083 ], [ 131.7801255, 43.0049497 ], [ 131.781140099999988, 43.0069903 ], [ 131.7846492, 43.0085024 ], [ 131.7861542, 43.0087053 ], [ 131.7890945, 43.0081244 ], [ 131.7892953, 43.0077595 ], [ 131.7881281, 43.0058401 ], [ 131.7904834, 43.00462 ], [ 131.7905504, 43.0037515 ], [ 131.7893951, 43.0017472 ], [ 131.7873185, 43.0000206 ], [ 131.7876932, 42.9992205 ], [ 131.7908337, 42.9987079 ], [ 131.7919679, 42.9999139 ], [ 131.792241499999989, 43.0012861 ], [ 131.794098600000012, 43.0023171 ], [ 131.796649300000013, 43.0022887 ], [ 131.797117500000013, 43.0034068 ], [ 131.798056, 43.0039288 ], [ 131.7980684, 43.0043524 ], [ 131.798077400000011, 43.0046621 ], [ 131.798079800000011, 43.0047432 ], [ 131.798451, 43.0047439 ], [ 131.7987264, 43.0047444 ], [ 131.7989762, 43.0047104 ], [ 131.799932, 43.0046185 ], [ 131.8007577, 43.0045429 ], [ 131.8010706, 43.0045183 ], [ 131.801352, 43.0044847 ], [ 131.8017256, 43.0043856 ], [ 131.80255360000001, 43.0040112 ], [ 131.802847, 43.0039177 ], [ 131.8031133, 43.0038801 ], [ 131.8034403, 43.0038217 ], [ 131.8037133, 43.0037151 ], [ 131.804009799999989, 43.0035102 ], [ 131.8044547, 43.003159 ], [ 131.8048222, 43.0028791 ], [ 131.8049947, 43.0026928 ], [ 131.8050661, 43.0025243 ], [ 131.805051, 43.0022592 ], [ 131.8049268, 43.0016344 ], [ 131.804969199999988, 43.0014279 ], [ 131.80524, 43.0011957 ], [ 131.8057076, 43.0009787 ], [ 131.8059983, 43.0009478 ], [ 131.806218699999988, 43.0009601 ], [ 131.8067088, 43.001048 ], [ 131.8070549, 43.0010367 ], [ 131.8072783, 43.0010371 ], [ 131.8075579, 43.0009901 ], [ 131.807871, 43.0009132 ], [ 131.8084601, 43.0006129 ], [ 131.8088784, 43.0003599 ], [ 131.8023361, 43.0000855 ], [ 131.8016198, 43.0000553 ], [ 131.801099, 42.9991154 ], [ 131.801357599999989, 42.9966831 ], [ 131.8000653, 42.9945715 ], [ 131.7970041, 42.9925557 ], [ 131.7922652, 42.9915238 ], [ 131.785654, 42.9921576 ], [ 131.7856502, 42.9917043 ], [ 131.7856332, 42.9896253 ], [ 131.7856308, 42.989348 ], [ 131.785605, 42.9862099 ], [ 131.7915429, 42.9861911 ], [ 131.8107834, 42.977844 ], [ 131.8133018, 42.9859964 ], [ 131.818403600000011, 42.9858637 ], [ 131.8184043, 42.9858624 ], [ 131.818604, 42.9854979 ], [ 131.8187983, 42.985151 ], [ 131.8187914, 42.9850236 ], [ 131.818683099999987, 42.9848397 ], [ 131.818490700000012, 42.9845549 ], [ 131.817997600000012, 42.9840667 ], [ 131.8179456, 42.9839174 ], [ 131.817934, 42.983481 ], [ 131.8179656, 42.9832845 ], [ 131.8180513, 42.9830974 ], [ 131.8182395, 42.982933 ], [ 131.8187515, 42.9826048 ], [ 131.819032, 42.9825269 ], [ 131.8196432, 42.9825433 ], [ 131.8201914, 42.9825869 ], [ 131.820497499999988, 42.9825811 ], [ 131.8206519, 42.9825538 ], [ 131.820761, 42.9824959 ], [ 131.821079, 42.9822731 ], [ 131.8216553, 42.9817668 ], [ 131.8221867, 42.9813265 ], [ 131.82253, 42.9810222 ], [ 131.8233888, 42.9806029 ], [ 131.8235345, 42.980491 ], [ 131.823677, 42.9802512 ], [ 131.8237925, 42.9799683 ], [ 131.823975100000013, 42.9795708 ], [ 131.8242742, 42.9792746 ], [ 131.8247764, 42.9790418 ], [ 131.825136, 42.9788598 ], [ 131.8252717, 42.9786678 ], [ 131.825624299999987, 42.9779687 ], [ 131.8260421, 42.9772688 ], [ 131.8267638, 42.9767497 ], [ 131.827509099999986, 42.9762965 ], [ 131.8282227, 42.9761674 ], [ 131.8293123, 42.9759394 ], [ 131.830491, 42.9756703 ], [ 131.831735900000012, 42.9755129 ], [ 131.832454500000011, 42.9753962 ], [ 131.832945200000012, 42.9753192 ], [ 131.833312299999989, 42.9752302 ], [ 131.8337573, 42.975096 ], [ 131.8342983, 42.9748374 ], [ 131.8352664, 42.9743026 ], [ 131.8360635, 42.9738098 ], [ 131.837318900000014, 42.9731406 ], [ 131.8378607, 42.9726667 ], [ 131.8382092, 42.9722961 ], [ 131.838671799999986, 42.9720378 ], [ 131.839170700000011, 42.9718237 ], [ 131.839631700000012, 42.9716619 ], [ 131.8400622, 42.9714558 ], [ 131.840962100000013, 42.9710113 ], [ 131.8415499, 42.9707211 ], [ 131.842078500000014, 42.9704062 ], [ 131.843015900000012, 42.9700317 ], [ 131.843482099999989, 42.9700004 ], [ 131.8431177, 42.9702005 ], [ 131.842052700000011, 42.9707854 ], [ 131.8400637, 42.9717083 ], [ 131.8392141, 42.9720253 ], [ 131.8385485, 42.9723863 ], [ 131.8376448, 42.9731535 ], [ 131.837169, 42.9734937 ], [ 131.836354199999988, 42.973902 ], [ 131.835159299999987, 42.9745261 ], [ 131.833951, 42.975229 ], [ 131.8327578, 42.9756214 ], [ 131.831076200000012, 42.9757695 ], [ 131.8300442, 42.9759574 ], [ 131.829427399999986, 42.9760805 ], [ 131.8284658, 42.9763555 ], [ 131.8275607, 42.9765339 ], [ 131.827036099999987, 42.9767928 ], [ 131.826404, 42.9772335 ], [ 131.8260756, 42.9775974 ], [ 131.825319799999988, 42.9788746 ], [ 131.8251766, 42.9789819 ], [ 131.8245372, 42.9792865 ], [ 131.8242425, 42.9794695 ], [ 131.8238594, 42.9804189 ], [ 131.823756300000014, 42.9805298 ], [ 131.8228033, 42.9810485 ], [ 131.821156699999989, 42.9823776 ], [ 131.820955, 42.9825362 ], [ 131.82073, 42.982669 ], [ 131.8204895, 42.9827149 ], [ 131.8202873, 42.9827087 ], [ 131.8196035, 42.9826806 ], [ 131.8190544, 42.9826456 ], [ 131.818851099999989, 42.9827053 ], [ 131.818431, 42.9829626 ], [ 131.8182115, 42.9831872 ], [ 131.8181262, 42.9834768 ], [ 131.8181325, 42.9839394 ], [ 131.8182205, 42.9841216 ], [ 131.818639, 42.9844921 ], [ 131.8188787, 42.9847738 ], [ 131.818963200000013, 42.9849828 ], [ 131.8189865, 42.9851408 ], [ 131.8189471, 42.9852859 ], [ 131.81856590000001, 42.9858583 ], [ 131.8185651, 42.9858595 ], [ 131.8540324, 42.9849309 ], [ 131.854028699999986, 42.9849296 ], [ 131.853417900000011, 42.9847285 ], [ 131.853188499999987, 42.984519 ], [ 131.8529091, 42.9841913 ], [ 131.8525957, 42.9836333 ], [ 131.85259640000001, 42.9833698 ], [ 131.8521017, 42.9823837 ], [ 131.8519182, 42.9820413 ], [ 131.851919, 42.9816918 ], [ 131.8520475, 42.9814681 ], [ 131.852286, 42.981166 ], [ 131.8525986, 42.9807697 ], [ 131.8527666, 42.9800534 ], [ 131.852679, 42.9797935 ], [ 131.851875299999989, 42.9786335 ], [ 131.851665200000014, 42.9783598 ], [ 131.851508700000011, 42.978078 ], [ 131.8513666, 42.9778992 ], [ 131.8512527, 42.9778103 ], [ 131.8510986, 42.9777438 ], [ 131.8508816, 42.9776826 ], [ 131.850707199999988, 42.9776345 ], [ 131.8505269, 42.9775382 ], [ 131.8504083, 42.9774316 ], [ 131.850308500000011, 42.9773448 ], [ 131.850208900000013, 42.9772581 ], [ 131.850076300000012, 42.9771414 ], [ 131.849997699999989, 42.9770727 ], [ 131.8499493, 42.9770067 ], [ 131.8504493, 42.9774006 ], [ 131.8505376, 42.9773288 ], [ 131.850779, 42.9774855 ], [ 131.8510827, 42.9775721 ], [ 131.8515337, 42.9777976 ], [ 131.8519024, 42.9783211 ], [ 131.8523443, 42.9788655 ], [ 131.8529001, 42.9797039 ], [ 131.8530293, 42.9801396 ], [ 131.852905, 42.9807403 ], [ 131.8527259, 42.981093 ], [ 131.852431700000011, 42.9814551 ], [ 131.8522482, 42.9817501 ], [ 131.852246, 42.9820375 ], [ 131.8527632, 42.9829942 ], [ 131.8528337, 42.9832547 ], [ 131.852857199999988, 42.9835577 ], [ 131.853088899999989, 42.9840562 ], [ 131.853537100000011, 42.9846189 ], [ 131.8542673, 42.9849234 ], [ 131.8542708, 42.9849247 ], [ 131.862748399999987, 42.9847011 ], [ 131.863493299999988, 42.9837987 ], [ 131.863462700000014, 42.9835575 ], [ 131.8635568, 42.9832858 ], [ 131.86364420000001, 42.9831652 ], [ 131.8639377, 42.982892 ], [ 131.8640857, 42.9828136 ], [ 131.8642136, 42.9827706 ], [ 131.8643573, 42.9827519 ], [ 131.8780817, 42.966119 ], [ 131.8819918, 42.9661597 ], [ 131.8827517, 42.9661676 ], [ 131.884144099999986, 42.966182 ], [ 131.884994299999988, 42.9661908 ], [ 131.8865491, 42.9657827 ], [ 131.8881498, 42.9592409 ], [ 131.8936019, 42.9597925 ], [ 131.8942003, 42.9614899 ], [ 131.8956211, 42.9615646 ], [ 131.8968015, 42.9620123 ], [ 131.897124, 42.9626574 ], [ 131.9005728, 42.9637135 ], [ 131.901999100000012, 42.962984 ], [ 131.903201, 42.9604735 ], [ 131.9030869, 42.9594075 ], [ 131.904227, 42.9581716 ], [ 131.9063361, 42.9573143 ], [ 131.9070075, 42.9573524 ], [ 131.90824520000001, 42.9580293 ], [ 131.9083515, 42.9599424 ], [ 131.9064481, 42.9637835 ], [ 131.903041, 42.9660544 ], [ 131.9034364, 42.9665507 ], [ 131.9052469, 42.9670967 ], [ 131.90698470000001, 42.9687015 ], [ 131.908363, 42.9724888 ], [ 131.915730700000012, 42.9759346 ], [ 131.9193919, 42.9784465 ], [ 131.921150899999986, 42.9799701 ], [ 131.923886, 42.9827581 ], [ 131.926323, 42.9881028 ], [ 131.929702099999986, 42.9906054 ], [ 131.9321802, 42.9917725 ], [ 131.9349896, 42.9955808 ], [ 131.9354428, 42.9991091 ], [ 131.931887, 43.0006747 ], [ 131.9296256, 42.9977837 ], [ 131.9273025, 42.9977695 ], [ 131.9261653, 42.9990566 ], [ 131.928952, 43.000957 ], [ 131.9287752, 43.0018078 ], [ 131.926260899999988, 43.0033341 ], [ 131.932322199999987, 43.0104643 ], [ 131.9364003, 43.0165106 ], [ 131.9385249, 43.0185021 ], [ 131.9378404, 43.0214805 ], [ 131.930718899999988, 43.0261849 ], [ 131.9257398, 43.0234775 ], [ 131.9271755, 43.0168568 ], [ 131.9225027, 43.0098242 ], [ 131.919495500000011, 43.0079341 ], [ 131.915780399999989, 43.0080688 ], [ 131.9122755, 43.0091568 ], [ 131.913736300000011, 43.0127613 ], [ 131.9142079, 43.0157094 ], [ 131.910861, 43.0203083 ], [ 131.911530699999986, 43.0221313 ], [ 131.907060300000012, 43.0231818 ], [ 131.906781599999988, 43.0244503 ], [ 131.9104879, 43.0265815 ], [ 131.9129268, 43.0263322 ], [ 131.9143363, 43.0296918 ], [ 131.916161499999987, 43.0299571 ], [ 131.9159899, 43.0312709 ], [ 131.9028031, 43.0322475 ], [ 131.9004133, 43.0293994 ], [ 131.8999145, 43.0293863 ], [ 131.894020500000011, 43.032652 ], [ 131.89488320000001, 43.0374731 ], [ 131.8928157, 43.0375654 ], [ 131.8918667, 43.0385164 ], [ 131.8926927, 43.0427402 ], [ 131.8974627, 43.0448763 ], [ 131.899818, 43.0485492 ], [ 131.8987392, 43.0518616 ], [ 131.899698699999988, 43.0538145 ], [ 131.9031735, 43.0572878 ], [ 131.902791799999989, 43.0585066 ], [ 131.904166800000013, 43.0594061 ], [ 131.9043422, 43.0599324 ], [ 131.9029639, 43.0610876 ], [ 131.9022034, 43.061091 ], [ 131.901497299999988, 43.060628 ], [ 131.901501599999989, 43.0600399 ], [ 131.900303, 43.0593347 ], [ 131.8937273, 43.0615221 ], [ 131.8928431, 43.0637813 ], [ 131.8823348, 43.0618662 ], [ 131.8810286, 43.0613005 ], [ 131.8789271, 43.0603905 ], [ 131.8785369, 43.0606332 ], [ 131.8771123, 43.0602751 ], [ 131.8745343, 43.0603429 ], [ 131.865649, 43.0628917 ], [ 131.8533986, 43.061755 ], [ 131.848893, 43.0613369 ], [ 131.8463787, 43.0611036 ], [ 131.841925, 43.0636077 ], [ 131.8422113, 43.0681005 ], [ 131.8366782, 43.0681402 ], [ 131.8312412, 43.0681793 ], [ 131.828261199999986, 43.0697373 ], [ 131.823045900000011, 43.0671595 ], [ 131.8229623, 43.0632757 ], [ 131.8228819, 43.0595465 ], [ 131.826753, 43.0573476 ], [ 131.828468, 43.0586673 ], [ 131.8305856, 43.0582251 ], [ 131.8336261, 43.0598017 ], [ 131.834736600000014, 43.0586535 ] ] ], [ [ [ 131.8820466, 43.0060631 ], [ 131.882084600000013, 43.0071211 ], [ 131.8821091, 43.0078027 ], [ 131.880981, 43.0083835 ], [ 131.879293499999989, 43.0092523 ], [ 131.8775804, 43.0101341 ], [ 131.8773234, 43.0128685 ], [ 131.872729600000014, 43.0160059 ], [ 131.8743455, 43.0191404 ], [ 131.87251, 43.0206786 ], [ 131.868683299999987, 43.0220802 ], [ 131.8664991, 43.0212799 ], [ 131.8636535, 43.0244606 ], [ 131.863193700000011, 43.0268877 ], [ 131.8649306, 43.0286487 ], [ 131.8604967, 43.0311753 ], [ 131.8584007, 43.0369292 ], [ 131.8604523, 43.0375044 ], [ 131.8608604, 43.0397028 ], [ 131.8527678, 43.0425256 ], [ 131.8519403, 43.0410814 ], [ 131.8518743, 43.0409668 ], [ 131.8480942, 43.0347064 ], [ 131.8516912, 43.0285828 ], [ 131.8627462, 43.0097543 ], [ 131.8635007, 43.0086513 ], [ 131.867473600000011, 43.0043026 ], [ 131.8698717, 43.0050418 ], [ 131.870100900000011, 43.0050465 ], [ 131.8746274, 43.0052441 ], [ 131.876765400000011, 43.0051703 ], [ 131.8779606, 43.0053724 ], [ 131.8820466, 43.0060631 ] ] ], [ [ [ 131.7507635, 42.9903752 ], [ 131.751605, 42.9894795 ], [ 131.753703800000011, 42.9902814 ], [ 131.756925700000011, 42.9915122 ], [ 131.754737, 42.9948068 ], [ 131.749583699999988, 42.9963226 ], [ 131.7488536, 42.9965374 ], [ 131.7499574, 42.9935374 ], [ 131.7523711, 42.9931545 ], [ 131.7525346, 42.9918264 ], [ 131.751869199999987, 42.9912812 ], [ 131.7507635, 42.9903752 ] ] ] ] } },
{ "type": "Feature", "properties": { "fid": 10, "NAME": "Попова", "NAME_EN": null, "NAME_RU": null, "INT_NAME": null, "OFFICIAL_S": "ru:посёлок", "PLACE": "village", "A_CNTR": "RU", "A_RGN": "Приморский край", "A_DSTRCT": "Владивостокский городской округ", "A_PSTCD": null, "POPULATION": null, "OSM_TYPE": "relation", "OSM_ID": 14133807, "oktmo": "05701000106", "okato": null }, "geometry": { "type": "MultiPolygon", "coordinates": [ [ [ [ 131.734566, 42.9864717 ], [ 131.7349222, 42.984985 ], [ 131.7357893, 42.9842892 ], [ 131.7371863, 42.9837607 ], [ 131.7392007, 42.9833772 ], [ 131.740368, 42.9831303 ], [ 131.7417989, 42.982881 ], [ 131.7422884, 42.9823821 ], [ 131.7422788, 42.9818016 ], [ 131.742266300000011, 42.9810492 ], [ 131.742257, 42.9804902 ], [ 131.7428008, 42.9797328 ], [ 131.743316, 42.9790186 ], [ 131.7437713, 42.978219 ], [ 131.744196499999987, 42.9773766 ], [ 131.744799199999989, 42.9766402 ], [ 131.7451376, 42.9758631 ], [ 131.7452372, 42.9748086 ], [ 131.7451022, 42.9737348 ], [ 131.7444391, 42.9726011 ], [ 131.744073500000013, 42.9717444 ], [ 131.7443519, 42.9708818 ], [ 131.7452202, 42.970272 ], [ 131.746624700000012, 42.9702163 ], [ 131.74733710000001, 42.9699196 ], [ 131.74841090000001, 42.9693509 ], [ 131.7495084, 42.9684487 ], [ 131.7509559, 42.9674681 ], [ 131.75401, 42.9662686 ], [ 131.7551676, 42.9654626 ], [ 131.755781, 42.964511 ], [ 131.7568379, 42.9638133 ], [ 131.7576034, 42.9632043 ], [ 131.759017300000011, 42.9628474 ], [ 131.7607822, 42.9624766 ], [ 131.761912599999988, 42.9626705 ], [ 131.7624805, 42.9624933 ], [ 131.762988400000012, 42.9622307 ], [ 131.763259, 42.9617874 ], [ 131.763060700000011, 42.9613162 ], [ 131.7625425, 42.9609661 ], [ 131.762066, 42.9604867 ], [ 131.7615443, 42.9599324 ], [ 131.760881, 42.959659 ], [ 131.7601132, 42.9592682 ], [ 131.7593464, 42.9589312 ], [ 131.758377599999989, 42.958768 ], [ 131.757844, 42.958375 ], [ 131.756264, 42.9575508 ], [ 131.755345299999988, 42.9568819 ], [ 131.7546058, 42.9564263 ], [ 131.7539839, 42.9560019 ], [ 131.754005400000011, 42.9555394 ], [ 131.7541489, 42.9544953 ], [ 131.7543617, 42.952354 ], [ 131.7541616, 42.9517645 ], [ 131.7537446, 42.9513383 ], [ 131.7538399, 42.9509074 ], [ 131.75429, 42.950699 ], [ 131.7547811, 42.9503075 ], [ 131.754847, 42.9498769 ], [ 131.7547036, 42.9491794 ], [ 131.7538939, 42.9488965 ], [ 131.752914800000013, 42.9489806 ], [ 131.752188, 42.9492774 ], [ 131.751478600000013, 42.9497354 ], [ 131.751267399999989, 42.9502318 ], [ 131.7511718, 42.9506412 ], [ 131.7506938, 42.9509358 ], [ 131.7499368, 42.9511792 ], [ 131.7491177, 42.9512081 ], [ 131.748098700000014, 42.9515398 ], [ 131.7462057, 42.9521159 ], [ 131.745155, 42.9522973 ], [ 131.7436581, 42.9520527 ], [ 131.741451, 42.9513415 ], [ 131.7374906, 42.9490332 ], [ 131.7340815, 42.9464188 ], [ 131.7303449, 42.9487956 ], [ 131.736854099999988, 42.9548012 ], [ 131.7363104, 42.9555586 ], [ 131.7356486, 42.9562526 ], [ 131.734779, 42.9567764 ], [ 131.734138300000012, 42.9569756 ], [ 131.7332112, 42.9575643 ], [ 131.732146300000011, 42.9586704 ], [ 131.730776600000013, 42.9572634 ], [ 131.728516899999988, 42.9551333 ], [ 131.727416, 42.9540464 ], [ 131.7273212, 42.9536172 ], [ 131.7269552, 42.9527174 ], [ 131.7263308, 42.9521208 ], [ 131.725627, 42.952041 ], [ 131.721997499999986, 42.9520515 ], [ 131.7204513, 42.952366 ], [ 131.715733, 42.9538264 ], [ 131.7166758, 42.9542052 ], [ 131.717974, 42.9548389 ], [ 131.719051400000012, 42.9562916 ], [ 131.719863, 42.9575961 ], [ 131.720086400000014, 42.9587337 ], [ 131.7199812, 42.9594657 ], [ 131.71938320000001, 42.960503 ], [ 131.7187829, 42.9613898 ], [ 131.716868, 42.9624601 ], [ 131.7157187, 42.9638032 ], [ 131.7146565, 42.9651026 ], [ 131.7132708, 42.9663187 ], [ 131.71214470000001, 42.9672961 ], [ 131.7115125, 42.9680327 ], [ 131.7114075, 42.9687861 ], [ 131.7114451, 42.9693018 ], [ 131.7109316, 42.9701448 ], [ 131.7100672, 42.9710124 ], [ 131.7094662, 42.9718777 ], [ 131.708753, 42.9730449 ], [ 131.7083087, 42.9745539 ], [ 131.708148599999987, 42.9755228 ], [ 131.7074642, 42.9766683 ], [ 131.7069165, 42.9772106 ], [ 131.7063971, 42.9776881 ], [ 131.705954100000014, 42.9783693 ], [ 131.7065029, 42.9788053 ], [ 131.707181600000013, 42.9791327 ], [ 131.707697700000011, 42.979354 ], [ 131.707822, 42.9798044 ], [ 131.7077869, 42.980353 ], [ 131.7080899, 42.9809847 ], [ 131.7086423, 42.9816465 ], [ 131.709414, 42.9822848 ], [ 131.710093, 42.9826229 ], [ 131.7110516, 42.9830447 ], [ 131.71164730000001, 42.983663 ], [ 131.7118332, 42.9842957 ], [ 131.7119712, 42.9846815 ], [ 131.7125322, 42.9849669 ], [ 131.7140162, 42.9852765 ], [ 131.716570100000013, 42.9856413 ], [ 131.7184452, 42.9856894 ], [ 131.719235, 42.9856287 ], [ 131.720063900000014, 42.985248 ], [ 131.720794399999988, 42.9842712 ], [ 131.7214856, 42.9835556 ], [ 131.7223257, 42.9829892 ], [ 131.7233358, 42.9820773 ], [ 131.723966600000011, 42.9812547 ], [ 131.7251492, 42.9801477 ], [ 131.726107, 42.9796232 ], [ 131.7268944, 42.9794227 ], [ 131.7282759, 42.9797331 ], [ 131.7297878, 42.9808593 ], [ 131.729943100000014, 42.9813954 ], [ 131.729403, 42.9823893 ], [ 131.728859, 42.9831466 ], [ 131.728469100000012, 42.9843757 ], [ 131.7284486, 42.9849134 ], [ 131.7279628, 42.9856487 ], [ 131.7275641, 42.9863403 ], [ 131.7271397, 42.9872471 ], [ 131.726588600000014, 42.9875745 ], [ 131.7258617, 42.9879034 ], [ 131.723719100000011, 42.9885135 ], [ 131.7231741, 42.9892171 ], [ 131.7230059, 42.9896809 ], [ 131.7224731, 42.9902339 ], [ 131.7218158, 42.9912394 ], [ 131.721649, 42.9917892 ], [ 131.7219503, 42.9923026 ], [ 131.722498, 42.9926633 ], [ 131.7233085, 42.9929679 ], [ 131.724367699999988, 42.9932596 ], [ 131.725265799999988, 42.9935527 ], [ 131.7260329, 42.99389 ], [ 131.7270369, 42.9943864 ], [ 131.7277561, 42.9944768 ], [ 131.7283674, 42.9942457 ], [ 131.7293079, 42.9944416 ], [ 131.730219, 42.9946271 ], [ 131.731491, 42.9944975 ], [ 131.732558399999988, 42.9943913 ], [ 131.7337408, 42.9941551 ], [ 131.734236, 42.9939894 ], [ 131.734285699999987, 42.9934514 ], [ 131.7340295, 42.9930129 ], [ 131.733157799999987, 42.9925476 ], [ 131.7327414, 42.9921643 ], [ 131.7323802, 42.9915762 ], [ 131.7319353, 42.9912362 ], [ 131.73190120000001, 42.9909462 ], [ 131.7320401, 42.9904827 ], [ 131.7323283, 42.9902006 ], [ 131.732948, 42.9895931 ], [ 131.733419199999986, 42.9888578 ], [ 131.7338167, 42.9881018 ], [ 131.734180900000013, 42.9870987 ], [ 131.734566, 42.9864717 ] ] ] ] } },
{ "type": "Feature", "properties": { "fid": 11, "NAME": "Рейнеке", "NAME_EN": null, "NAME_RU": null, "INT_NAME": null, "OFFICIAL_S": "ru:посёлок", "PLACE": "hamlet", "A_CNTR": "RU", "A_RGN": "Приморский край", "A_DSTRCT": "Владивостокский городской округ", "A_PSTCD": null, "POPULATION": null, "OSM_TYPE": "relation", "OSM_ID": 14133808, "oktmo": "05701000121", "okato": null }, "geometry": { "type": "MultiPolygon", "coordinates": [ [ [ [ 131.7172864, 42.9232161 ], [ 131.716423600000013, 42.9232344 ], [ 131.7160877, 42.9232696 ], [ 131.715800699999988, 42.9236161 ], [ 131.7150923, 42.9241383 ], [ 131.7145387, 42.9242829 ], [ 131.713235, 42.924176 ], [ 131.7118983, 42.9238328 ], [ 131.7108395, 42.9234873 ], [ 131.7102492, 42.9231699 ], [ 131.7098806, 42.9229903 ], [ 131.7097884, 42.9227116 ], [ 131.709579100000013, 42.9224339 ], [ 131.709018500000013, 42.9221377 ], [ 131.708349199999986, 42.9214555 ], [ 131.7081488, 42.9208121 ], [ 131.7082169, 42.9204998 ], [ 131.7086655, 42.9201949 ], [ 131.70943650000001, 42.9199302 ], [ 131.710278100000011, 42.9195036 ], [ 131.710973200000012, 42.9190675 ], [ 131.711606499999988, 42.9184277 ], [ 131.712176199999988, 42.9183798 ], [ 131.7129505, 42.9183193 ], [ 131.7144506, 42.9188223 ], [ 131.714872500000013, 42.9186788 ], [ 131.7156278, 42.9183497 ], [ 131.716844900000012, 42.9176295 ], [ 131.7172186, 42.9172177 ], [ 131.717186, 42.9170138 ], [ 131.716960699999987, 42.9166502 ], [ 131.717162300000012, 42.9164549 ], [ 131.717423200000013, 42.9163021 ], [ 131.718559699999986, 42.9160342 ], [ 131.7216233, 42.9155343 ], [ 131.7295047, 42.9091326 ], [ 131.7396784, 42.9087949 ], [ 131.7453889, 42.9100768 ], [ 131.745123400000011, 42.910821 ], [ 131.7449494, 42.9117902 ], [ 131.744551199999989, 42.912471 ], [ 131.7436559, 42.9131671 ], [ 131.7429927, 42.9137429 ], [ 131.742741, 42.9144439 ], [ 131.743131799999986, 42.9150747 ], [ 131.743405700000011, 42.9157173 ], [ 131.743563, 42.9163825 ], [ 131.743544500000013, 42.9170277 ], [ 131.7436444, 42.9177578 ], [ 131.743918, 42.9183789 ], [ 131.7439578, 42.9190129 ], [ 131.74419, 42.9197848 ], [ 131.7444688, 42.9207177 ], [ 131.744141, 42.9212366 ], [ 131.7432269, 42.9216856 ], [ 131.7426418, 42.9216909 ], [ 131.741654899999986, 42.9212804 ], [ 131.741224499999987, 42.920908 ], [ 131.740327, 42.9205935 ], [ 131.7389522, 42.9206058 ], [ 131.7374346, 42.9208343 ], [ 131.7358773, 42.9213105 ], [ 131.7346737, 42.9219555 ], [ 131.7340385, 42.9224664 ], [ 131.7337427, 42.9231571 ], [ 131.7334482, 42.9239338 ], [ 131.733118499999989, 42.9243452 ], [ 131.7324487, 42.924534 ], [ 131.731789600000013, 42.924486 ], [ 131.7313904, 42.9242316 ], [ 131.7305801, 42.923884 ], [ 131.728361799999988, 42.9233123 ], [ 131.727051100000011, 42.9227756 ], [ 131.726199799999989, 42.9226003 ], [ 131.725075800000013, 42.92275 ], [ 131.723707100000013, 42.9231383 ], [ 131.722641399999986, 42.9232767 ], [ 131.7212227, 42.9232891 ], [ 131.7200483, 42.9230414 ], [ 131.7191556, 42.923017 ], [ 131.7179233, 42.922802 ], [ 131.7172864, 42.9232161 ] ], [ [ 131.731011599999988, 42.9105007 ], [ 131.7310038, 42.911807 ], [ 131.7331462, 42.911788 ], [ 131.7331424, 42.9115569 ], [ 131.7335225, 42.9115428 ], [ 131.7334686, 42.9104897 ], [ 131.731011599999988, 42.9105007 ] ] ] ] } }
]
}
