{
"type": "FeatureCollection",
"name": "Маркеры Арсеньев",
"crs": { "type": "name", "properties": { "name": "urn:ogc:def:crs:EPSG::32653" } },
"features": [
{ "type": "Feature", "properties": { "id": 1, "marker_name": "Золотой мост", "marker_category": "Визуальные символы и доминанты" }, "geometry": { "type": "MultiPoint", "coordinates": [ [ 247457.413224286050536, 4777624.694643900729716 ] ] } },
{ "type": "Feature", "properties": { "id": 2, "marker_name": "Русский мост", "marker_category": "Визуальные символы и доминанты" }, "geometry": { "type": "MultiPoint", "coordinates": [ [ 248266.752596316946438, 4772475.170830715447664 ] ] } },
{ "type": "Feature", "properties": { "id": 3, "marker_name": "Токаревский маяк", "marker_category": "Визуальные символы и доминанты" }, "geometry": { "type": "MultiPoint", "coordinates": [ [ 242903.932856839353917, 4773972.76168477255851 ] ] } },
{ "type": "Feature", "properties": { "id": 4, "marker_name": "ЖД вокзал", "marker_category": "Визуальные символы и доминанты" }, "geometry": { "type": "MultiPoint", "coordinates": [ [ 246284.512514264730271, 4777898.382855737581849 ] ] } },
{ "type": "Feature", "properties": { "id": 5, "marker_name": "Сопка Бурачка", "marker_category": "Природные доминанты" }, "geometry": { "type": "MultiPoint", "coordinates": [ [ 249127.55970954609802, 4776177.810468770563602 ] ] } },
{ "type": "Feature", "properties": { "id": 6, "marker_name": "Сопка Орлиное гнездо", "marker_category": "Природные доминанты" }, "geometry": { "type": "MultiPoint", "coordinates": [ [ 247718.004225285869325, 4779072.338238632306457 ] ] } },
{ "type": "Feature", "properties": { "id": 7, "marker_name": "Сопка Холодильник", "marker_category": "Природные доминанты" }, "geometry": { "type": "MultiPoint", "coordinates": [ [ 250940.321519481833093, 4781413.153327950276434 ] ] } },
{ "type": "Feature", "properties": { "id": 8, "marker_name": "Сопка Тигровая", "marker_category": "Природные доминанты" }, "geometry": { "type": "MultiPoint", "coordinates": [ [ 246084.001725459849695, 4778247.404833484441042 ] ] } },
{ "type": "Feature", "properties": { "id": 9, "marker_name": "Форт", "marker_category": "Объекты наследия" }, "geometry": { "type": "MultiPoint", "coordinates": [ [ 255676.0805984318431, 4781999.377950384281576 ] ] } },
{ "type": "Feature", "properties": { "id": 10, "marker_name": "Форт", "marker_category": "Объекты наследия" }, "geometry": { "type": "MultiPoint", "coordinates": [ [ 257564.421540484036086, 4782776.361050802282989 ] ] } },
{ "type": "Feature", "properties": { "id": 11, "marker_name": "Форт", "marker_category": "Объекты наследия" }, "geometry": { "type": "MultiPoint", "coordinates": [ [ 248633.847028700227384, 4764567.838926055468619 ] ] } },
{ "type": "Feature", "properties": { "id": 12, "marker_name": "Форт", "marker_category": "Объекты наследия" }, "geometry": { "type": "MultiPoint", "coordinates": [ [ 245893.998296291974839, 4762580.608732835389674 ] ] } },
{ "type": "Feature", "properties": { "id": 13, "marker_name": "Форт", "marker_category": "Объекты наследия" }, "geometry": { "type": "MultiPoint", "coordinates": [ [ 242679.429967609670712, 4762265.472554363310337 ] ] } },
{ "type": "Feature", "properties": { "id": 14, "marker_name": "Спортивная набережная", "marker_category": "Места силы" }, "geometry": { "type": "MultiPoint", "coordinates": [ [ 245992.40419009377365, 4778673.396221118047833 ] ] } },
{ "type": "Feature", "properties": { "id": 15, "marker_name": "Парк Минного городка", "marker_category": "Места силы" }, "geometry": { "type": "MultiPoint", "coordinates": [ [ 251118.572654884948861, 4778822.808930340223014 ] ] } },
{ "type": "Feature", "properties": { "id": 16, "marker_name": "ДВФУ", "marker_category": "Места силы" }, "geometry": { "type": "MultiPoint", "coordinates": [ [ 246959.532831618562341, 4768479.826891203410923 ] ] } },
{ "type": "Feature", "properties": { "id": 17, "marker_name": "Маяк", "marker_category": "Места силы" }, "geometry": { "type": "MultiPoint", "coordinates": [ [ 242835.852110163861653, 4774075.252571431919932 ] ] } },
{ "type": "Feature", "properties": { "id": 18, "marker_name": "Некрасовский путепровод", "marker_category": "Места тревоги" }, "geometry": { "type": "MultiPoint", "coordinates": [ [ 248754.497678921296028, 4780715.23358887154609 ] ] } },
{ "type": "Feature", "properties": { "id": 19, "marker_name": "Автовокзал", "marker_category": "Места тревоги" }, "geometry": { "type": "MultiPoint", "coordinates": [ [ 248569.076477014838019, 4783869.259764637798071 ] ] } },
{ "type": "Feature", "properties": { "id": 20, "marker_name": "Кампус ДВФУ", "marker_category": "Новая идентичность и точки роста" }, "geometry": { "type": "MultiPoint", "coordinates": [ [ 246778.334111341828248, 4768614.070946307852864 ] ] } },
{ "type": "Feature", "properties": { "id": 21, "marker_name": "ИНТЦ", "marker_category": "Новая идентичность и точки роста" }, "geometry": { "type": "MultiPoint", "coordinates": [ [ 246123.342732254677685, 4768209.382568063214421 ] ] } },
{ "type": "Feature", "properties": { "id": 22, "marker_name": "День города (Площадь Борцов Революции)", "marker_category": "Событийный каркас" }, "geometry": { "type": "MultiPoint", "coordinates": [ [ 246595.944628917553928, 4778344.122900606133044 ] ] } },
{ "type": "Feature", "properties": { "id": 23, "marker_name": "День ВМФ", "marker_category": "Корабельная набережная" }, "geometry": { "type": "MultiPoint", "coordinates": [ [ 246850.947110832959879, 4778132.034511432982981 ] ] } },
{ "type": "Feature", "properties": { "id": 24, "marker_name": "День Тигра (улица Светланская)", "marker_category": "Событийный каркас" }, "geometry": { "type": "MultiPoint", "coordinates": [ [ 246618.936491860280512, 4778376.553187092766166 ] ] } },
{ "type": "Feature", "properties": { "id": 25, "marker_name": "Проблемы с ливневкой", "marker_category": "Инфраструктурный дефицит" }, "geometry": { "type": "MultiPoint", "coordinates": [ [ 246161.822292327648029, 4778659.846152792684734 ] ] } },
{ "type": "Feature", "properties": { "id": 26, "marker_name": "Дефицит социальной инфраструктуры", "marker_category": "Инфраструктурный дефицит" }, "geometry": { "type": "MultiPoint", "coordinates": [ [ 252751.100272278330522, 4780390.994420608505607 ] ] } },
{ "type": "Feature", "properties": { "id": 27, "marker_name": "Дефицит социальной инфраструктуры", "marker_category": "Инфраструктурный дефицит" }, "geometry": { "type": "MultiPoint", "coordinates": [ [ 252137.135135354008526, 4774204.510608958080411 ] ] } },
{ "type": "Feature", "properties": { "id": 28, "marker_name": "Остров Русский", "marker_category": "Территории нового развития" }, "geometry": { "type": "MultiPoint", "coordinates": [ [ 246487.890682529367041, 4768037.874432245269418 ] ] } },
{ "type": "Feature", "properties": { "id": 29, "marker_name": "Новый жилой микрорайон Патрокл", "marker_category": "Территории нового развития" }, "geometry": { "type": "MultiPoint", "coordinates": [ [ 252093.518639143527253, 4774043.925792596302927 ] ] } }
]
}
